{"type": "FeatureCollection", "features": [{"type": "Feature", "id": 52, "geometry": {"type": "Polygon", "coordinates": [[[-86.6038, 36.2417], [-86.6024, 36.2416], [-86.6022, 36.2382], [-86.6028, 36.2368], [-86.6015, 36.2368], [-86.6014, 36.238], [-86.6004, 36.2376], [-86.6014, 36.2389], [-86.5998, 36.2424], [-86.6009, 36.2419], [-86.6019, 36.238], [-86.602, 36.2417], [-86.6038, 36.2417]]]}, "properties": {"OBJECTID": 52, "Category_of_Berth": "First Class Landing", "Class_of_Dangerous_Cargo": "", "Text_Description": "", "Depth_Range_Value_1": "", "Object_Name": "First Class Landing", "Status": "", "Information": "", "Scale_Minimum": 45000, "Source_Date": "20050412", "Source_Indication": "US,U3,USACE,LRN_GIS", "Source_Dataset": "U37CR221.000", "Feature_ID": "U3 1392979881 00001", "SHAPE_Length": 0.029834534089515325, "SHAPE_Area": 5.058348599990787e-06}}]}