{"type": "FeatureCollection", "features": [{"type": "Feature", "id": 582, "geometry": {"type": "Polygon", "coordinates": [[[-86.6142, 36.3054], [-86.6137, 36.3054], [-86.6136, 36.3056], [-86.6142, 36.3054]]]}, "properties": {"OBJECTID": 582, "Category_of_Bridge": "Fixed Bridge", "Vertical_Clearance": "Unknown", "Horizontal_Clearance": "Unknown", "Picture_Representation": "", "Vertical_Clearance_Closed": "", "Vertical_Clearance_Open": "", "Vertical_Datum": "", "Waterway_Distance": "Unknown", "Horizontal_Units": "Statute Miles", "Object_Name": "", "Condition": "", "Information": "", "Scale_Minimum": 300000, "Source_Date": "20050412", "Source_Indication": "US,U3,USACE,LRN_GIS", "Source_Dataset": "U37CR221.000", "Feature_ID": "U3 1392984770 00001"}}, {"type": "Feature", "id": 583, "geometry": {"type": "Polygon", "coordinates": [[[-86.5718, 36.2455], [-86.5716, 36.2457], [-86.5717, 36.2458], [-86.5718, 36.2455]]]}, "properties": {"OBJECTID": 583, "Category_of_Bridge": "Fixed Bridge", "Vertical_Clearance": "Unknown", "Horizontal_Clearance": "Unknown", "Picture_Representation": "", "Vertical_Clearance_Closed": "", "Vertical_Clearance_Open": "", "Vertical_Datum": "", "Waterway_Distance": "Unknown", "Horizontal_Units": "Statute Miles", "Object_Name": "", "Condition": "", "Information": "", "Scale_Minimum": 300000, "Source_Date": "20050412", "Source_Indication": "US,U3,USACE,LRN_GIS", "Source_Dataset": "U37CR221.000", "Feature_ID": "U3 1392984772 00001"}}, {"type": "Feature", "id": 584, "geometry": {"type": "Polygon", "coordinates": [[[-86.4438, 36.287], [-86.4437, 36.2873], [-86.4438, 36.2873], [-86.4438, 36.287]]]}, "properties": {"OBJECTID": 584, "Category_of_Bridge": "Fixed Bridge", "Vertical_Clearance": "Unknown", "Horizontal_Clearance": "Unknown", "Picture_Representation": "", "Vertical_Clearance_Closed": "", "Vertical_Clearance_Open": "", "Vertical_Datum": "", "Waterway_Distance": "Unknown", "Horizontal_Units": "Statute Miles", "Object_Name": "", "Condition": "", "Information": "", "Scale_Minimum": 300000, "Source_Date": "20050412", "Source_Indication": "US,U3,USACE,LRN_GIS", "Source_Dataset": "U37CR221.000", "Feature_ID": "U3 1392984774 00001"}}, {"type": "Feature", "id": 585, "geometry": {"type": "Polygon", "coordinates": [[[-86.4687, 36.3236], [-86.4689, 36.3235], [-86.4689, 36.3235], [-86.4687, 36.3236]]]}, "properties": {"OBJECTID": 585, "Category_of_Bridge": "Fixed Bridge", "Vertical_Clearance": "Unknown", "Horizontal_Clearance": "Unknown", "Picture_Representation": "", "Vertical_Clearance_Closed": "", "Vertical_Clearance_Open": "", "Vertical_Datum": "", "Waterway_Distance": "Unknown", "Horizontal_Units": "Statute Miles", "Object_Name": "", "Condition": "", "Information": "", "Scale_Minimum": 300000, "Source_Date": "20050412", "Source_Indication": "US,U3,USACE,LRN_GIS", "Source_Dataset": "U37CR221.000", "Feature_ID": "U3 1392984775 00001"}}, {"type": "Feature", "id": 586, "geometry": {"type": "Polygon", "coordinates": [[[-86.5122, 36.3499], [-86.5127, 36.3498], [-86.5126, 36.3496], [-86.5122, 36.3499]]]}, "properties": {"OBJECTID": 586, "Category_of_Bridge": "Fixed Bridge", "Vertical_Clearance": "Unknown", "Horizontal_Clearance": "Unknown", "Picture_Representation": "", "Vertical_Clearance_Closed": "", "Vertical_Clearance_Open": "", "Vertical_Datum": "", "Waterway_Distance": "Unknown", "Horizontal_Units": "Statute Miles", "Object_Name": "", "Condition": "", "Information": "", "Scale_Minimum": 300000, "Source_Date": "20050412", "Source_Indication": "US,U3,USACE,LRN_GIS", "Source_Dataset": "U37CR221.000", "Feature_ID": "U3 1392984785 00001"}}, {"type": "Feature", "id": 587, "geometry": {"type": "Polygon", "coordinates": [[[-86.4984, 36.289], [-86.4985, 36.2892], [-86.4986, 36.2891], [-86.4984, 36.289]]]}, "properties": {"OBJECTID": 587, "Category_of_Bridge": "Fixed Bridge", "Vertical_Clearance": "Unknown", "Horizontal_Clearance": "Unknown", "Picture_Representation": "", "Vertical_Clearance_Closed": "", "Vertical_Clearance_Open": "", "Vertical_Datum": "", "Waterway_Distance": "Unknown", "Horizontal_Units": "Statute Miles", "Object_Name": "", "Condition": "", "Information": "", "Scale_Minimum": 300000, "Source_Date": "20050412", "Source_Indication": "US,U3,USACE,LRN_GIS", "Source_Dataset": "U37CR221.000", "Feature_ID": "U3 1392984787 00001"}}, {"type": "Feature", "id": 588, "geometry": {"type": "Polygon", "coordinates": [[[-86.6132, 36.3048], [-86.6125, 36.3047], [-86.6132, 36.3048], [-86.6132, 36.3048]]]}, "properties": {"OBJECTID": 588, "Category_of_Bridge": "Fixed Bridge", "Vertical_Clearance": "Unknown", "Horizontal_Clearance": "Unknown", "Picture_Representation": "", "Vertical_Clearance_Closed": "", "Vertical_Clearance_Open": "", "Vertical_Datum": "", "Waterway_Distance": "Unknown", "Horizontal_Units": "Statute Miles", "Object_Name": "", "Condition": "", "Information": "", "Scale_Minimum": 300000, "Source_Date": "20050412", "Source_Indication": "US,U3,USACE,LRN_GIS", "Source_Dataset": "U37CR221.000", "Feature_ID": "U3 1392984791 00001"}}, {"type": "Feature", "id": 594, "geometry": {"type": "Polygon", "coordinates": [[[-86.4543, 36.2811], [-86.4546, 36.2812], [-86.4546, 36.2811], [-86.4543, 36.2811]]]}, "properties": {"OBJECTID": 594, "Category_of_Bridge": "Fixed Bridge", "Vertical_Clearance": "Unknown", "Horizontal_Clearance": "Unknown", "Picture_Representation": "", "Vertical_Clearance_Closed": "", "Vertical_Clearance_Open": "", "Vertical_Datum": "", "Waterway_Distance": "Unknown", "Horizontal_Units": "Statute Miles", "Object_Name": "", "Condition": "", "Information": "", "Scale_Minimum": 300000, "Source_Date": "20050412", "Source_Indication": "US,U3,USACE,LRN_GIS", "Source_Dataset": "U37CR221.000", "Feature_ID": "U3 1392984803 00001"}}]}