{"type": "FeatureCollection", "features": [{"type": "Feature", "id": 93, "geometry": {"type": "Polygon", "coordinates": [[[-86.9819, 36.2205], [-86.9803, 36.2166], [-86.9823, 36.2136], [-86.9881, 36.2152], [-86.9883, 36.2145], [-86.9844, 36.2138], [-86.9851, 36.211], [-86.9718, 36.2112], [-86.9679, 36.2096], [-86.9472, 36.2046], [-86.9448, 36.2022], [-86.945, 36.2033], [-86.9427, 36.203], [-86.9447, 36.2028], [-86.9449, 36.202], [-86.9414, 36.1988], [-86.9402, 36.1946], [-86.9413, 36.1825], [-86.9406, 36.1645], [-86.9387, 36.1542], [-86.9325, 36.1485], [-86.9277, 36.1425], [-86.9244, 36.1399], [-86.9193, 36.1382], [-86.9071, 36.1363], [-86.8993, 36.1378], [-86.8936, 36.1424], [-86.8905, 36.1495], [-86.8888, 36.1585], [-86.8895, 36.1621], [-86.891, 36.165], [-86.8945, 36.1687], [-86.8996, 36.1708], [-86.9033, 36.1741], [-86.9042, 36.1765], [-86.9123, 36.1863], [-86.9137, 36.1892], [-86.9136, 36.194], [-86.9109, 36.199], [-86.9068, 36.2044], [-86.9019, 36.2075], [-86.8933, 36.2075], [-86.8875, 36.2055], [-86.8859, 36.2065], [-86.8867, 36.2051], [-86.8814, 36.2022], [-86.873, 36.1954], [-86.8617, 36.1789], [-86.8602, 36.1775], [-86.8586, 36.1789], [-86.8601, 36.1771], [-86.8568, 36.1736], [-86.8491, 36.1684], [-86.8432, 36.1672], [-86.8403, 36.1677], [-86.838, 36.17], [-86.8343, 36.1765], [-86.8333, 36.1812], [-86.8301, 36.1896], [-86.8255, 36.1949], [-86.82, 36.1993], [-86.8124, 36.2025], [-86.8082, 36.2031], [-86.8037, 36.2033], [-86.7932, 36.2016], [-86.7878, 36.1994], [-86.7851, 36.1971], [-86.784, 36.1983], [-86.7849, 36.1968], [-86.7822, 36.1931], [-86.7813, 36.1893], [-86.7806, 36.1789], [-86.7741, 36.1655], [-86.7722, 36.1629], [-86.7694, 36.1612], [-86.7633, 36.1594], [-86.7496, 36.1612], [-86.7407, 36.1638], [-86.7215, 36.1653], [-86.7157, 36.1668], [-86.7086, 36.1716], [-86.7015, 36.18], [-86.6922, 36.1885], [-86.6909, 36.1908], [-86.6911, 36.1929], [-86.7013, 36.2097], [-86.707, 36.2166], [-86.7097, 36.2265], [-86.7134, 36.2344], [-86.7135, 36.2375], [-86.7125, 36.2403], [-86.7037, 36.2462], [-86.6917, 36.2469], [-86.6865, 36.2446], [-86.6836, 36.2423], [-86.6771, 36.2279], [-86.6754, 36.206], [-86.6714, 36.198], [-86.6682, 36.1942], [-86.6648, 36.1935], [-86.661, 36.1938], [-86.6534, 36.1966], [-86.6459, 36.2014], [-86.641, 36.2064], [-86.6397, 36.2089], [-86.6449, 36.2251], [-86.6489, 36.2343], [-86.6566, 36.242], [-86.6609, 36.2476], [-86.668, 36.2517], [-86.6701, 36.2539], [-86.676, 36.2631], [-86.6809, 36.267], [-86.6868, 36.2782], [-86.6876, 36.285], [-86.6874, 36.2873], [-86.6862, 36.289], [-86.6772, 36.2991], [-86.6666, 36.3032], [-86.6667, 36.3041], [-86.6721, 36.3088], [-86.6726, 36.3105], [-86.6787, 36.3089], [-86.684, 36.3062], [-86.6893, 36.3014], [-86.6971, 36.2916], [-86.6985, 36.2872], [-86.6985, 36.2808], [-86.6972, 36.275], [-86.6908, 36.263], [-86.6847, 36.2574], [-86.6816, 36.2526], [-86.6905, 36.2558], [-86.7071, 36.2547], [-86.7131, 36.252], [-86.7208, 36.2463], [-86.7239, 36.2409], [-86.7246, 36.2352], [-86.718, 36.2146], [-86.7029, 36.192], [-86.7191, 36.176], [-86.7244, 36.1742], [-86.7361, 36.1736], [-86.7628, 36.1686], [-86.769, 36.179], [-86.7714, 36.195], [-86.7766, 36.203], [-86.7824, 36.2072], [-86.7882, 36.2097], [-86.8021, 36.2122], [-86.8161, 36.211], [-86.8278, 36.2057], [-86.8337, 36.2009], [-86.8403, 36.1928], [-86.8458, 36.1775], [-86.8527, 36.1842], [-86.8641, 36.2006], [-86.8787, 36.2133], [-86.8845, 36.2155], [-86.9006, 36.2168], [-86.9062, 36.2158], [-86.9125, 36.2125], [-86.9172, 36.208], [-86.9242, 36.1965], [-86.9244, 36.1867], [-86.9212, 36.1809], [-86.9117, 36.1682], [-86.9066, 36.1639], [-86.9016, 36.1615], [-86.9001, 36.1587], [-86.9012, 36.1521], [-86.9029, 36.1476], [-86.9049, 36.1458], [-86.9071, 36.1454], [-86.9182, 36.1476], [-86.9282, 36.1582], [-86.9295, 36.1653], [-86.9302, 36.1824], [-86.929, 36.1921], [-86.9296, 36.1982], [-86.9318, 36.2034], [-86.9401, 36.2115], [-86.9473, 36.2143], [-86.97, 36.2201], [-86.9819, 36.2205]]]}, "properties": {"OBJECTID": 93, "Category_of_Built_Up_Area": "Urban Area", "Object_Name": "Nashville, TN", "Information": "", "Scale_Minimum": 75000, "Source_Date": "20050408", "Source_Indication": "US,U3,USACE,LRN_GIS_Data", "Source_Dataset": "U37CR149.000", "Feature_ID": "U3 1392973047 00001"}}, {"type": "Feature", "id": 94, "geometry": {"type": "Polygon", "coordinates": [[[-86.8584, 36.1731], [-86.8632, 36.1779], [-86.873, 36.1925], [-86.8815, 36.2002], [-86.8879, 36.2038], [-86.8947, 36.2061], [-86.9003, 36.2062], [-86.9041, 36.2045], [-86.9082, 36.2004], [-86.9115, 36.1946], [-86.9123, 36.1905], [-86.9114, 36.1875], [-86.9028, 36.1776], [-86.8961, 36.1727], [-86.8884, 36.1645], [-86.8854, 36.1627], [-86.8881, 36.164], [-86.8869, 36.1591], [-86.8859, 36.1592], [-86.8862, 36.16], [-86.8851, 36.1612], [-86.8826, 36.1593], [-86.8842, 36.1579], [-86.8858, 36.1588], [-86.887, 36.1583], [-86.8883, 36.1503], [-86.8908, 36.1431], [-86.8957, 36.1382], [-86.9043, 36.1347], [-86.92, 36.1367], [-86.9202, 36.1355], [-86.923, 36.1333], [-86.925, 36.1291], [-86.9229, 36.1336], [-86.9213, 36.135], [-86.9236, 36.1337], [-86.9238, 36.1319], [-86.9251, 36.1324], [-86.9246, 36.134], [-86.9255, 36.1343], [-86.9239, 36.1341], [-86.9205, 36.1358], [-86.9204, 36.1366], [-86.9258, 36.1385], [-86.9285, 36.1405], [-86.933, 36.1463], [-86.9399, 36.1529], [-86.941, 36.1554], [-86.9428, 36.1656], [-86.9435, 36.1658], [-86.9465, 36.1628], [-86.9461, 36.1634], [-86.9474, 36.1637], [-86.9464, 36.164], [-86.9462, 36.1647], [-86.9469, 36.1652], [-86.9455, 36.1652], [-86.9449, 36.1642], [-86.9437, 36.1659], [-86.9428, 36.1659], [-86.9435, 36.1842], [-86.9423, 36.1944], [-86.9437, 36.1987], [-86.9481, 36.2027], [-86.9521, 36.2047], [-86.9653, 36.2072], [-86.9776, 36.2077], [-86.9837, 36.2088], [-86.9854, 36.1998], [-86.9669, 36.1983], [-86.9557, 36.196], [-86.9535, 36.1932], [-86.9546, 36.1823], [-86.9539, 36.1654], [-86.9509, 36.1505], [-86.9379, 36.1357], [-86.9296, 36.1301], [-86.9223, 36.1278], [-86.909, 36.1259], [-86.9022, 36.1259], [-86.8902, 36.1303], [-86.8847, 36.1347], [-86.8804, 36.14], [-86.8772, 36.1492], [-86.8755, 36.1606], [-86.878, 36.1677], [-86.8827, 36.1739], [-86.8944, 36.1837], [-86.9008, 36.1907], [-86.8973, 36.1972], [-86.8902, 36.1942], [-86.8837, 36.189], [-86.8719, 36.1723], [-86.8634, 36.1641], [-86.8548, 36.1593], [-86.8446, 36.157], [-86.8358, 36.1578], [-86.8282, 36.1628], [-86.8227, 36.1714], [-86.8192, 36.1833], [-86.8153, 36.1886], [-86.8093, 36.1922], [-86.8061, 36.1927], [-86.7975, 36.1917], [-86.7951, 36.1899], [-86.7919, 36.1717], [-86.7838, 36.1587], [-86.7804, 36.155], [-86.7737, 36.1514], [-86.7638, 36.1491], [-86.7548, 36.1496], [-86.7345, 36.154], [-86.7202, 36.1548], [-86.7091, 36.1579], [-86.7047, 36.1601], [-86.6975, 36.1661], [-86.6908, 36.1743], [-86.6832, 36.1812], [-86.6786, 36.1884], [-86.6742, 36.1848], [-86.6685, 36.1832], [-86.6618, 36.1834], [-86.6544, 36.1851], [-86.643, 36.1902], [-86.6364, 36.1949], [-86.6314, 36.1998], [-86.6277, 36.2059], [-86.6273, 36.2117], [-86.6329, 36.2284], [-86.6371, 36.2372], [-86.6265, 36.2331], [-86.6208, 36.2325], [-86.6208, 36.2428], [-86.6234, 36.2441], [-86.6237, 36.2423], [-86.6247, 36.242], [-86.6254, 36.2443], [-86.63, 36.2457], [-86.6308, 36.2447], [-86.6305, 36.2458], [-86.6314, 36.2462], [-86.6332, 36.2457], [-86.6326, 36.2469], [-86.6345, 36.2467], [-86.6341, 36.2479], [-86.6386, 36.2519], [-86.6389, 36.2509], [-86.6397, 36.2518], [-86.6414, 36.2508], [-86.6407, 36.2525], [-86.6394, 36.2529], [-86.6433, 36.2619], [-86.6439, 36.272], [-86.6448, 36.2717], [-86.645, 36.2728], [-86.6464, 36.2731], [-86.6473, 36.2717], [-86.6478, 36.2723], [-86.6495, 36.2713], [-86.6476, 36.2741], [-86.6446, 36.2745], [-86.6455, 36.2743], [-86.6498, 36.2776], [-86.6509, 36.2772], [-86.6513, 36.2786], [-86.653, 36.2787], [-86.6518, 36.2792], [-86.6518, 36.2798], [-86.653, 36.2798], [-86.6521, 36.2805], [-86.6522, 36.2813], [-86.655, 36.283], [-86.6551, 36.2841], [-86.6566, 36.2838], [-86.6562, 36.2865], [-86.658, 36.2841], [-86.6589, 36.2856], [-86.66, 36.2851], [-86.6584, 36.2867], [-86.6588, 36.2871], [-86.6571, 36.2878], [-86.6588, 36.2873], [-86.6619, 36.2887], [-86.6615, 36.2909], [-86.6577, 36.2929], [-86.6564, 36.2955], [-86.6636, 36.2992], [-86.6695, 36.3004], [-86.6734, 36.3001], [-86.6789, 36.2963], [-86.6856, 36.2874], [-86.6865, 36.2843], [-86.6856, 36.2783], [-86.6836, 36.2738], [-86.6795, 36.2675], [-86.6747, 36.2635], [-86.67, 36.257], [-86.6603, 36.2496], [-86.6582, 36.2459], [-86.6491, 36.2368], [-86.6467, 36.2327], [-86.644, 36.2272], [-86.6381, 36.2092], [-86.64, 36.2055], [-86.6456, 36.2001], [-86.6567, 36.1938], [-86.6628, 36.1925], [-86.6625, 36.1909], [-86.6631, 36.1908], [-86.6637, 36.1922], [-86.6672, 36.1921], [-86.6695, 36.1933], [-86.6728, 36.1973], [-86.6772, 36.2057], [-86.6788, 36.2275], [-86.6846, 36.2409], [-86.6863, 36.2429], [-86.6906, 36.2452], [-86.6935, 36.2457], [-86.6995, 36.2451], [-86.7046, 36.2443], [-86.7079, 36.2424], [-86.7116, 36.2384], [-86.7121, 36.2351], [-86.7079, 36.2261], [-86.7053, 36.2171], [-86.698, 36.2073], [-86.6897, 36.194], [-86.6891, 36.1917], [-86.6921, 36.1865], [-86.6995, 36.18], [-86.7068, 36.171], [-86.7112, 36.1675], [-86.708, 36.1677], [-86.7066, 36.1651], [-86.7041, 36.166], [-86.7028, 36.1651], [-86.7043, 36.1657], [-86.7067, 36.1649], [-86.7079, 36.1673], [-86.7091, 36.1675], [-86.7227, 36.1635], [-86.732, 36.1635], [-86.7438, 36.1615], [-86.7427, 36.1546], [-86.7456, 36.1524], [-86.7428, 36.1547], [-86.7441, 36.1614], [-86.7568, 36.1584], [-86.7667, 36.1585], [-86.7738, 36.1625], [-86.7815, 36.1748], [-86.784, 36.1871], [-86.7839, 36.1913], [-86.7861, 36.1958], [-86.7891, 36.1983], [-86.793, 36.2], [-86.8041, 36.2017], [-86.8102, 36.2014], [-86.815, 36.2001], [-86.8197, 36.1977], [-86.8244, 36.1939], [-86.8296, 36.187], [-86.8325, 36.176], [-86.8368, 36.1686], [-86.836, 36.1676], [-86.8358, 36.1684], [-86.8335, 36.1691], [-86.8358, 36.1684], [-86.836, 36.1675], [-86.8371, 36.1683], [-86.8406, 36.1661], [-86.8464, 36.1663], [-86.8525, 36.1685], [-86.8584, 36.1731]]]}, "properties": {"OBJECTID": 94, "Category_of_Built_Up_Area": "Urban Area", "Object_Name": "Nashville, TN", "Information": "", "Scale_Minimum": 75000, "Source_Date": "20050408", "Source_Indication": "US,U3,USACE,LRN_GIS_Data", "Source_Dataset": "U37CR149.000", "Feature_ID": "U3 1392973037 00001"}}, {"type": "Feature", "id": 95, "geometry": {"type": "Polygon", "coordinates": [[[-86.6208, 36.2428], [-86.6208, 36.2325], [-86.6132, 36.2337], [-86.6098, 36.2298], [-86.6026, 36.2277], [-86.5976, 36.2284], [-86.5922, 36.2315], [-86.5893, 36.232], [-86.5911, 36.237], [-86.5937, 36.2372], [-86.5935, 36.2398], [-86.595, 36.2395], [-86.595, 36.2408], [-86.5928, 36.2413], [-86.5935, 36.2432], [-86.5947, 36.2417], [-86.5953, 36.2428], [-86.6004, 36.242], [-86.6014, 36.2389], [-86.6004, 36.2376], [-86.6014, 36.238], [-86.6014, 36.2369], [-86.6027, 36.2367], [-86.6022, 36.2382], [-86.6026, 36.2418], [-86.6052, 36.2409], [-86.6055, 36.242], [-86.6155, 36.2443], [-86.6131, 36.2435], [-86.6132, 36.243], [-86.6197, 36.2438], [-86.619, 36.2413], [-86.6208, 36.2428]]]}, "properties": {"OBJECTID": 95, "Category_of_Built_Up_Area": "Urban Area", "Object_Name": "Nashville, TN", "Information": "", "Scale_Minimum": 75000, "Source_Date": "20050408", "Source_Indication": "US,U3,USACE,LRN_GIS_Data", "Source_Dataset": "U37CR221.000", "Feature_ID": "U3 1392973037 00001"}}]}