{"type": "FeatureCollection", "features": [{"type": "Feature", "id": 522, "geometry": {"type": "Polygon", "coordinates": [[[-86.5526, 36.3201], [-86.5553, 36.319], [-86.5565, 36.3172], [-86.5526, 36.3201]]]}, "properties": {"OBJECTID": 522, "Object_Name": "", "Periodic_Date_Start": "", "Periodic_Date_End": "", "Scale_Minimum": 60000, "Information": "Natural Rock Wall", "Source_Date": "20050412", "Source_Indication": "US,U3,USACE,LRN_GIS", "Source_Dataset": "U37CR221.000", "Feature_ID": "U3 1392981023 00001"}}, {"type": "Feature", "id": 528, "geometry": {"type": "Polygon", "coordinates": [[[-86.5581, 36.3156], [-86.5614, 36.3115], [-86.5584, 36.3149], [-86.5581, 36.3156]]]}, "properties": {"OBJECTID": 528, "Object_Name": "", "Periodic_Date_Start": "", "Periodic_Date_End": "", "Scale_Minimum": 60000, "Information": "Natural Rock Wall", "Source_Date": "20050412", "Source_Indication": "US,U3,USACE,LRN_GIS", "Source_Dataset": "U37CR221.000", "Feature_ID": "U3 1392981037 00001"}}, {"type": "Feature", "id": 529, "geometry": {"type": "Polygon", "coordinates": [[[-86.5065, 36.3087], [-86.5075, 36.3079], [-86.5067, 36.3079], [-86.5066, 36.307], [-86.5082, 36.3053], [-86.5065, 36.3069], [-86.5065, 36.3087]], [[-86.5073, 36.3079], [-86.5071, 36.3081], [-86.507, 36.308], [-86.5073, 36.3079]]]}, "properties": {"OBJECTID": 529, "Object_Name": "", "Periodic_Date_Start": "", "Periodic_Date_End": "", "Scale_Minimum": 60000, "Information": "Natural Rock Wall", "Source_Date": "20050412", "Source_Indication": "US,U3,USACE,LRN_GIS", "Source_Dataset": "U37CR221.000", "Feature_ID": "U3 1392981039 00001"}}, {"type": "Feature", "id": 531, "geometry": {"type": "Polygon", "coordinates": [[[-86.6068, 36.2937], [-86.6108, 36.2934], [-86.6106, 36.2931], [-86.6068, 36.2937]]]}, "properties": {"OBJECTID": 531, "Object_Name": "", "Periodic_Date_Start": "", "Periodic_Date_End": "", "Scale_Minimum": 60000, "Information": "Pipeline Buffer Zone", "Source_Date": "20050412", "Source_Indication": "US,U3,USACE,LRN_GIS", "Source_Dataset": "U37CR221.000", "Feature_ID": "U3 1392981079 00001"}}, {"type": "Feature", "id": 536, "geometry": {"type": "Polygon", "coordinates": [[[-86.5574, 36.2791], [-86.5573, 36.2793], [-86.5574, 36.2793], [-86.5574, 36.2791]]]}, "properties": {"OBJECTID": 536, "Object_Name": "", "Periodic_Date_Start": "", "Periodic_Date_End": "", "Scale_Minimum": 60000, "Information": "Submerged Utility", "Source_Date": "20050412", "Source_Indication": "US,U3,USACE,LRN_GIS", "Source_Dataset": "U37CR221.000", "Feature_ID": "U3 1392981137 00001"}}, {"type": "Feature", "id": 537, "geometry": {"type": "Polygon", "coordinates": [[[-86.577, 36.3141], [-86.577, 36.3139], [-86.5769, 36.314], [-86.577, 36.3141]]]}, "properties": {"OBJECTID": 537, "Object_Name": "", "Periodic_Date_Start": "", "Periodic_Date_End": "", "Scale_Minimum": 60000, "Information": "Submerged Utility", "Source_Date": "20050412", "Source_Indication": "US,U3,USACE,LRN_GIS", "Source_Dataset": "U37CR221.000", "Feature_ID": "U3 1392981139 00001"}}, {"type": "Feature", "id": 538, "geometry": {"type": "Polygon", "coordinates": [[[-86.6122, 36.2955], [-86.6121, 36.2954], [-86.6121, 36.2956], [-86.6122, 36.2955]]]}, "properties": {"OBJECTID": 538, "Object_Name": "", "Periodic_Date_Start": "", "Periodic_Date_End": "", "Scale_Minimum": 60000, "Information": "Submerged Utility", "Source_Date": "20050412", "Source_Indication": "US,U3,USACE,LRN_GIS", "Source_Dataset": "U37CR221.000", "Feature_ID": "U3 1392981145 00001"}}, {"type": "Feature", "id": 544, "geometry": {"type": "Polygon", "coordinates": [[[-86.4666, 36.3317], [-86.467, 36.3315], [-86.4643, 36.3289], [-86.4666, 36.3317]]]}, "properties": {"OBJECTID": 544, "Object_Name": "", "Periodic_Date_Start": "", "Periodic_Date_End": "", "Scale_Minimum": 60000, "Information": "Pipeline Buffer Zone", "Source_Date": "20050412", "Source_Indication": "US,U3,USACE,LRN_GIS", "Source_Dataset": "U37CR221.000", "Feature_ID": "U3 1392981171 00001"}}, {"type": "Feature", "id": 559, "geometry": {"type": "Polygon", "coordinates": [[[-86.5449, 36.322], [-86.5479, 36.3218], [-86.5508, 36.3211], [-86.5449, 36.322]]]}, "properties": {"OBJECTID": 559, "Object_Name": "", "Periodic_Date_Start": "", "Periodic_Date_End": "", "Scale_Minimum": 60000, "Information": "Natural Rock Wall", "Source_Date": "20050412", "Source_Indication": "US,U3,USACE,LRN_GIS", "Source_Dataset": "U37CR221.000", "Feature_ID": "U3 1392981248 00001"}}, {"type": "Feature", "id": 560, "geometry": {"type": "Polygon", "coordinates": [[[-86.4659, 36.3262], [-86.462, 36.3282], [-86.4644, 36.3274], [-86.4659, 36.3262]]]}, "properties": {"OBJECTID": 560, "Object_Name": "", "Periodic_Date_Start": "", "Periodic_Date_End": "", "Scale_Minimum": 60000, "Information": "Natural Rock Wall", "Source_Date": "20050412", "Source_Indication": "US,U3,USACE,LRN_GIS", "Source_Dataset": "U37CR221.000", "Feature_ID": "U3 1392981249 00001"}}, {"type": "Feature", "id": 566, "geometry": {"type": "Polygon", "coordinates": [[[-86.5031, 36.3089], [-86.5039, 36.3072], [-86.5031, 36.3082], [-86.5031, 36.3089]]]}, "properties": {"OBJECTID": 566, "Object_Name": "", "Periodic_Date_Start": "", "Periodic_Date_End": "", "Scale_Minimum": 60000, "Information": "Natural Rock Wall", "Source_Date": "20050412", "Source_Indication": "US,U3,USACE,LRN_GIS", "Source_Dataset": "U37CR221.000", "Feature_ID": "U3 1392981324 00001"}}, {"type": "Feature", "id": 567, "geometry": {"type": "Polygon", "coordinates": [[[-86.5408, 36.3099], [-86.5408, 36.307], [-86.5405, 36.3087], [-86.5408, 36.3099]]]}, "properties": {"OBJECTID": 567, "Object_Name": "", "Periodic_Date_Start": "", "Periodic_Date_End": "", "Scale_Minimum": 60000, "Information": "Natural Rock Wall", "Source_Date": "20050412", "Source_Indication": "US,U3,USACE,LRN_GIS", "Source_Dataset": "U37CR221.000", "Feature_ID": "U3 1392981327 00001"}}, {"type": "Feature", "id": 578, "geometry": {"type": "Polygon", "coordinates": [[[-86.514, 36.2983], [-86.5163, 36.2922], [-86.5168, 36.2888], [-86.514, 36.2983]]]}, "properties": {"OBJECTID": 578, "Object_Name": "", "Periodic_Date_Start": "", "Periodic_Date_End": "", "Scale_Minimum": 60000, "Information": "Natural Rock Wall", "Source_Date": "20050412", "Source_Indication": "US,U3,USACE,LRN_GIS", "Source_Dataset": "U37CR221.000", "Feature_ID": "U3 1392981347 00001"}}, {"type": "Feature", "id": 582, "geometry": {"type": "Polygon", "coordinates": [[[-86.6155, 36.2443], [-86.6053, 36.242], [-86.6132, 36.2439], [-86.6155, 36.2443]]]}, "properties": {"OBJECTID": 582, "Object_Name": "", "Periodic_Date_Start": "", "Periodic_Date_End": "", "Scale_Minimum": 60000, "Information": "Natural Rock Wall", "Source_Date": "20050412", "Source_Indication": "US,U3,USACE,LRN_GIS", "Source_Dataset": "U37CR221.000", "Feature_ID": "U3 1392981354 00001"}}, {"type": "Feature", "id": 584, "geometry": {"type": "Polygon", "coordinates": [[[-86.5674, 36.2625], [-86.5653, 36.2655], [-86.5663, 36.2644], [-86.5674, 36.2625]]]}, "properties": {"OBJECTID": 584, "Object_Name": "", "Periodic_Date_Start": "", "Periodic_Date_End": "", "Scale_Minimum": 60000, "Information": "Natural Rock Wall", "Source_Date": "20050412", "Source_Indication": "US,U3,USACE,LRN_GIS", "Source_Dataset": "U37CR221.000", "Feature_ID": "U3 1392981360 00001"}}, {"type": "Feature", "id": 585, "geometry": {"type": "Polygon", "coordinates": [[[-86.5365, 36.2839], [-86.5314, 36.2805], [-86.5307, 36.2792], [-86.5292, 36.2796], [-86.5264, 36.2781], [-86.5291, 36.2797], [-86.5306, 36.2793], [-86.5313, 36.2805], [-86.5365, 36.2839]]]}, "properties": {"OBJECTID": 585, "Object_Name": "", "Periodic_Date_Start": "", "Periodic_Date_End": "", "Scale_Minimum": 60000, "Information": "Natural Rock Wall", "Source_Date": "20050412", "Source_Indication": "US,U3,USACE,LRN_GIS", "Source_Dataset": "U37CR221.000", "Feature_ID": "U3 1392981362 00001"}}, {"type": "Feature", "id": 586, "geometry": {"type": "Polygon", "coordinates": [[[-86.5249, 36.2775], [-86.5222, 36.2773], [-86.5222, 36.2774], [-86.5249, 36.2775]]]}, "properties": {"OBJECTID": 586, "Object_Name": "", "Periodic_Date_Start": "", "Periodic_Date_End": "", "Scale_Minimum": 60000, "Information": "Natural Rock Wall", "Source_Date": "20050412", "Source_Indication": "US,U3,USACE,LRN_GIS", "Source_Dataset": "U37CR221.000", "Feature_ID": "U3 1392981364 00001"}}]}