{"type": "FeatureCollection", "features": [{"type": "Feature", "id": 3006, "geometry": {"type": "LineString", "coordinates": [[-86.5172, 36.2585], [-86.5171, 36.2587], [-86.517, 36.2584], [-86.5172, 36.2585]]}, "properties": {"OBJECTID": 3006, "Category_of_Coastline": "", "Scale_Minimum": "300000", "Source_Date": "20040930", "Source_Indication": "US,U3,USACE,LRN_GIS", "Source_Dataset": "U37CR221.000", "Feature_ID": "U3 1392979525 00001"}}, {"type": "Feature", "id": 3008, "geometry": {"type": "LineString", "coordinates": [[-86.517, 36.2582], [-86.5171, 36.2581], [-86.5172, 36.2583], [-86.517, 36.2582]]}, "properties": {"OBJECTID": 3008, "Category_of_Coastline": "", "Scale_Minimum": "300000", "Source_Date": "20040930", "Source_Indication": "US,U3,USACE,LRN_GIS", "Source_Dataset": "U37CR221.000", "Feature_ID": "U3 1392979527 00001"}}, {"type": "Feature", "id": 3010, "geometry": {"type": "LineString", "coordinates": [[-86.5177, 36.2577], [-86.5177, 36.2578], [-86.5176, 36.2577], [-86.5177, 36.2577]]}, "properties": {"OBJECTID": 3010, "Category_of_Coastline": "", "Scale_Minimum": "300000", "Source_Date": "20040930", "Source_Indication": "US,U3,USACE,LRN_GIS", "Source_Dataset": "U37CR221.000", "Feature_ID": "U3 1392979530 00001"}}, {"type": "Feature", "id": 3011, "geometry": {"type": "LineString", "coordinates": [[-86.6054, 36.2484], [-86.6049, 36.2484], [-86.6052, 36.2481], [-86.6054, 36.2484]]}, "properties": {"OBJECTID": 3011, "Category_of_Coastline": "", "Scale_Minimum": "300000", "Source_Date": "20040930", "Source_Indication": "US,U3,USACE,LRN_GIS", "Source_Dataset": "U37CR221.000", "Feature_ID": "U3 1392979532 00001"}}, {"type": "Feature", "id": 3013, "geometry": {"type": "LineString", "coordinates": [[-86.5157, 36.259], [-86.5156, 36.259], [-86.5157, 36.2589], [-86.5157, 36.259]]}, "properties": {"OBJECTID": 3013, "Category_of_Coastline": "", "Scale_Minimum": "300000", "Source_Date": "20040930", "Source_Indication": "US,U3,USACE,LRN_GIS", "Source_Dataset": "U37CR221.000", "Feature_ID": "U3 1392979536 00001"}}, {"type": "Feature", "id": 3014, "geometry": {"type": "LineString", "coordinates": [[-86.517, 36.259], [-86.517, 36.2589], [-86.5171, 36.259], [-86.517, 36.259]]}, "properties": {"OBJECTID": 3014, "Category_of_Coastline": "", "Scale_Minimum": "300000", "Source_Date": "20040930", "Source_Indication": "US,U3,USACE,LRN_GIS", "Source_Dataset": "U37CR221.000", "Feature_ID": "U3 1392979539 00001"}}, {"type": "Feature", "id": 3016, "geometry": {"type": "LineString", "coordinates": [[-86.6004, 36.249], [-86.5996, 36.2485], [-86.6002, 36.2483], [-86.6004, 36.249]]}, "properties": {"OBJECTID": 3016, "Category_of_Coastline": "", "Scale_Minimum": "300000", "Source_Date": "20040930", "Source_Indication": "US,U3,USACE,LRN_GIS", "Source_Dataset": "U37CR221.000", "Feature_ID": "U3 1392979542 00001"}}, {"type": "Feature", "id": 3021, "geometry": {"type": "LineString", "coordinates": [[-86.6008, 36.2494], [-86.601, 36.2497], [-86.6007, 36.2496], [-86.6008, 36.2494]]}, "properties": {"OBJECTID": 3021, "Category_of_Coastline": "", "Scale_Minimum": "300000", "Source_Date": "20040930", "Source_Indication": "US,U3,USACE,LRN_GIS", "Source_Dataset": "U37CR221.000", "Feature_ID": "U3 1392979547 00001"}}, {"type": "Feature", "id": 3023, "geometry": {"type": "LineString", "coordinates": [[-86.57, 36.2518], [-86.5698, 36.251], [-86.5708, 36.2507], [-86.5721, 36.252], [-86.57, 36.2518]]}, "properties": {"OBJECTID": 3023, "Category_of_Coastline": "", "Scale_Minimum": "300000", "Source_Date": "20040930", "Source_Indication": "US,U3,USACE,LRN_GIS", "Source_Dataset": "U37CR221.000", "Feature_ID": "U3 1392979549 00001"}}, {"type": "Feature", "id": 3027, "geometry": {"type": "LineString", "coordinates": [[-86.5177, 36.2576], [-86.5175, 36.2577], [-86.5176, 36.2575], [-86.5177, 36.2576]]}, "properties": {"OBJECTID": 3027, "Category_of_Coastline": "", "Scale_Minimum": "300000", "Source_Date": "20040930", "Source_Indication": "US,U3,USACE,LRN_GIS", "Source_Dataset": "U37CR221.000", "Feature_ID": "U3 1392979553 00001"}}, {"type": "Feature", "id": 3028, "geometry": {"type": "LineString", "coordinates": [[-86.5165, 36.2576], [-86.5155, 36.2589], [-86.5156, 36.2578], [-86.5165, 36.2576]]}, "properties": {"OBJECTID": 3028, "Category_of_Coastline": "", "Scale_Minimum": "300000", "Source_Date": "20040930", "Source_Indication": "US,U3,USACE,LRN_GIS", "Source_Dataset": "U37CR221.000", "Feature_ID": "U3 1392979554 00001"}}, {"type": "Feature", "id": 3030, "geometry": {"type": "LineString", "coordinates": [[-86.5155, 36.313], [-86.5186, 36.3126], [-86.5138, 36.3091], [-86.5139, 36.3081], [-86.5165, 36.3076], [-86.5137, 36.307], [-86.5134, 36.3056], [-86.5171, 36.3052], [-86.5127, 36.3043], [-86.5137, 36.3034], [-86.513, 36.3018], [-86.5146, 36.3011], [-86.5138, 36.301], [-86.5135, 36.3], [-86.5151, 36.298], [-86.5139, 36.2983], [-86.5163, 36.2922], [-86.517, 36.2879], [-86.5191, 36.2872], [-86.5196, 36.2882], [-86.5221, 36.2878], [-86.5213, 36.287], [-86.5237, 36.2886], [-86.5223, 36.2866], [-86.5225, 36.2842], [-86.5266, 36.2829], [-86.5278, 36.2834], [-86.5273, 36.2841], [-86.5248, 36.2843], [-86.5244, 36.285], [-86.5277, 36.2856], [-86.5291, 36.2848], [-86.5292, 36.2858], [-86.5319, 36.2869], [-86.5352, 36.2918], [-86.534, 36.2922], [-86.5296, 36.2906], [-86.5339, 36.2933], [-86.5351, 36.293], [-86.5359, 36.2944], [-86.5354, 36.2947], [-86.5363, 36.295], [-86.5346, 36.2962], [-86.5324, 36.2958], [-86.5356, 36.2969], [-86.5327, 36.2988], [-86.5363, 36.2985], [-86.5361, 36.2993], [-86.5338, 36.3005], [-86.5359, 36.3003], [-86.5356, 36.3011], [-86.5344, 36.3021], [-86.5332, 36.3016], [-86.5325, 36.3033], [-86.5287, 36.3061], [-86.5321, 36.3054], [-86.5302, 36.3096], [-86.5327, 36.3177], [-86.5353, 36.3204], [-86.5341, 36.3211], [-86.533, 36.3242], [-86.5361, 36.3226], [-86.5372, 36.3211], [-86.5399, 36.3219], [-86.5386, 36.3268], [-86.5403, 36.3249], [-86.5414, 36.3258], [-86.5407, 36.3238], [-86.5426, 36.3233], [-86.5423, 36.3223], [-86.5439, 36.3222], [-86.545, 36.3235], [-86.5447, 36.3221], [-86.5517, 36.321], [-86.5553, 36.319], [-86.5574, 36.3161], [-86.5592, 36.3187], [-86.5603, 36.3177], [-86.5582, 36.3154], [-86.5618, 36.311], [-86.5627, 36.3112], [-86.5623, 36.3104], [-86.5634, 36.3089], [-86.5662, 36.3066], [-86.5674, 36.3066], [-86.5661, 36.3075], [-86.5665, 36.3082], [-86.5673, 36.3078], [-86.5668, 36.309], [-86.5673, 36.3107], [-86.5691, 36.3088], [-86.5698, 36.3102], [-86.5707, 36.3099], [-86.5717, 36.3107], [-86.5713, 36.312], [-86.5728, 36.3116], [-86.5746, 36.313], [-86.5742, 36.3153], [-86.5756, 36.314], [-86.5762, 36.3154], [-86.5772, 36.3155], [-86.5772, 36.3136], [-86.5793, 36.313], [-86.5768, 36.312], [-86.5769, 36.3109], [-86.575, 36.311], [-86.5725, 36.3083], [-86.5729, 36.3076], [-86.5715, 36.3077], [-86.5702, 36.3058], [-86.5715, 36.3047], [-86.5788, 36.3045], [-86.5738, 36.3023], [-86.5727, 36.2959], [-86.5687, 36.2878], [-86.5728, 36.2901], [-86.5714, 36.2873], [-86.5699, 36.2864], [-86.5702, 36.2855], [-86.569, 36.2855], [-86.5698, 36.2834], [-86.5682, 36.2823], [-86.5709, 36.2814], [-86.5721, 36.2827], [-86.5729, 36.2822], [-86.5725, 36.2812], [-86.5737, 36.2809], [-86.5772, 36.283], [-86.5769, 36.2816], [-86.5782, 36.2811], [-86.5759, 36.2804], [-86.5743, 36.279], [-86.5749, 36.2766], [-86.5728, 36.2783], [-86.5698, 36.2776], [-86.569, 36.2764], [-86.5691, 36.2738], [-86.5703, 36.2733], [-86.5696, 36.2723], [-86.5702, 36.2704], [-86.5718, 36.2716], [-86.5721, 36.2703], [-86.5733, 36.2702], [-86.5709, 36.2691], [-86.5719, 36.2669], [-86.5744, 36.268], [-86.573, 36.2655], [-86.5737, 36.2646], [-86.5751, 36.265], [-86.5745, 36.2635], [-86.5759, 36.2635], [-86.5759, 36.2621], [-86.5773, 36.2611], [-86.5788, 36.2624], [-86.578, 36.2604], [-86.58, 36.2591], [-86.5828, 36.2639], [-86.5829, 36.2623], [-86.5814, 36.26], [-86.5815, 36.2584], [-86.583, 36.2587], [-86.5823, 36.2577], [-86.584, 36.2562], [-86.5863, 36.2567], [-86.5848, 36.2555], [-86.5867, 36.2543], [-86.587, 36.2553], [-86.5877, 36.2535], [-86.5918, 36.2512], [-86.5946, 36.2521], [-86.5926, 36.2532], [-86.594, 36.2543], [-86.5954, 36.2536], [-86.5961, 36.2541], [-86.5942, 36.2572], [-86.5956, 36.2572], [-86.5973, 36.2557], [-86.599, 36.2576], [-86.6016, 36.2588], [-86.6, 36.2601], [-86.6004, 36.2617], [-86.599, 36.2627], [-86.5984, 36.2651], [-86.5955, 36.2654], [-86.5973, 36.2671], [-86.597, 36.2686], [-86.5954, 36.2689], [-86.5965, 36.2709], [-86.5977, 36.2708], [-86.5976, 36.2717], [-86.5952, 36.2729], [-86.5943, 36.2725], [-86.5938, 36.2738], [-86.5926, 36.2738], [-86.5934, 36.2756], [-86.5929, 36.2763], [-86.5956, 36.2746], [-86.5986, 36.2746], [-86.5991, 36.2758], [-86.5986, 36.2769], [-86.5945, 36.2779], [-86.5975, 36.2794], [-86.5973, 36.2807], [-86.5985, 36.2816], [-86.5984, 36.2824], [-86.5964, 36.2834], [-86.5984, 36.284], [-86.6007, 36.2833], [-86.5998, 36.286], [-86.6016, 36.2853], [-86.6038, 36.2888], [-86.6024, 36.291], [-86.6048, 36.2901], [-86.6082, 36.2969], [-86.6086, 36.2964], [-86.6098, 36.2973], [-86.613, 36.3014]]}, "properties": {"OBJECTID": 3030, "Category_of_Coastline": "", "Scale_Minimum": "300000", "Source_Date": "20040930", "Source_Indication": "US,U3,USACE,LRN_GIS", "Source_Dataset": "U37CR221.000", "Feature_ID": "U3 1392979556 00001"}}, {"type": "Feature", "id": 3031, "geometry": {"type": "LineString", "coordinates": [[-86.4744, 36.323], [-86.475, 36.3227], [-86.4748, 36.323], [-86.4744, 36.323]]}, "properties": {"OBJECTID": 3031, "Category_of_Coastline": "", "Scale_Minimum": "300000", "Source_Date": "20040930", "Source_Indication": "US,U3,USACE,LRN_GIS", "Source_Dataset": "U37CR221.000", "Feature_ID": "U3 1392979557 00001"}}, {"type": "Feature", "id": 3036, "geometry": {"type": "LineString", "coordinates": [[-86.5125, 36.3496], [-86.5144, 36.3488], [-86.5135, 36.3482], [-86.5137, 36.3473], [-86.5114, 36.3463], [-86.5073, 36.3459], [-86.5074, 36.3442], [-86.5054, 36.346], [-86.5031, 36.3438], [-86.501, 36.3446], [-86.4999, 36.3437], [-86.4972, 36.3401], [-86.4984, 36.338], [-86.5005, 36.3375], [-86.499, 36.3348], [-86.4964, 36.3377], [-86.495, 36.3359], [-86.4952, 36.3349], [-86.4967, 36.3343], [-86.4968, 36.3326], [-86.4951, 36.3337], [-86.4934, 36.3312], [-86.4938, 36.3334], [-86.4912, 36.3332], [-86.487, 36.3305], [-86.4869, 36.3294], [-86.4815, 36.3291], [-86.483, 36.3284], [-86.4818, 36.3278], [-86.4808, 36.3244], [-86.4857, 36.3203], [-86.4866, 36.3221], [-86.487, 36.321], [-86.4898, 36.3216], [-86.489, 36.321], [-86.4893, 36.3204], [-86.4877, 36.3196], [-86.495, 36.3167], [-86.5024, 36.3099], [-86.5041, 36.3099], [-86.505, 36.3087], [-86.5065, 36.3091], [-86.5066, 36.3081], [-86.5075, 36.3079], [-86.5067, 36.3079], [-86.5066, 36.307], [-86.5079, 36.3054], [-86.5093, 36.3054], [-86.5096, 36.3063], [-86.5106, 36.3066], [-86.5105, 36.3096], [-86.5116, 36.3103], [-86.5112, 36.3124], [-86.5098, 36.3127], [-86.5109, 36.3136], [-86.5101, 36.3152], [-86.511, 36.3155], [-86.5106, 36.3176], [-86.512, 36.3171], [-86.5124, 36.313], [-86.5131, 36.3122], [-86.5155, 36.313]]}, "properties": {"OBJECTID": 3036, "Category_of_Coastline": "", "Scale_Minimum": "300000", "Source_Date": "20040930", "Source_Indication": "US,U3,USACE,LRN_GIS", "Source_Dataset": "U37CR221.000", "Feature_ID": "U3 1392979562 00001"}}, {"type": "Feature", "id": 3042, "geometry": {"type": "LineString", "coordinates": [[-86.5718, 36.2458], [-86.5702, 36.2488], [-86.5681, 36.2502], [-86.5676, 36.2492], [-86.5664, 36.2499], [-86.5648, 36.251], [-86.5645, 36.2525], [-86.5662, 36.2538], [-86.5674, 36.2533], [-86.5705, 36.2542], [-86.5715, 36.2555], [-86.5709, 36.2565], [-86.5685, 36.2571], [-86.5661, 36.2553], [-86.5658, 36.2538], [-86.5629, 36.2523], [-86.5597, 36.2551], [-86.563, 36.256], [-86.5643, 36.2573], [-86.5642, 36.2586], [-86.5623, 36.2608], [-86.5652, 36.261], [-86.5664, 36.2598], [-86.5682, 36.261], [-86.5655, 36.2652], [-86.5629, 36.2661], [-86.5631, 36.2672], [-86.562, 36.2679], [-86.5606, 36.2709], [-86.5593, 36.2713], [-86.5575, 36.2704], [-86.5563, 36.2687], [-86.5541, 36.2692], [-86.552, 36.2668], [-86.5517, 36.2692], [-86.5505, 36.2684], [-86.5488, 36.2689], [-86.5503, 36.2686], [-86.5498, 36.2689], [-86.551, 36.27], [-86.553, 36.2697], [-86.5535, 36.2707], [-86.5552, 36.2706], [-86.5554, 36.2718], [-86.5584, 36.2738], [-86.5592, 36.2753], [-86.5574, 36.2791], [-86.5558, 36.2798], [-86.5565, 36.2807], [-86.5548, 36.2834], [-86.5532, 36.2839], [-86.5501, 36.2821], [-86.5481, 36.2824], [-86.5523, 36.2847], [-86.5518, 36.2865], [-86.5546, 36.285], [-86.5538, 36.2893], [-86.5558, 36.2927], [-86.5525, 36.2926], [-86.5563, 36.2949], [-86.5549, 36.2968], [-86.5536, 36.297], [-86.5567, 36.2979], [-86.5556, 36.2992], [-86.5565, 36.2994], [-86.5566, 36.3003], [-86.5541, 36.2999], [-86.552, 36.3011], [-86.5542, 36.3005], [-86.5553, 36.3013], [-86.5547, 36.3022], [-86.5558, 36.3044], [-86.5548, 36.305], [-86.5568, 36.3056], [-86.5565, 36.3064], [-86.5538, 36.3067], [-86.5539, 36.3088], [-86.5557, 36.3083], [-86.5562, 36.3086], [-86.5552, 36.3093], [-86.5561, 36.3096], [-86.553, 36.3117], [-86.5519, 36.3117], [-86.5517, 36.3126], [-86.5534, 36.3127], [-86.551, 36.3134], [-86.5517, 36.3143], [-86.5505, 36.3152], [-86.5491, 36.3144], [-86.5492, 36.3153], [-86.5465, 36.3155], [-86.5441, 36.3133], [-86.5456, 36.3121], [-86.5434, 36.3126], [-86.5406, 36.3095], [-86.5408, 36.3071], [-86.5419, 36.3081], [-86.5441, 36.3077], [-86.5439, 36.3063], [-86.5423, 36.3069], [-86.5409, 36.3058], [-86.5436, 36.2933], [-86.5429, 36.2897], [-86.5409, 36.2871], [-86.5414, 36.2867], [-86.5394, 36.2858], [-86.5409, 36.2848], [-86.5417, 36.2831], [-86.5396, 36.284], [-86.5393, 36.2828], [-86.5401, 36.282], [-86.5387, 36.2815], [-86.5366, 36.284], [-86.5314, 36.2805], [-86.5307, 36.2792], [-86.5283, 36.2793], [-86.5262, 36.2776], [-86.5276, 36.2769], [-86.527, 36.2748], [-86.5277, 36.2739], [-86.5265, 36.2745], [-86.5251, 36.2775], [-86.5221, 36.2773], [-86.5224, 36.2759], [-86.5216, 36.2768], [-86.5187, 36.2774], [-86.5175, 36.2774], [-86.5172, 36.2764], [-86.5131, 36.2777], [-86.5102, 36.2798], [-86.5088, 36.2796], [-86.5078, 36.2761], [-86.5058, 36.2762], [-86.5091, 36.2745], [-86.5113, 36.2746], [-86.5113, 36.2735], [-86.5133, 36.2726], [-86.5119, 36.2724], [-86.5127, 36.271], [-86.5115, 36.2689], [-86.5128, 36.2666], [-86.5117, 36.2641], [-86.5131, 36.2632], [-86.5153, 36.2633], [-86.5182, 36.2609], [-86.5193, 36.2609], [-86.518, 36.2607], [-86.5188, 36.2603], [-86.518, 36.2598], [-86.5173, 36.2567]]}, "properties": {"OBJECTID": 3042, "Category_of_Coastline": "", "Scale_Minimum": "300000", "Source_Date": "20040930", "Source_Indication": "US,U3,USACE,LRN_GIS", "Source_Dataset": "U37CR221.000", "Feature_ID": "U3 1392979568 00001"}}, {"type": "Feature", "id": 3049, "geometry": {"type": "LineString", "coordinates": [[-86.4422, 36.3369], [-86.4419, 36.337], [-86.4425, 36.3368], [-86.4422, 36.3369]]}, "properties": {"OBJECTID": 3049, "Category_of_Coastline": "", "Scale_Minimum": "300000", "Source_Date": "20040930", "Source_Indication": "US,U3,USACE,LRN_GIS", "Source_Dataset": "U37CR221.000", "Feature_ID": "U3 1392979575 00001"}}, {"type": "Feature", "id": 3050, "geometry": {"type": "LineString", "coordinates": [[-86.4688, 36.3235], [-86.4685, 36.3213], [-86.4702, 36.3218], [-86.4724, 36.3204], [-86.4729, 36.3209], [-86.4724, 36.3194], [-86.4738, 36.3179], [-86.4769, 36.3179], [-86.4699, 36.3235], [-86.4688, 36.3235]]}, "properties": {"OBJECTID": 3050, "Category_of_Coastline": "", "Scale_Minimum": "300000", "Source_Date": "20040930", "Source_Indication": "US,U3,USACE,LRN_GIS", "Source_Dataset": "U37CR221.000", "Feature_ID": "U3 1392979576 00001"}}, {"type": "Feature", "id": 3055, "geometry": {"type": "LineString", "coordinates": [[-86.4756, 36.3479], [-86.4761, 36.348]]}, "properties": {"OBJECTID": 3055, "Category_of_Coastline": "", "Scale_Minimum": "300000", "Source_Date": "20050412", "Source_Indication": "US,U3,USACE,LRN_GIS", "Source_Dataset": "U37CR221.000", "Feature_ID": "U3 1392979582 00001"}}, {"type": "Feature", "id": 3058, "geometry": {"type": "LineString", "coordinates": [[-86.6048, 36.2636], [-86.6051, 36.2631], [-86.6055, 36.2636], [-86.6048, 36.2636]]}, "properties": {"OBJECTID": 3058, "Category_of_Coastline": "", "Scale_Minimum": "300000", "Source_Date": "20040930", "Source_Indication": "US,U3,USACE,LRN_GIS", "Source_Dataset": "U37CR221.000", "Feature_ID": "U3 1392979585 00001"}}, {"type": "Feature", "id": 3060, "geometry": {"type": "LineString", "coordinates": [[-86.4771, 36.3474], [-86.4772, 36.3472]]}, "properties": {"OBJECTID": 3060, "Category_of_Coastline": "", "Scale_Minimum": "300000", "Source_Date": "20050412", "Source_Indication": "US,U3,USACE,LRN_GIS", "Source_Dataset": "U37CR221.000", "Feature_ID": "U3 1392979587 00001"}}, {"type": "Feature", "id": 3061, "geometry": {"type": "LineString", "coordinates": [[-86.4447, 36.3363], [-86.4438, 36.3365], [-86.4453, 36.3361], [-86.4447, 36.3363]]}, "properties": {"OBJECTID": 3061, "Category_of_Coastline": "", "Scale_Minimum": "300000", "Source_Date": "20040930", "Source_Indication": "US,U3,USACE,LRN_GIS", "Source_Dataset": "U37CR221.000", "Feature_ID": "U3 1392979588 00001"}}, {"type": "Feature", "id": 3062, "geometry": {"type": "LineString", "coordinates": [[-86.4771, 36.3354], [-86.4772, 36.3353], [-86.4773, 36.3354], [-86.4771, 36.3354]]}, "properties": {"OBJECTID": 3062, "Category_of_Coastline": "", "Scale_Minimum": "300000", "Source_Date": "20040930", "Source_Indication": "US,U3,USACE,LRN_GIS", "Source_Dataset": "U37CR221.000", "Feature_ID": "U3 1392979589 00001"}}, {"type": "Feature", "id": 3066, "geometry": {"type": "LineString", "coordinates": [[-86.5167, 36.2568], [-86.5162, 36.2576], [-86.5158, 36.2564], [-86.5149, 36.2571], [-86.5149, 36.2608], [-86.5121, 36.2601], [-86.5079, 36.2637], [-86.5085, 36.2679], [-86.5076, 36.2693], [-86.5078, 36.2715], [-86.5068, 36.2715], [-86.5067, 36.2698], [-86.5051, 36.2692], [-86.5032, 36.2668], [-86.4992, 36.2657], [-86.4981, 36.2646], [-86.497, 36.2645], [-86.4965, 36.2653]]}, "properties": {"OBJECTID": 3066, "Category_of_Coastline": "", "Scale_Minimum": "300000", "Source_Date": "20040930", "Source_Indication": "US,U3,USACE,LRN_GIS", "Source_Dataset": "U37CR221.000", "Feature_ID": "U3 1392979593 00001"}}, {"type": "Feature", "id": 3070, "geometry": {"type": "LineString", "coordinates": [[-86.6208, 36.2428], [-86.619, 36.2413], [-86.6197, 36.2438], [-86.6132, 36.243], [-86.6131, 36.2435], [-86.6155, 36.2443], [-86.6055, 36.242], [-86.6052, 36.2409], [-86.6026, 36.2418], [-86.6022, 36.2382], [-86.6027, 36.2367], [-86.6014, 36.2369], [-86.6014, 36.238], [-86.6004, 36.2376], [-86.6014, 36.2389], [-86.6004, 36.242], [-86.5953, 36.2428], [-86.5947, 36.2417], [-86.5935, 36.2432], [-86.5932, 36.2423], [-86.5919, 36.2423], [-86.5926, 36.241], [-86.5918, 36.2414], [-86.5908, 36.2404], [-86.5906, 36.2427], [-86.5889, 36.2427], [-86.5897, 36.2433], [-86.5891, 36.2439], [-86.591, 36.2436], [-86.5911, 36.2444], [-86.5836, 36.2471], [-86.5771, 36.2506], [-86.5758, 36.2499], [-86.5766, 36.248], [-86.5747, 36.2482], [-86.5753, 36.2463], [-86.5736, 36.2458], [-86.5735, 36.2442], [-86.5719, 36.2455]]}, "properties": {"OBJECTID": 3070, "Category_of_Coastline": "", "Scale_Minimum": "300000", "Source_Date": "20040930", "Source_Indication": "US,U3,USACE,LRN_GIS_Data", "Source_Dataset": "U37CR221.000", "Feature_ID": "U3 1392979597 00001"}}, {"type": "Feature", "id": 3071, "geometry": {"type": "LineString", "coordinates": [[-86.5558, 36.3025], [-86.5566, 36.3018], [-86.5582, 36.3035], [-86.5566, 36.3042], [-86.5558, 36.3025]]}, "properties": {"OBJECTID": 3071, "Category_of_Coastline": "", "Scale_Minimum": "300000", "Source_Date": "20040930", "Source_Indication": "US,U3,USACE,LRN_GIS", "Source_Dataset": "U37CR221.000", "Feature_ID": "U3 1392979598 00001"}}, {"type": "Feature", "id": 3073, "geometry": {"type": "LineString", "coordinates": [[-86.5345, 36.304], [-86.5347, 36.304], [-86.5346, 36.3041], [-86.5345, 36.304]]}, "properties": {"OBJECTID": 3073, "Category_of_Coastline": "", "Scale_Minimum": "300000", "Source_Date": "20040930", "Source_Indication": "US,U3,USACE,LRN_GIS", "Source_Dataset": "U37CR221.000", "Feature_ID": "U3 1392979600 00001"}}, {"type": "Feature", "id": 3074, "geometry": {"type": "LineString", "coordinates": [[-86.5053, 36.3037], [-86.5055, 36.3037], [-86.5048, 36.304], [-86.5053, 36.3037]]}, "properties": {"OBJECTID": 3074, "Category_of_Coastline": "", "Scale_Minimum": "300000", "Source_Date": "20040930", "Source_Indication": "US,U3,USACE,LRN_GIS", "Source_Dataset": "U37CR221.000", "Feature_ID": "U3 1392979601 00001"}}, {"type": "Feature", "id": 3078, "geometry": {"type": "LineString", "coordinates": [[-86.5688, 36.2601], [-86.569, 36.2596], [-86.5693, 36.2596], [-86.5688, 36.2601]]}, "properties": {"OBJECTID": 3078, "Category_of_Coastline": "", "Scale_Minimum": "300000", "Source_Date": "20040930", "Source_Indication": "US,U3,USACE,LRN_GIS", "Source_Dataset": "U37CR221.000", "Feature_ID": "U3 1392979605 00001"}}, {"type": "Feature", "id": 3079, "geometry": {"type": "LineString", "coordinates": [[-86.4753, 36.3482], [-86.4758, 36.3487]]}, "properties": {"OBJECTID": 3079, "Category_of_Coastline": "", "Scale_Minimum": "300000", "Source_Date": "20050412", "Source_Indication": "US,U3,USACE,LRN_GIS", "Source_Dataset": "U37CR221.000", "Feature_ID": "U3 1392979606 00001"}}, {"type": "Feature", "id": 3083, "geometry": {"type": "LineString", "coordinates": [[-86.5031, 36.3089], [-86.505, 36.3063], [-86.5043, 36.3087], [-86.5031, 36.3089]]}, "properties": {"OBJECTID": 3083, "Category_of_Coastline": "", "Scale_Minimum": "300000", "Source_Date": "20040930", "Source_Indication": "US,U3,USACE,LRN_GIS", "Source_Dataset": "U37CR221.000", "Feature_ID": "U3 1392979610 00001"}}, {"type": "Feature", "id": 3102, "geometry": {"type": "LineString", "coordinates": [[-86.4917, 36.3135], [-86.4919, 36.3134], [-86.492, 36.3136], [-86.4917, 36.3135]]}, "properties": {"OBJECTID": 3102, "Category_of_Coastline": "", "Scale_Minimum": "300000", "Source_Date": "20040930", "Source_Indication": "US,U3,USACE,LRN_GIS", "Source_Dataset": "U37CR221.000", "Feature_ID": "U3 1392979631 00001"}}, {"type": "Feature", "id": 3105, "geometry": {"type": "LineString", "coordinates": [[-86.4762, 36.348], [-86.4764, 36.3479]]}, "properties": {"OBJECTID": 3105, "Category_of_Coastline": "", "Scale_Minimum": "300000", "Source_Date": "20050412", "Source_Indication": "US,U3,USACE,LRN_GIS", "Source_Dataset": "U37CR221.000", "Feature_ID": "U3 1392979634 00001"}}, {"type": "Feature", "id": 3106, "geometry": {"type": "LineString", "coordinates": [[-86.475, 36.336], [-86.4755, 36.3367], [-86.4764, 36.3361], [-86.4759, 36.3381], [-86.4764, 36.3387], [-86.475, 36.3412], [-86.476, 36.3436], [-86.4735, 36.3445], [-86.477, 36.3453], [-86.4772, 36.3472]]}, "properties": {"OBJECTID": 3106, "Category_of_Coastline": "", "Scale_Minimum": "300000", "Source_Date": "20050412", "Source_Indication": "US,U3,USACE,LRN_GIS", "Source_Dataset": "U37CR221.000", "Feature_ID": "U3 1392979635 00001"}}, {"type": "Feature", "id": 3109, "geometry": {"type": "LineString", "coordinates": [[-86.5727, 36.2786], [-86.5728, 36.2785], [-86.5728, 36.2786], [-86.5727, 36.2786]]}, "properties": {"OBJECTID": 3109, "Category_of_Coastline": "", "Scale_Minimum": "300000", "Source_Date": "20040930", "Source_Indication": "US,U3,USACE,LRN_GIS", "Source_Dataset": "U37CR221.000", "Feature_ID": "U3 1392979638 00001"}}, {"type": "Feature", "id": 3110, "geometry": {"type": "LineString", "coordinates": [[-86.5596, 36.2734], [-86.5594, 36.2731], [-86.5597, 36.2734], [-86.5596, 36.2734]]}, "properties": {"OBJECTID": 3110, "Category_of_Coastline": "", "Scale_Minimum": "300000", "Source_Date": "20040930", "Source_Indication": "US,U3,USACE,LRN_GIS", "Source_Dataset": "U37CR221.000", "Feature_ID": "U3 1392979639 00001"}}, {"type": "Feature", "id": 3114, "geometry": {"type": "LineString", "coordinates": [[-86.4748, 36.3494], [-86.4742, 36.35], [-86.4784, 36.3482], [-86.4778, 36.3498], [-86.4748, 36.3506], [-86.473, 36.3522], [-86.4725, 36.3555], [-86.4714, 36.3562], [-86.4731, 36.3565], [-86.4731, 36.3597], [-86.4684, 36.3622], [-86.4731, 36.3612], [-86.4767, 36.3632], [-86.478, 36.3659], [-86.4813, 36.3663]]}, "properties": {"OBJECTID": 3114, "Category_of_Coastline": "", "Scale_Minimum": "300000", "Source_Date": "20050412", "Source_Indication": "US,U3,USACE,LRN_GIS", "Source_Dataset": "U37CR221.000", "Feature_ID": "U3 1392979643 00001"}}, {"type": "Feature", "id": 3122, "geometry": {"type": "LineString", "coordinates": [[-86.512, 36.3496], [-86.5105, 36.3488], [-86.5094, 36.3502], [-86.5078, 36.3491], [-86.5035, 36.3487], [-86.5016, 36.3477], [-86.5006, 36.3485], [-86.5002, 36.347], [-86.4949, 36.3445], [-86.4933, 36.3418], [-86.4938, 36.3392], [-86.4894, 36.3357], [-86.489, 36.3383], [-86.4917, 36.343], [-86.4901, 36.3442], [-86.4904, 36.3431], [-86.4882, 36.3417], [-86.4865, 36.3388], [-86.4872, 36.3383], [-86.4872, 36.335], [-86.4838, 36.3328], [-86.4826, 36.3338], [-86.4815, 36.3327], [-86.4797, 36.3371], [-86.4808, 36.3391], [-86.4795, 36.3413], [-86.4825, 36.3425], [-86.48, 36.3429], [-86.4797, 36.3436], [-86.4817, 36.3497], [-86.4801, 36.3524], [-86.4779, 36.3518], [-86.4761, 36.3524], [-86.4751, 36.353], [-86.4748, 36.3543], [-86.4764, 36.3605], [-86.4793, 36.3631], [-86.4791, 36.3653], [-86.482, 36.3654], [-86.482, 36.3661]]}, "properties": {"OBJECTID": 3122, "Category_of_Coastline": "", "Scale_Minimum": "300000", "Source_Date": "20040930", "Source_Indication": "US,U3,USACE,LRN_GIS", "Source_Dataset": "U37CR221.000", "Feature_ID": "U3 1392979651 00001"}}, {"type": "Feature", "id": 3123, "geometry": {"type": "LineString", "coordinates": [[-86.475, 36.348], [-86.4752, 36.3482]]}, "properties": {"OBJECTID": 3123, "Category_of_Coastline": "", "Scale_Minimum": "300000", "Source_Date": "20050412", "Source_Indication": "US,U3,USACE,LRN_GIS", "Source_Dataset": "U37CR221.000", "Feature_ID": "U3 1392979652 00001"}}, {"type": "Feature", "id": 3125, "geometry": {"type": "LineString", "coordinates": [[-86.4794, 36.3518], [-86.4792, 36.3519], [-86.4792, 36.3516], [-86.4794, 36.3518]]}, "properties": {"OBJECTID": 3125, "Category_of_Coastline": "", "Scale_Minimum": "300000", "Source_Date": "20040930", "Source_Indication": "US,U3,USACE,LRN_GIS", "Source_Dataset": "U37CR221.000", "Feature_ID": "U3 1392979654 00001"}}, {"type": "Feature", "id": 3127, "geometry": {"type": "LineString", "coordinates": [[-86.4439, 36.2873], [-86.4439, 36.2897], [-86.4458, 36.2903], [-86.4502, 36.2889], [-86.4505, 36.2916], [-86.452, 36.292], [-86.4518, 36.2939], [-86.4495, 36.2952], [-86.4479, 36.2974], [-86.4479, 36.2993], [-86.45, 36.2966], [-86.452, 36.2962], [-86.4523, 36.2969], [-86.4542, 36.2948], [-86.4561, 36.295], [-86.4594, 36.2916], [-86.4625, 36.2916], [-86.4641, 36.2936], [-86.4631, 36.2962], [-86.4636, 36.2977], [-86.4629, 36.2986], [-86.4639, 36.2993], [-86.4648, 36.3027], [-86.463, 36.3046], [-86.4655, 36.3034], [-86.4663, 36.3056], [-86.4656, 36.3062], [-86.4665, 36.3068], [-86.4661, 36.3076], [-86.4676, 36.3069], [-86.4658, 36.3096], [-86.4692, 36.3081], [-86.471, 36.3084], [-86.4714, 36.3111], [-86.4721, 36.3111], [-86.4709, 36.3116], [-86.4727, 36.3118], [-86.4747, 36.315], [-86.4722, 36.3165], [-86.4708, 36.3162], [-86.4696, 36.3176], [-86.4684, 36.3172], [-86.4685, 36.3197], [-86.4674, 36.3217], [-86.4672, 36.3211], [-86.4643, 36.3207], [-86.4689, 36.3239], [-86.4671, 36.3253], [-86.4665, 36.3245], [-86.4651, 36.3246], [-86.4666, 36.3258], [-86.4643, 36.3273], [-86.4596, 36.3284], [-86.4583, 36.3271], [-86.4569, 36.3273], [-86.4576, 36.3255], [-86.4569, 36.3249], [-86.4559, 36.3256], [-86.4547, 36.3246], [-86.4553, 36.3244], [-86.4541, 36.3246], [-86.4528, 36.3237], [-86.4521, 36.3208], [-86.4514, 36.3214], [-86.4506, 36.321], [-86.4492, 36.3187], [-86.4487, 36.3191], [-86.4494, 36.3212], [-86.4481, 36.3214], [-86.4501, 36.3233], [-86.451, 36.3233], [-86.4494, 36.3243], [-86.4511, 36.3245], [-86.4511, 36.3258], [-86.4526, 36.3253], [-86.4533, 36.3259], [-86.4541, 36.3271], [-86.4535, 36.3282], [-86.4547, 36.3278], [-86.4558, 36.329], [-86.4552, 36.3305], [-86.4519, 36.3325], [-86.4512, 36.3319], [-86.4504, 36.3331], [-86.4468, 36.3328], [-86.4455, 36.3345], [-86.4444, 36.3339], [-86.4422, 36.3344], [-86.4418, 36.3362], [-86.4407, 36.3368], [-86.4398, 36.3358], [-86.4384, 36.3358], [-86.4376, 36.334], [-86.4381, 36.3371], [-86.4335, 36.3368], [-86.4334, 36.3354], [-86.4322, 36.3366], [-86.4303, 36.3333], [-86.4305, 36.3361], [-86.4295, 36.336], [-86.4272, 36.3338], [-86.4251, 36.3282], [-86.4283, 36.3283], [-86.4265, 36.3269], [-86.4276, 36.3257], [-86.4243, 36.3262], [-86.4243, 36.3245], [-86.4224, 36.3227], [-86.4264, 36.3213], [-86.4233, 36.3216], [-86.4219, 36.3211], [-86.4224, 36.32], [-86.4214, 36.3206], [-86.4206, 36.3201], [-86.4199, 36.3168], [-86.4193, 36.3167], [-86.4193, 36.3184], [-86.4135, 36.3111], [-86.4074, 36.3066], [-86.4036, 36.3054], [-86.4039, 36.3029], [-86.4022, 36.3056], [-86.3972, 36.3054], [-86.3912, 36.3084], [-86.3923, 36.3056], [-86.3899, 36.3076], [-86.3886, 36.3063], [-86.3881, 36.3075], [-86.3842, 36.3088], [-86.3906, 36.3083], [-86.3907, 36.309], [-86.3887, 36.3111], [-86.3861, 36.3127], [-86.3836, 36.3118], [-86.3825, 36.3122], [-86.385, 36.3129], [-86.3843, 36.3142], [-86.3771, 36.3147], [-86.3785, 36.3156], [-86.3837, 36.3151], [-86.3822, 36.3181], [-86.3834, 36.3177], [-86.3852, 36.3152], [-86.3845, 36.3185], [-86.3824, 36.3199], [-86.3826, 36.3204], [-86.3843, 36.3195], [-86.3822, 36.3229], [-86.382, 36.3249], [-86.3827, 36.3257], [-86.3833, 36.3233], [-86.3853, 36.3214], [-86.386, 36.3195], [-86.3865, 36.3233], [-86.386, 36.3221], [-86.3851, 36.3228], [-86.3864, 36.3259], [-86.3852, 36.3249], [-86.3851, 36.3264], [-86.3859, 36.3265], [-86.385, 36.3267], [-86.3855, 36.3279], [-86.3848, 36.3284], [-86.3852, 36.3299], [-86.3859, 36.329], [-86.3857, 36.3309], [-86.3851, 36.331], [-86.3856, 36.3317], [-86.3842, 36.3355], [-86.3847, 36.3367], [-86.3835, 36.3375], [-86.3833, 36.3392], [-86.3842, 36.3375], [-86.3849, 36.3371], [-86.3849, 36.3376], [-86.3832, 36.3405], [-86.3803, 36.3392], [-86.3809, 36.338], [-86.3798, 36.3382], [-86.3796, 36.3392], [-86.3771, 36.3409], [-86.3746, 36.3398], [-86.3745, 36.3379], [-86.3732, 36.3416], [-86.3746, 36.3408], [-86.3756, 36.3418], [-86.3782, 36.3421], [-86.3804, 36.3401], [-86.3828, 36.341], [-86.3777, 36.346], [-86.3769, 36.3449], [-86.3764, 36.3464], [-86.3771, 36.3464], [-86.3757, 36.3477], [-86.3724, 36.3485], [-86.3705, 36.352], [-86.3659, 36.3527], [-86.3672, 36.3539], [-86.3662, 36.3544], [-86.37, 36.3542], [-86.3701, 36.353], [-86.3717, 36.3525], [-86.3722, 36.3508], [-86.3729, 36.3504], [-86.3727, 36.3515], [-86.3737, 36.3519], [-86.3761, 36.3494], [-86.3749, 36.3515], [-86.3673, 36.3568], [-86.3691, 36.3548], [-86.3623, 36.3553], [-86.3602, 36.3539], [-86.3626, 36.3531], [-86.3627, 36.3521], [-86.3609, 36.3523], [-86.3583, 36.351], [-86.3601, 36.3526], [-86.3593, 36.3534], [-86.354, 36.3499], [-86.3542, 36.3509], [-86.3592, 36.3544], [-86.3586, 36.3549], [-86.3545, 36.3523], [-86.3506, 36.3484], [-86.351, 36.3468], [-86.3502, 36.3463], [-86.3529, 36.348], [-86.3557, 36.3473], [-86.3545, 36.3471], [-86.355, 36.3458], [-86.3533, 36.3467], [-86.353, 36.3451], [-86.3526, 36.3467], [-86.3505, 36.3456], [-86.3497, 36.3442], [-86.3507, 36.3437], [-86.3496, 36.3437], [-86.3489, 36.3427], [-86.3503, 36.3431], [-86.3518, 36.3415], [-86.3533, 36.3412], [-86.3513, 36.3407], [-86.3496, 36.342], [-86.3489, 36.3411], [-86.3504, 36.3397], [-86.349, 36.3398], [-86.3494, 36.3379], [-86.3508, 36.3379], [-86.3497, 36.3373], [-86.3501, 36.3367], [-86.3516, 36.3364], [-86.3528, 36.3378], [-86.3539, 36.3376], [-86.3525, 36.3369], [-86.3521, 36.3354], [-86.3505, 36.3357], [-86.3521, 36.3341], [-86.3515, 36.3338], [-86.3521, 36.3328], [-86.3528, 36.3328], [-86.3533, 36.3303], [-86.3561, 36.3314], [-86.3537, 36.3297], [-86.3536, 36.3284], [-86.3514, 36.331], [-86.3483, 36.3308], [-86.3488, 36.3311], [-86.3473, 36.3355], [-86.3478, 36.3379], [-86.3492, 36.3387], [-86.3484, 36.3389], [-86.3477, 36.3415], [-86.347, 36.329], [-86.3545, 36.3249]]}, "properties": {"OBJECTID": 3127, "Category_of_Coastline": "", "Scale_Minimum": "300000", "Source_Date": "20040930", "Source_Indication": "US,U3,USACE,LRN_GIS", "Source_Dataset": "U37CR221.000", "Feature_ID": "U3 1392979656 00001"}}, {"type": "Feature", "id": 3136, "geometry": {"type": "LineString", "coordinates": [[-86.4697, 36.3186], [-86.4692, 36.319], [-86.4693, 36.3186], [-86.4697, 36.3186]]}, "properties": {"OBJECTID": 3136, "Category_of_Coastline": "", "Scale_Minimum": "300000", "Source_Date": "20040930", "Source_Indication": "US,U3,USACE,LRN_GIS", "Source_Dataset": "U37CR221.000", "Feature_ID": "U3 1392979665 00001"}}, {"type": "Feature", "id": 3144, "geometry": {"type": "LineString", "coordinates": [[-86.4901, 36.3112], [-86.4901, 36.3109], [-86.4903, 36.3111], [-86.4901, 36.3112]]}, "properties": {"OBJECTID": 3144, "Category_of_Coastline": "", "Scale_Minimum": "300000", "Source_Date": "20040930", "Source_Indication": "US,U3,USACE,LRN_GIS", "Source_Dataset": "U37CR221.000", "Feature_ID": "U3 1392979673 00001"}}, {"type": "Feature", "id": 3150, "geometry": {"type": "LineString", "coordinates": [[-86.475, 36.336], [-86.4743, 36.3345], [-86.4752, 36.334], [-86.4758, 36.3298], [-86.4771, 36.3291], [-86.4771, 36.3271], [-86.4763, 36.3262], [-86.4755, 36.3264], [-86.4756, 36.3278], [-86.4767, 36.3287], [-86.4759, 36.3294], [-86.4745, 36.328], [-86.4746, 36.3271], [-86.4735, 36.3269], [-86.4729, 36.3285], [-86.4717, 36.3279], [-86.468, 36.3316], [-86.4628, 36.3337], [-86.4524, 36.3398], [-86.4495, 36.3403], [-86.4508, 36.3411], [-86.4483, 36.3415], [-86.4496, 36.3448], [-86.4469, 36.3431], [-86.4476, 36.3424], [-86.4468, 36.3404], [-86.4473, 36.3402], [-86.4467, 36.3401], [-86.4402, 36.3399], [-86.4337, 36.3411], [-86.4358, 36.3421], [-86.4388, 36.3461]]}, "properties": {"OBJECTID": 3150, "Category_of_Coastline": "", "Scale_Minimum": "300000", "Source_Date": "20040930", "Source_Indication": "US,U3,USACE,LRN_GIS", "Source_Dataset": "U37CR221.000", "Feature_ID": "U3 1392979679 00001"}}, {"type": "Feature", "id": 3161, "geometry": {"type": "LineString", "coordinates": [[-86.475, 36.348], [-86.475, 36.3478]]}, "properties": {"OBJECTID": 3161, "Category_of_Coastline": "", "Scale_Minimum": "300000", "Source_Date": "20050412", "Source_Indication": "US,U3,USACE,LRN_GIS", "Source_Dataset": "U37CR221.000", "Feature_ID": "U3 1392979690 00001"}}, {"type": "Feature", "id": 3162, "geometry": {"type": "LineString", "coordinates": [[-86.5, 36.3036], [-86.5017, 36.3014], [-86.5028, 36.3018], [-86.4998, 36.3043], [-86.5, 36.3036]]}, "properties": {"OBJECTID": 3162, "Category_of_Coastline": "", "Scale_Minimum": "300000", "Source_Date": "20040930", "Source_Indication": "US,U3,USACE,LRN_GIS", "Source_Dataset": "U37CR221.000", "Feature_ID": "U3 1392979691 00001"}}, {"type": "Feature", "id": 3163, "geometry": {"type": "LineString", "coordinates": [[-86.4481, 36.2987], [-86.4481, 36.2985], [-86.4482, 36.2987], [-86.4481, 36.2987]]}, "properties": {"OBJECTID": 3163, "Category_of_Coastline": "", "Scale_Minimum": "300000", "Source_Date": "20040930", "Source_Indication": "US,U3,USACE,LRN_GIS", "Source_Dataset": "U37CR221.000", "Feature_ID": "U3 1392979692 00001"}}, {"type": "Feature", "id": 3165, "geometry": {"type": "LineString", "coordinates": [[-86.448, 36.2987], [-86.4479, 36.2985], [-86.448, 36.2985], [-86.448, 36.2987]]}, "properties": {"OBJECTID": 3165, "Category_of_Coastline": "", "Scale_Minimum": "300000", "Source_Date": "20040930", "Source_Indication": "US,U3,USACE,LRN_GIS", "Source_Dataset": "U37CR221.000", "Feature_ID": "U3 1392979694 00001"}}, {"type": "Feature", "id": 3166, "geometry": {"type": "LineString", "coordinates": [[-86.6143, 36.3013], [-86.6133, 36.2979], [-86.6141, 36.2976], [-86.6096, 36.2912]]}, "properties": {"OBJECTID": 3166, "Category_of_Coastline": "", "Scale_Minimum": "300000", "Source_Date": "20040930", "Source_Indication": "US,U3,USACE,LRN_GIS", "Source_Dataset": "U37CR221.000", "Feature_ID": "U3 1392979696 00001"}}, {"type": "Feature", "id": 3170, "geometry": {"type": "LineString", "coordinates": [[-86.4986, 36.2891], [-86.4999, 36.2893], [-86.5029, 36.2869], [-86.5041, 36.2847], [-86.5063, 36.2839], [-86.5045, 36.2882], [-86.5067, 36.2882], [-86.5045, 36.2909], [-86.5031, 36.2908], [-86.5024, 36.2924], [-86.5036, 36.2952], [-86.5044, 36.2941], [-86.5058, 36.2945], [-86.5061, 36.2934], [-86.507, 36.2936], [-86.5056, 36.2927], [-86.506, 36.2919], [-86.5079, 36.2913], [-86.5094, 36.2896], [-86.5061, 36.2978], [-86.5025, 36.2995], [-86.503, 36.2967], [-86.502, 36.2977], [-86.5004, 36.2969], [-86.5004, 36.298], [-86.5014, 36.2982], [-86.501, 36.299], [-86.5019, 36.2996], [-86.4996, 36.3002], [-86.4999, 36.3029], [-86.498, 36.3055], [-86.4973, 36.3055], [-86.4973, 36.3039], [-86.4962, 36.305], [-86.4917, 36.3049], [-86.4952, 36.3068], [-86.4931, 36.3087], [-86.4872, 36.3112], [-86.4854, 36.3113], [-86.485, 36.309], [-86.4848, 36.3115], [-86.4812, 36.3118], [-86.4796, 36.31], [-86.4778, 36.31], [-86.4756, 36.3078], [-86.478, 36.3076], [-86.4743, 36.3039], [-86.4756, 36.3021], [-86.4771, 36.3022], [-86.4761, 36.3014], [-86.4769, 36.3001], [-86.4731, 36.3019], [-86.4722, 36.3005], [-86.4731, 36.3], [-86.4704, 36.2989], [-86.4688, 36.2969], [-86.4711, 36.2962], [-86.468, 36.2953], [-86.4662, 36.2901], [-86.4666, 36.2897], [-86.4633, 36.2882], [-86.463, 36.2866], [-86.4607, 36.287], [-86.4597, 36.285], [-86.4592, 36.287], [-86.4554, 36.2868], [-86.4518, 36.284], [-86.4509, 36.2823], [-86.4547, 36.2835], [-86.4565, 36.2821], [-86.4546, 36.2812]]}, "properties": {"OBJECTID": 3170, "Category_of_Coastline": "", "Scale_Minimum": "300000", "Source_Date": "20040930", "Source_Indication": "US,U3,USACE,LRN_GIS", "Source_Dataset": "U37CR221.000", "Feature_ID": "U3 1392979700 00001"}}, {"type": "Feature", "id": 3176, "geometry": {"type": "LineString", "coordinates": [[-86.5563, 36.3086], [-86.5562, 36.3087], [-86.5562, 36.3086], [-86.5563, 36.3086]]}, "properties": {"OBJECTID": 3176, "Category_of_Coastline": "", "Scale_Minimum": "300000", "Source_Date": "20040930", "Source_Indication": "US,U3,USACE,LRN_GIS", "Source_Dataset": "U37CR221.000", "Feature_ID": "U3 1392979706 00001"}}, {"type": "Feature", "id": 3177, "geometry": {"type": "LineString", "coordinates": [[-86.4764, 36.3479], [-86.4767, 36.3478]]}, "properties": {"OBJECTID": 3177, "Category_of_Coastline": "", "Scale_Minimum": "300000", "Source_Date": "20050412", "Source_Indication": "US,U3,USACE,LRN_GIS", "Source_Dataset": "U37CR221.000", "Feature_ID": "U3 1392979707 00001"}}, {"type": "Feature", "id": 3180, "geometry": {"type": "LineString", "coordinates": [[-86.5361, 36.2923], [-86.5361, 36.2916], [-86.5364, 36.2926], [-86.5361, 36.2923]]}, "properties": {"OBJECTID": 3180, "Category_of_Coastline": "", "Scale_Minimum": "300000", "Source_Date": "20040930", "Source_Indication": "US,U3,USACE,LRN_GIS", "Source_Dataset": "U37CR221.000", "Feature_ID": "U3 1392979710 00001"}}, {"type": "Feature", "id": 3182, "geometry": {"type": "LineString", "coordinates": [[-86.5292, 36.2836], [-86.5292, 36.2838], [-86.5291, 36.2837], [-86.5292, 36.2836]]}, "properties": {"OBJECTID": 3182, "Category_of_Coastline": "", "Scale_Minimum": "300000", "Source_Date": "20040930", "Source_Indication": "US,U3,USACE,LRN_GIS", "Source_Dataset": "U37CR221.000", "Feature_ID": "U3 1392979712 00001"}}, {"type": "Feature", "id": 3184, "geometry": {"type": "LineString", "coordinates": [[-86.4653, 36.2943], [-86.4642, 36.2931], [-86.4655, 36.2937], [-86.4653, 36.2943]]}, "properties": {"OBJECTID": 3184, "Category_of_Coastline": "", "Scale_Minimum": "300000", "Source_Date": "20040930", "Source_Indication": "US,U3,USACE,LRN_GIS", "Source_Dataset": "U37CR221.000", "Feature_ID": "U3 1392979714 00001"}}, {"type": "Feature", "id": 3188, "geometry": {"type": "LineString", "coordinates": [[-86.5066, 36.2875], [-86.5076, 36.2862], [-86.5071, 36.2858], [-86.5066, 36.2875]]}, "properties": {"OBJECTID": 3188, "Category_of_Coastline": "", "Scale_Minimum": "300000", "Source_Date": "20040930", "Source_Indication": "US,U3,USACE,LRN_GIS", "Source_Dataset": "U37CR221.000", "Feature_ID": "U3 1392979718 00001"}}, {"type": "Feature", "id": 3189, "geometry": {"type": "LineString", "coordinates": [[-86.5087, 36.2889], [-86.5081, 36.2895], [-86.5083, 36.2883], [-86.5087, 36.2889]]}, "properties": {"OBJECTID": 3189, "Category_of_Coastline": "", "Scale_Minimum": "300000", "Source_Date": "20040930", "Source_Indication": "US,U3,USACE,LRN_GIS", "Source_Dataset": "U37CR221.000", "Feature_ID": "U3 1392979719 00001"}}, {"type": "Feature", "id": 3193, "geometry": {"type": "LineString", "coordinates": [[-86.5316, 36.285], [-86.5323, 36.2858], [-86.5305, 36.2851], [-86.5308, 36.2845], [-86.5316, 36.285]]}, "properties": {"OBJECTID": 3193, "Category_of_Coastline": "", "Scale_Minimum": "300000", "Source_Date": "20040930", "Source_Indication": "US,U3,USACE,LRN_GIS", "Source_Dataset": "U37CR221.000", "Feature_ID": "U3 1392979723 00001"}}, {"type": "Feature", "id": 3196, "geometry": {"type": "LineString", "coordinates": [[-86.5182, 36.2864], [-86.5175, 36.2866], [-86.5187, 36.2862], [-86.5182, 36.2864]]}, "properties": {"OBJECTID": 3196, "Category_of_Coastline": "", "Scale_Minimum": "300000", "Source_Date": "20040930", "Source_Indication": "US,U3,USACE,LRN_GIS", "Source_Dataset": "U37CR221.000", "Feature_ID": "U3 1392979726 00001"}}, {"type": "Feature", "id": 3197, "geometry": {"type": "LineString", "coordinates": [[-86.534, 36.2874], [-86.5336, 36.288], [-86.5331, 36.2867], [-86.534, 36.2874]]}, "properties": {"OBJECTID": 3197, "Category_of_Coastline": "", "Scale_Minimum": "300000", "Source_Date": "20040930", "Source_Indication": "US,U3,USACE,LRN_GIS", "Source_Dataset": "U37CR221.000", "Feature_ID": "U3 1392979727 00001"}}, {"type": "Feature", "id": 3199, "geometry": {"type": "LineString", "coordinates": [[-86.4542, 36.2811], [-86.448, 36.2803], [-86.4488, 36.2857], [-86.4464, 36.2846], [-86.448, 36.2868], [-86.445, 36.2881], [-86.444, 36.2863], [-86.4439, 36.2871]]}, "properties": {"OBJECTID": 3199, "Category_of_Coastline": "", "Scale_Minimum": "300000", "Source_Date": "20040930", "Source_Indication": "US,U3,USACE,LRN_GIS", "Source_Dataset": "U37CR221.000", "Feature_ID": "U3 1392979729 00001"}}, {"type": "Feature", "id": 3200, "geometry": {"type": "LineString", "coordinates": [[-86.4965, 36.2654], [-86.4973, 36.2668], [-86.4996, 36.2679], [-86.4992, 36.2687], [-86.5013, 36.2686], [-86.5034, 36.2714], [-86.5011, 36.273], [-86.4999, 36.2753], [-86.5013, 36.2785], [-86.5047, 36.2795], [-86.5025, 36.281], [-86.5047, 36.2813], [-86.5057, 36.2801], [-86.5048, 36.2813], [-86.5052, 36.2819], [-86.504, 36.2828], [-86.5023, 36.2822], [-86.5011, 36.2828], [-86.5025, 36.2837], [-86.5021, 36.285], [-86.4995, 36.2857], [-86.4985, 36.2889]]}, "properties": {"OBJECTID": 3200, "Category_of_Coastline": "", "Scale_Minimum": "300000", "Source_Date": "20040930", "Source_Indication": "US,U3,USACE,LRN_GIS", "Source_Dataset": "U37CR221.000", "Feature_ID": "U3 1392979730 00001"}}, {"type": "Feature", "id": 3202, "geometry": {"type": "LineString", "coordinates": [[-86.4752, 36.3478], [-86.4756, 36.3479]]}, "properties": {"OBJECTID": 3202, "Category_of_Coastline": "", "Scale_Minimum": "300000", "Source_Date": "20050412", "Source_Indication": "US,U3,USACE,LRN_GIS", "Source_Dataset": "U37CR221.000", "Feature_ID": "U3 1392979732 00001"}}, {"type": "Feature", "id": 3203, "geometry": {"type": "LineString", "coordinates": [[-86.5483, 36.3161], [-86.5481, 36.316], [-86.5487, 36.3162], [-86.5483, 36.3161]]}, "properties": {"OBJECTID": 3203, "Category_of_Coastline": "", "Scale_Minimum": "300000", "Source_Date": "20040930", "Source_Indication": "US,U3,USACE,LRN_GIS", "Source_Dataset": "U37CR221.000", "Feature_ID": "U3 1392979733 00001"}}, {"type": "Feature", "id": 3208, "geometry": {"type": "LineString", "coordinates": [[-86.5209, 36.2851], [-86.5197, 36.2842], [-86.5209, 36.2832], [-86.5202, 36.2842], [-86.5209, 36.2851]]}, "properties": {"OBJECTID": 3208, "Category_of_Coastline": "", "Scale_Minimum": "300000", "Source_Date": "20040930", "Source_Indication": "US,U3,USACE,LRN_GIS", "Source_Dataset": "U37CR221.000", "Feature_ID": "U3 1392979738 00001"}}, {"type": "Feature", "id": 3209, "geometry": {"type": "LineString", "coordinates": [[-86.5094, 36.2826], [-86.5088, 36.2825], [-86.5091, 36.2825], [-86.5094, 36.2826]]}, "properties": {"OBJECTID": 3209, "Category_of_Coastline": "", "Scale_Minimum": "300000", "Source_Date": "20040930", "Source_Indication": "US,U3,USACE,LRN_GIS", "Source_Dataset": "U37CR221.000", "Feature_ID": "U3 1392979739 00001"}}, {"type": "Feature", "id": 3210, "geometry": {"type": "LineString", "coordinates": [[-86.4767, 36.3478], [-86.477, 36.3475]]}, "properties": {"OBJECTID": 3210, "Category_of_Coastline": "", "Scale_Minimum": "300000", "Source_Date": "20050412", "Source_Indication": "US,U3,USACE,LRN_GIS", "Source_Dataset": "U37CR221.000", "Feature_ID": "U3 1392979740 00001"}}, {"type": "Feature", "id": 3215, "geometry": {"type": "LineString", "coordinates": [[-86.4758, 36.3487], [-86.4752, 36.3492]]}, "properties": {"OBJECTID": 3215, "Category_of_Coastline": "", "Scale_Minimum": "300000", "Source_Date": "20050412", "Source_Indication": "US,U3,USACE,LRN_GIS", "Source_Dataset": "U37CR221.000", "Feature_ID": "U3 1392979745 00001"}}, {"type": "Feature", "id": 3219, "geometry": {"type": "LineString", "coordinates": [[-86.6096, 36.2912], [-86.6082, 36.29], [-86.6087, 36.2873], [-86.6072, 36.2848], [-86.6056, 36.2846], [-86.6046, 36.2834], [-86.6069, 36.2818], [-86.6042, 36.2811], [-86.6034, 36.2799], [-86.6031, 36.2779], [-86.6065, 36.2786], [-86.6064, 36.2777], [-86.6032, 36.2765], [-86.6041, 36.2761], [-86.6037, 36.2756], [-86.6044, 36.2747], [-86.6054, 36.2752], [-86.6062, 36.2728], [-86.6035, 36.2719], [-86.6021, 36.2704], [-86.6042, 36.2705], [-86.6059, 36.2696], [-86.6033, 36.2685], [-86.6034, 36.2674], [-86.6072, 36.2669], [-86.608, 36.2659], [-86.6069, 36.2642], [-86.6078, 36.2626], [-86.609, 36.2624], [-86.6079, 36.2613], [-86.609, 36.2597], [-86.6064, 36.2601], [-86.6064, 36.2588], [-86.6038, 36.2568], [-86.6016, 36.253], [-86.6033, 36.2531], [-86.6024, 36.2525], [-86.6028, 36.2519], [-86.6018, 36.2519], [-86.6014, 36.2501], [-86.6082, 36.2483], [-86.6092, 36.2486], [-86.6094, 36.2522], [-86.6105, 36.2493], [-86.6121, 36.2484], [-86.6146, 36.2504], [-86.6163, 36.2498], [-86.6196, 36.2517], [-86.6208, 36.2515]]}, "properties": {"OBJECTID": 3219, "Category_of_Coastline": "", "Scale_Minimum": "300000", "Source_Date": "20040930", "Source_Indication": "US,U3,USACE,LRN_GIS_Data", "Source_Dataset": "U37CR221.000", "Feature_ID": "U3 1392991975 00001"}}, {"type": "Feature", "id": 3220, "geometry": {"type": "LineString", "coordinates": [[-86.6208, 36.2543], [-86.6195, 36.2549], [-86.6194, 36.2563], [-86.6208, 36.2553]]}, "properties": {"OBJECTID": 3220, "Category_of_Coastline": "", "Scale_Minimum": "300000", "Source_Date": "20040930", "Source_Indication": "US,U3,USACE,LRN_GIS_Data", "Source_Dataset": "U37CR221.000", "Feature_ID": "U3 1392991975 00001"}}]}