{"type": "FeatureCollection", "features": [{"type": "Feature", "id": 30, "geometry": {"type": "Polygon", "coordinates": [[[-86.4915, 36.3433], [-86.4911, 36.3435], [-86.4918, 36.3433], [-86.4915, 36.3433]]]}, "properties": {"OBJECTID": 30, "Category_of_Dam": "Dam", "Object_Name": "", "Nature_of_Construction": "", "Information": "", "Scale_Minimum": 45000, "Source_Date": "20040930", "Source_Indication": "US,U3,USACE,LRN_GIS", "Source_Dataset": "U37CR221.000", "Feature_ID": "U3 1392984698 00001"}}]}