{"type": "FeatureCollection", "features": [{"type": "Feature", "id": 753, "geometry": {"type": "Point", "coordinates": [-86.5676, 36.262]}, "properties": {"OBJECTID": 753, "Color": "Red and Red", "Top_Shape": "Triangle Point Up", "Color_Pattern": "Border Stripe", "Condition": "", "Information": "TR(U), TR(D)", "Scale_Minimum": 60000, "Source_Date": "20251215", "Source_Indication": "US,U3,LIGHT,USCG_Light_List_No_3690", "Source_Dataset": "U37CR221.000", "Feature_ID": "U3 1392979990 00001"}}, {"type": "Feature", "id": 755, "geometry": {"type": "Point", "coordinates": [-86.5868, 36.2463]}, "properties": {"OBJECTID": 755, "Color": "Red and Red", "Top_Shape": "Triangle Point Up", "Color_Pattern": "Border Stripe", "Condition": "", "Information": "TR(U), TR(D)", "Scale_Minimum": 60000, "Source_Date": "20251215", "Source_Indication": "US,U3,LIGHT,USCG_Light_List_No_3695", "Source_Dataset": "U37CR221.000", "Feature_ID": "U3 1392979998 00001"}}, {"type": "Feature", "id": 756, "geometry": {"type": "Point", "coordinates": [-86.5576, 36.2788]}, "properties": {"OBJECTID": 756, "Color": "Red and Red", "Top_Shape": "Triangle Point Up", "Color_Pattern": "Border Stripe", "Condition": "", "Information": "TR(D)", "Scale_Minimum": 60000, "Source_Date": "20251215", "Source_Indication": "US,U3,LIGHT,USCG_Light_List_No_3680", "Source_Dataset": "U37CR221.000", "Feature_ID": "U3 1392980030 00001"}}, {"type": "Feature", "id": 757, "geometry": {"type": "Point", "coordinates": [-86.475, 36.3199]}, "properties": {"OBJECTID": 757, "Color": "Red and Red", "Top_Shape": "Triangle Point Up", "Color_Pattern": "Border Stripe", "Condition": "", "Information": "TR(U), TR(D)", "Scale_Minimum": 60000, "Source_Date": "20251215", "Source_Indication": "US,U3,LIGHT,USCG_Light_List_No_3600", "Source_Dataset": "U37CR221.000", "Feature_ID": "U3 1392980050 00001"}}, {"type": "Feature", "id": 758, "geometry": {"type": "Point", "coordinates": [-86.5223, 36.2773]}, "properties": {"OBJECTID": 758, "Color": "Red and Red", "Top_Shape": "Triangle Point Up", "Color_Pattern": "Border Stripe", "Condition": "", "Information": "TR(U), TR(D)", "Scale_Minimum": 60000, "Source_Date": "20251215", "Source_Indication": "US,U3,LIGHT,USCG_Light_List_No_3655", "Source_Dataset": "U37CR221.000", "Feature_ID": "U3 1392980065 00001"}}, {"type": "Feature", "id": 760, "geometry": {"type": "Point", "coordinates": [-86.5651, 36.3073]}, "properties": {"OBJECTID": 760, "Color": "Green and Green", "Top_Shape": "Square", "Color_Pattern": "Border Stripe", "Condition": "", "Information": "SG(U)", "Scale_Minimum": 60000, "Source_Date": "20251215", "Source_Indication": "US,U3,LIGHT,USCG_Light_List_No_3670", "Source_Dataset": "U37CR221.000", "Feature_ID": "U3 1392980083 00001"}}, {"type": "Feature", "id": 761, "geometry": {"type": "Point", "coordinates": [-86.5537, 36.3195]}, "properties": {"OBJECTID": 761, "Color": "Green and Green", "Top_Shape": "Square", "Color_Pattern": "Border Stripe", "Condition": "", "Information": "SG(U), SG(D)", "Scale_Minimum": 60000, "Source_Date": "20251215", "Source_Indication": "US,U3,LIGHT,USCG_Light_List_No_3665", "Source_Dataset": "U37CR221.000", "Feature_ID": "U3 1392980084 00001"}}, {"type": "Feature", "id": 762, "geometry": {"type": "Point", "coordinates": [-86.5651, 36.3073]}, "properties": {"OBJECTID": 762, "Color": "White and Green", "Top_Shape": "Rhombus (Diamond)", "Color_Pattern": "Squared", "Condition": "", "Information": "NG(D)", "Scale_Minimum": 60000, "Source_Date": "20251215", "Source_Indication": "US,U3,LIGHT,USCG_Light_List_No_3670", "Source_Dataset": "U37CR221.000", "Feature_ID": "U3 1392980087 00001"}}, {"type": "Feature", "id": 763, "geometry": {"type": "Point", "coordinates": [-86.5576, 36.2788]}, "properties": {"OBJECTID": 763, "Color": "White and Red", "Top_Shape": "Rhombus (Diamond)", "Color_Pattern": "Squared", "Condition": "", "Information": "NR(U)", "Scale_Minimum": 60000, "Source_Date": "20251215", "Source_Indication": "US,U3,LIGHT,USCG_Light_List_No_3680", "Source_Dataset": "U37CR221.000", "Feature_ID": "U3 1392980088 00001"}}, {"type": "Feature", "id": 765, "geometry": {"type": "Point", "coordinates": [-86.5046, 36.3064]}, "properties": {"OBJECTID": 765, "Color": "Green and Green", "Top_Shape": "Square", "Color_Pattern": "Border Stripe", "Condition": "", "Information": "SG(U), SG(D)", "Scale_Minimum": 60000, "Source_Date": "20251215", "Source_Indication": "US,U3,LIGHT,USCG_Light_List_No_3645", "Source_Dataset": "U37CR221.000", "Feature_ID": "U3 1392980824 00001"}}, {"type": "Feature", "id": 766, "geometry": {"type": "Point", "coordinates": [-86.6089, 36.2428]}, "properties": {"OBJECTID": 766, "Color": "Red and Red", "Top_Shape": "Triangle Point Up", "Color_Pattern": "Border Stripe", "Condition": "", "Information": "TR(U), TR(D)", "Scale_Minimum": 60000, "Source_Date": "20251215", "Source_Indication": "US,U3,LIGHT,USCG_Light_List_No_3720", "Source_Dataset": "U37CR221.000", "Feature_ID": "U3 1392980833 00001"}}, {"type": "Feature", "id": 767, "geometry": {"type": "Point", "coordinates": [-86.5437, 36.3223]}, "properties": {"OBJECTID": 767, "Color": "Green and Green", "Top_Shape": "Square", "Color_Pattern": "Border Stripe", "Condition": "", "Information": "SG(U), SG(D)", "Scale_Minimum": 60000, "Source_Date": "20251215", "Source_Indication": "US,U3,LIGHT,USCG_Light_List_No_3660", "Source_Dataset": "U37CR221.000", "Feature_ID": "U3 1392980834 00001"}}]}