{"type": "FeatureCollection", "features": [{"type": "Feature", "id": 1978, "geometry": {"type": "LineString", "coordinates": [[-86.5416, 36.2924], [-86.5416, 36.2924], [-86.5416, 36.2925], [-86.5416, 36.2924]]}, "properties": {"OBJECTID": 1978, "Value_of_Depth_Contour": "2.74", "Scale_Minimum": 18750, "Source_Date": "20040930", "Source_Indication": "US,U3,USACE,LRN_GIS", "Source_Dataset": "U37CR221.000", "Feature_ID": "U3 1392979748 00001"}}, {"type": "Feature", "id": 1984, "geometry": {"type": "LineString", "coordinates": [[-86.5073, 36.3079], [-86.507, 36.308], [-86.5071, 36.3081], [-86.5073, 36.3079]]}, "properties": {"OBJECTID": 1984, "Value_of_Depth_Contour": "2.74", "Scale_Minimum": 18750, "Source_Date": "20040930", "Source_Indication": "US,U3,USACE,LRN_GIS", "Source_Dataset": "U37CR221.000", "Feature_ID": "U3 1392979755 00001"}}, {"type": "Feature", "id": 1990, "geometry": {"type": "LineString", "coordinates": [[-86.6208, 36.2509], [-86.6113, 36.248], [-86.6015, 36.2477], [-86.5906, 36.2515], [-86.578, 36.2601], [-86.5743, 36.2635], [-86.5716, 36.2669], [-86.5693, 36.272], [-86.5685, 36.2765], [-86.57, 36.2799], [-86.5675, 36.2821], [-86.5678, 36.2849], [-86.5694, 36.2864], [-86.5684, 36.2884], [-86.5718, 36.2949], [-86.5728, 36.299], [-86.5708, 36.3002], [-86.5685, 36.2999], [-86.5697, 36.2974], [-86.5687, 36.2936], [-86.5662, 36.296], [-86.5653, 36.2989], [-86.565, 36.2962], [-86.5645, 36.2964], [-86.5648, 36.301], [-86.5664, 36.3059], [-86.555, 36.3187], [-86.5509, 36.3208], [-86.5453, 36.3218], [-86.5441, 36.3213], [-86.5415, 36.3223], [-86.5369, 36.3205], [-86.5339, 36.3176], [-86.5346, 36.3165], [-86.5326, 36.3138], [-86.5324, 36.3104], [-86.5347, 36.3074], [-86.5345, 36.3095], [-86.5355, 36.3122], [-86.5351, 36.3131], [-86.5347, 36.3121], [-86.5341, 36.3124], [-86.5371, 36.3156], [-86.5364, 36.3095], [-86.5368, 36.3064], [-86.536, 36.3053], [-86.5355, 36.3085], [-86.5351, 36.3066], [-86.5377, 36.2992], [-86.5375, 36.3017], [-86.5359, 36.3037], [-86.5362, 36.3048], [-86.5365, 36.3037], [-86.5376, 36.3035], [-86.5372, 36.3108], [-86.5385, 36.3149], [-86.5391, 36.3158], [-86.5395, 36.3154], [-86.5386, 36.3093], [-86.539, 36.3026], [-86.5382, 36.3019], [-86.5389, 36.2998], [-86.5378, 36.293], [-86.5367, 36.2954], [-86.5374, 36.2964], [-86.537, 36.2978], [-86.5364, 36.2954], [-86.5373, 36.2927], [-86.5346, 36.2873], [-86.5291, 36.2814], [-86.5258, 36.2815], [-86.5255, 36.2802], [-86.5262, 36.2794], [-86.5222, 36.2787], [-86.5194, 36.2816], [-86.5175, 36.2854], [-86.5131, 36.3006], [-86.5102, 36.3033], [-86.5044, 36.3064], [-86.5016, 36.3104], [-86.4968, 36.3146], [-86.4948, 36.3155], [-86.4932, 36.3137], [-86.4977, 36.3109], [-86.49, 36.3135], [-86.4761, 36.3213], [-86.4592, 36.3331], [-86.4481, 36.3377], [-86.4468, 36.3392], [-86.4451, 36.3392], [-86.4463, 36.3396], [-86.433, 36.3408], [-86.4246, 36.3376], [-86.4185, 36.3338], [-86.4173, 36.3318], [-86.4167, 36.3275], [-86.418, 36.3233], [-86.4176, 36.3207], [-86.415, 36.3199], [-86.4143, 36.3167], [-86.4115, 36.3116], [-86.4055, 36.3072], [-86.3995, 36.3066], [-86.3934, 36.3084], [-86.391, 36.3107], [-86.39, 36.3163]]}, "properties": {"OBJECTID": 1990, "Value_of_Depth_Contour": "2.74", "Scale_Minimum": 18750, "Source_Date": "20040930", "Source_Indication": "US,U3,USACE,LRN_GIS_Data", "Source_Dataset": "U37CR221.000", "Feature_ID": "U3 1392991976 00001"}}, {"type": "Feature", "id": 1991, "geometry": {"type": "LineString", "coordinates": [[-85.9914, 36.2679], [-85.9958, 36.2662], [-86.0008, 36.2655], [-86.0081, 36.266], [-86.0103, 36.2679], [-86.0105, 36.271], [-86.0083, 36.2778], [-86.0062, 36.2821], [-86.0039, 36.2851], [-86.0041, 36.2843], [-86.0032, 36.285], [-85.9989, 36.2919], [-85.9997, 36.2944], [-86.004, 36.2984], [-86.0115, 36.3011], [-86.0159, 36.3012], [-86.0195, 36.299], [-86.0286, 36.2889], [-86.0341, 36.2854], [-86.0371, 36.2852], [-86.0424, 36.2874], [-86.0476, 36.2921], [-86.0504, 36.2993], [-86.0508, 36.3076], [-86.0552, 36.3114], [-86.0592, 36.3128], [-86.0677, 36.3092], [-86.0691, 36.307], [-86.0694, 36.3044], [-86.0675, 36.3026], [-86.054, 36.2948], [-86.0524, 36.2918], [-86.0523, 36.2877], [-86.0587, 36.2797], [-86.0621, 36.2706], [-86.0658, 36.2669], [-86.0714, 36.2628], [-86.0756, 36.2628], [-86.0782, 36.2636], [-86.0867, 36.2678], [-86.087, 36.2704], [-86.09, 36.2743], [-86.0967, 36.287], [-86.098, 36.2939], [-86.0972, 36.2967], [-86.0908, 36.3055], [-86.0796, 36.3134], [-86.0706, 36.3247], [-86.0686, 36.3285], [-86.0679, 36.3325], [-86.069, 36.336], [-86.0707, 36.3385], [-86.0729, 36.3397], [-86.0797, 36.3413], [-86.0985, 36.3411], [-86.1055, 36.3436], [-86.1193, 36.3457], [-86.1169, 36.3449], [-86.118, 36.3449], [-86.1339, 36.348], [-86.149, 36.3477], [-86.1552, 36.3486], [-86.1588, 36.351], [-86.1645, 36.3606], [-86.1692, 36.371], [-86.1745, 36.3728], [-86.1793, 36.3729], [-86.182, 36.3715], [-86.1831, 36.368], [-86.1824, 36.3631], [-86.1828, 36.3533], [-86.1817, 36.3467], [-86.1769, 36.335], [-86.1754, 36.3275], [-86.1809, 36.3208], [-86.1837, 36.3192], [-86.1868, 36.3191], [-86.1922, 36.3214], [-86.2008, 36.3282], [-86.2068, 36.3351], [-86.2076, 36.3379], [-86.2077, 36.3475], [-86.207, 36.3528], [-86.2097, 36.3623], [-86.2099, 36.3663], [-86.2133, 36.3734], [-86.2159, 36.3756], [-86.2199, 36.3746], [-86.2231, 36.3721], [-86.2213, 36.3674], [-86.2216, 36.3584], [-86.2294, 36.3483], [-86.2455, 36.3341], [-86.2478, 36.3271], [-86.2462, 36.3168], [-86.2469, 36.3097], [-86.2484, 36.3057], [-86.253, 36.3023], [-86.2585, 36.2999], [-86.2634, 36.2992], [-86.2659, 36.2999], [-86.2705, 36.3034], [-86.274, 36.3085], [-86.2744, 36.3114], [-86.2732, 36.317], [-86.2734, 36.3188], [-86.2716, 36.323], [-86.2659, 36.3287], [-86.2654, 36.3316], [-86.2668, 36.3383], [-86.2699, 36.3444], [-86.2729, 36.3474], [-86.2775, 36.3486], [-86.288, 36.3453], [-86.2948, 36.3379], [-86.2961, 36.3342], [-86.2965, 36.3192], [-86.299, 36.3127], [-86.3018, 36.312], [-86.3102, 36.3131], [-86.3194, 36.3162], [-86.3326, 36.3186], [-86.3353, 36.318], [-86.3546, 36.3089], [-86.3574, 36.3081], [-86.3606, 36.3086], [-86.3633, 36.3121], [-86.3602, 36.3185], [-86.3564, 36.3234], [-86.3467, 36.3292], [-86.3476, 36.3441], [-86.3499, 36.349], [-86.3529, 36.3516], [-86.3597, 36.3557], [-86.3653, 36.3577], [-86.3679, 36.3567], [-86.3753, 36.3514], [-86.3847, 36.3385], [-86.3875, 36.3322], [-86.3896, 36.3243], [-86.3882, 36.3163], [-86.3886, 36.312], [-86.3903, 36.3094], [-86.3943, 36.3065], [-86.3994, 36.3054], [-86.4047, 36.3055], [-86.4098, 36.3082], [-86.4151, 36.3127], [-86.4186, 36.3192], [-86.419, 36.3303], [-86.4201, 36.333], [-86.4305, 36.3383], [-86.435, 36.3393], [-86.438, 36.3389], [-86.4401, 36.3375], [-86.4551, 36.3333], [-86.4874, 36.3126], [-86.5008, 36.3074], [-86.5084, 36.3023], [-86.5122, 36.2975], [-86.5146, 36.2895], [-86.5147, 36.2855], [-86.5169, 36.2819], [-86.5172, 36.2797], [-86.5188, 36.2796], [-86.521, 36.2773], [-86.5252, 36.2777], [-86.5306, 36.2799], [-86.5373, 36.285], [-86.537, 36.2866], [-86.5386, 36.289], [-86.5398, 36.293], [-86.5404, 36.2929], [-86.5396, 36.2897], [-86.5403, 36.2895], [-86.5414, 36.2923], [-86.5422, 36.2927], [-86.5419, 36.2889], [-86.5426, 36.2896], [-86.5435, 36.2934], [-86.5415, 36.2991], [-86.5405, 36.3079], [-86.5422, 36.3159], [-86.5435, 36.3169], [-86.5436, 36.3181], [-86.5467, 36.3197], [-86.5445, 36.3194], [-86.5444, 36.3201], [-86.5478, 36.3204], [-86.5485, 36.3196], [-86.551, 36.3193], [-86.5548, 36.3161], [-86.5514, 36.3184], [-86.5472, 36.3193], [-86.5461, 36.3186], [-86.5496, 36.3186], [-86.5459, 36.3167], [-86.5451, 36.3153], [-86.5497, 36.3171], [-86.5556, 36.3133], [-86.5598, 36.3069], [-86.5605, 36.3071], [-86.56, 36.309], [-86.5558, 36.315], [-86.5593, 36.3115], [-86.5631, 36.3053], [-86.5611, 36.2939], [-86.56, 36.2923], [-86.5613, 36.302], [-86.5578, 36.3095], [-86.5572, 36.306], [-86.5603, 36.3035], [-86.5586, 36.3018], [-86.5589, 36.3007], [-86.5568, 36.296], [-86.5572, 36.2937], [-86.5561, 36.2936], [-86.5569, 36.292], [-86.5545, 36.2892], [-86.5547, 36.2837], [-86.5561, 36.2825], [-86.5601, 36.2736], [-86.5581, 36.2729], [-86.561, 36.2709], [-86.5666, 36.2639], [-86.5695, 36.2596], [-86.5687, 36.2582], [-86.5693, 36.2574], [-86.571, 36.2574], [-86.5725, 36.2557], [-86.5722, 36.2547], [-86.5742, 36.2539], [-86.5727, 36.2521], [-86.5738, 36.2511], [-86.5774, 36.2507], [-86.5943, 36.2431], [-86.6005, 36.242], [-86.601, 36.2404], [-86.6027, 36.2419], [-86.6043, 36.2416], [-86.6157, 36.2445], [-86.6208, 36.2437]]}, "properties": {"OBJECTID": 1991, "Value_of_Depth_Contour": "2.74", "Scale_Minimum": 18750, "Source_Date": "20040930", "Source_Indication": "US,U3,USACE,LRN_GIS_Data", "Source_Dataset": "U37CR221.000", "Feature_ID": "U3 1392991978 00001"}}]}