{"type": "FeatureCollection", "features": [{"type": "Feature", "id": 1965, "geometry": {"type": "Polygon", "coordinates": [[[-86.01, 36.2728], [-86.0108, 36.2701], [-86.0104, 36.2675], [-86.0081, 36.2659], [-86.0005, 36.2654], [-85.9785, 36.2686], [-85.9772, 36.2683], [-85.9712, 36.263], [-85.9667, 36.2611], [-85.9667, 36.2619], [-85.9711, 36.2639], [-85.9752, 36.2691], [-85.9667, 36.268], [-85.9745, 36.2693], [-85.9832, 36.2683], [-85.9893, 36.2684], [-85.9958, 36.2662], [-86.0008, 36.2655], [-86.0068, 36.2658], [-86.0097, 36.2667], [-86.0105, 36.271], [-86.0083, 36.2778], [-86.0062, 36.2821], [-86.0039, 36.2851], [-86.0041, 36.2843], [-86.0032, 36.285], [-85.9989, 36.2919], [-85.9989, 36.2933], [-86.0019, 36.2966], [-86.004, 36.2984], [-86.01, 36.3007], [-86.0159, 36.3012], [-86.0195, 36.299], [-86.0286, 36.2889], [-86.0341, 36.2854], [-86.0376, 36.2853], [-86.0424, 36.2874], [-86.0476, 36.2921], [-86.0504, 36.2993], [-86.0508, 36.3076], [-86.0552, 36.3114], [-86.0592, 36.3128], [-86.0677, 36.3092], [-86.0691, 36.307], [-86.0694, 36.3044], [-86.0675, 36.3026], [-86.054, 36.2948], [-86.0524, 36.2918], [-86.0523, 36.2877], [-86.0587, 36.2797], [-86.0614, 36.272], [-86.0631, 36.2694], [-86.0714, 36.2628], [-86.0775, 36.2633], [-86.0867, 36.2678], [-86.087, 36.2704], [-86.09, 36.2743], [-86.0967, 36.287], [-86.098, 36.2939], [-86.0972, 36.2967], [-86.0908, 36.3055], [-86.0796, 36.3134], [-86.0706, 36.3247], [-86.0686, 36.3285], [-86.0679, 36.3325], [-86.069, 36.336], [-86.0707, 36.3385], [-86.0729, 36.3397], [-86.0797, 36.3413], [-86.0985, 36.3411], [-86.1055, 36.3436], [-86.1193, 36.3457], [-86.1169, 36.3449], [-86.118, 36.3449], [-86.1339, 36.348], [-86.149, 36.3477], [-86.1552, 36.3486], [-86.1588, 36.351], [-86.1645, 36.3606], [-86.1692, 36.371], [-86.1745, 36.3728], [-86.1793, 36.3729], [-86.182, 36.3715], [-86.1831, 36.368], [-86.1824, 36.3631], [-86.1828, 36.3533], [-86.1817, 36.3467], [-86.1769, 36.335], [-86.1754, 36.3275], [-86.1809, 36.3208], [-86.1837, 36.3192], [-86.1868, 36.3191], [-86.1922, 36.3214], [-86.2008, 36.3282], [-86.2068, 36.3351], [-86.2076, 36.3379], [-86.2077, 36.3475], [-86.207, 36.3528], [-86.2097, 36.3623], [-86.2099, 36.3663], [-86.2133, 36.3734], [-86.2159, 36.3756], [-86.2199, 36.3746], [-86.2231, 36.3721], [-86.2213, 36.3674], [-86.2216, 36.3584], [-86.2294, 36.3483], [-86.2455, 36.3341], [-86.2478, 36.3271], [-86.2462, 36.3168], [-86.2469, 36.3097], [-86.2484, 36.3057], [-86.2538, 36.3018], [-86.26, 36.2996], [-86.2634, 36.2992], [-86.2659, 36.2999], [-86.2705, 36.3034], [-86.274, 36.3085], [-86.2744, 36.3114], [-86.2732, 36.317], [-86.2734, 36.3188], [-86.2716, 36.323], [-86.2659, 36.3287], [-86.2654, 36.3316], [-86.2668, 36.3383], [-86.2699, 36.3444], [-86.2729, 36.3474], [-86.2775, 36.3486], [-86.288, 36.3453], [-86.2948, 36.3379], [-86.2961, 36.3342], [-86.2965, 36.3192], [-86.299, 36.3127], [-86.3018, 36.312], [-86.3102, 36.3131], [-86.3194, 36.3162], [-86.3326, 36.3186], [-86.3353, 36.318], [-86.3546, 36.3089], [-86.3574, 36.3081], [-86.3606, 36.3086], [-86.3633, 36.3121], [-86.3602, 36.3185], [-86.3564, 36.3234], [-86.3467, 36.3292], [-86.3476, 36.3441], [-86.3499, 36.349], [-86.3529, 36.3516], [-86.3597, 36.3557], [-86.3653, 36.3577], [-86.3679, 36.3567], [-86.3753, 36.3514], [-86.3847, 36.3385], [-86.3875, 36.3322], [-86.3896, 36.3243], [-86.3882, 36.3163], [-86.3886, 36.312], [-86.3916, 36.3083], [-86.3973, 36.3057], [-86.405, 36.3056], [-86.414, 36.3116], [-86.4168, 36.3153], [-86.419, 36.3206], [-86.419, 36.3303], [-86.4201, 36.333], [-86.4262, 36.3366], [-86.435, 36.3393], [-86.4364, 36.3391], [-86.4376, 36.3375], [-86.4414, 36.3375], [-86.4533, 36.3341], [-86.4561, 36.3322], [-86.4562, 36.33], [-86.4645, 36.3274], [-86.4773, 36.3185], [-86.4874, 36.3126], [-86.5008, 36.3074], [-86.5084, 36.3023], [-86.5115, 36.2991], [-86.5143, 36.2908], [-86.5147, 36.2855], [-86.5169, 36.2819], [-86.5172, 36.2797], [-86.5188, 36.2796], [-86.521, 36.2773], [-86.5265, 36.2782], [-86.5306, 36.2799], [-86.5365, 36.2844], [-86.5394, 36.2844], [-86.5391, 36.2858], [-86.5426, 36.2896], [-86.5435, 36.2934], [-86.5411, 36.3014], [-86.5405, 36.3093], [-86.5426, 36.3125], [-86.5427, 36.3166], [-86.5436, 36.3181], [-86.5467, 36.3197], [-86.5445, 36.3194], [-86.5444, 36.3201], [-86.5478, 36.3204], [-86.5536, 36.3177], [-86.5548, 36.3161], [-86.5514, 36.3184], [-86.5468, 36.3192], [-86.5461, 36.3186], [-86.5496, 36.3186], [-86.5459, 36.3167], [-86.5451, 36.3153], [-86.5497, 36.3171], [-86.5556, 36.3133], [-86.5598, 36.3069], [-86.5605, 36.3071], [-86.56, 36.309], [-86.5558, 36.315], [-86.5593, 36.3115], [-86.5631, 36.3053], [-86.5611, 36.2939], [-86.56, 36.2923], [-86.5613, 36.302], [-86.5578, 36.3095], [-86.5572, 36.306], [-86.5603, 36.3035], [-86.5586, 36.3018], [-86.5589, 36.3007], [-86.5568, 36.296], [-86.5572, 36.2937], [-86.5525, 36.2925], [-86.5563, 36.295], [-86.5548, 36.2968], [-86.5535, 36.2969], [-86.5567, 36.2979], [-86.5556, 36.2992], [-86.5565, 36.2994], [-86.5566, 36.3003], [-86.5541, 36.2999], [-86.552, 36.3011], [-86.5542, 36.3005], [-86.5554, 36.3013], [-86.5547, 36.3022], [-86.5558, 36.3044], [-86.5548, 36.305], [-86.5568, 36.3056], [-86.5565, 36.3064], [-86.5549, 36.3062], [-86.5536, 36.3073], [-86.5539, 36.3088], [-86.5557, 36.3083], [-86.5562, 36.3086], [-86.5552, 36.3093], [-86.5561, 36.3096], [-86.553, 36.3117], [-86.5519, 36.3117], [-86.5517, 36.3126], [-86.5534, 36.3126], [-86.5509, 36.3135], [-86.5518, 36.3142], [-86.551, 36.3151], [-86.549, 36.3144], [-86.5492, 36.3153], [-86.5465, 36.3155], [-86.5441, 36.3133], [-86.5456, 36.3121], [-86.5434, 36.3126], [-86.5406, 36.3095], [-86.5408, 36.3071], [-86.5419, 36.3081], [-86.5441, 36.3077], [-86.5439, 36.3063], [-86.5423, 36.3069], [-86.5409, 36.3058], [-86.5436, 36.2933], [-86.5429, 36.2897], [-86.5409, 36.2871], [-86.5414, 36.2867], [-86.5394, 36.2858], [-86.5409, 36.2848], [-86.5417, 36.2831], [-86.5396, 36.284], [-86.5393, 36.2828], [-86.5401, 36.282], [-86.5387, 36.2815], [-86.5366, 36.284], [-86.5314, 36.2805], [-86.5307, 36.2792], [-86.5283, 36.2793], [-86.5262, 36.2776], [-86.5276, 36.2769], [-86.527, 36.2748], [-86.5277, 36.2739], [-86.5265, 36.2745], [-86.5251, 36.2775], [-86.5221, 36.2773], [-86.5224, 36.2759], [-86.5216, 36.2768], [-86.5187, 36.2774], [-86.5175, 36.2774], [-86.5172, 36.2764], [-86.5131, 36.2777], [-86.5107, 36.2796], [-86.5089, 36.2796], [-86.508, 36.278], [-86.5083, 36.2766], [-86.5058, 36.2761], [-86.5091, 36.2745], [-86.5113, 36.2746], [-86.5113, 36.2735], [-86.5133, 36.2726], [-86.5119, 36.2724], [-86.5127, 36.271], [-86.5115, 36.2689], [-86.5128, 36.2666], [-86.5117, 36.2641], [-86.5131, 36.2632], [-86.5153, 36.2633], [-86.5182, 36.2609], [-86.5193, 36.2609], [-86.518, 36.2607], [-86.5188, 36.2603], [-86.518, 36.2598], [-86.5174, 36.2567], [-86.5162, 36.2576], [-86.5157, 36.2564], [-86.5149, 36.2571], [-86.5149, 36.2608], [-86.5121, 36.2601], [-86.5079, 36.2637], [-86.5085, 36.2679], [-86.5076, 36.2693], [-86.5078, 36.2715], [-86.5068, 36.2715], [-86.5067, 36.2698], [-86.5051, 36.2692], [-86.5032, 36.2668], [-86.4992, 36.2657], [-86.4981, 36.2646], [-86.4966, 36.2648], [-86.4971, 36.2666], [-86.4996, 36.268], [-86.4992, 36.2687], [-86.5013, 36.2686], [-86.5034, 36.2714], [-86.5011, 36.273], [-86.4999, 36.2753], [-86.5013, 36.2785], [-86.5047, 36.2795], [-86.5025, 36.281], [-86.5047, 36.2813], [-86.5057, 36.2801], [-86.5048, 36.2813], [-86.5052, 36.2819], [-86.504, 36.2828], [-86.5023, 36.2822], [-86.5011, 36.2828], [-86.5025, 36.2837], [-86.5021, 36.285], [-86.4995, 36.2857], [-86.4983, 36.2887], [-86.499, 36.2895], [-86.4999, 36.2893], [-86.5029, 36.2869], [-86.5041, 36.2847], [-86.5063, 36.2839], [-86.5045, 36.2882], [-86.5067, 36.2882], [-86.5054, 36.2892], [-86.5052, 36.2904], [-86.5025, 36.2914], [-86.5036, 36.2952], [-86.5043, 36.2942], [-86.5058, 36.2945], [-86.5061, 36.2934], [-86.507, 36.2937], [-86.507, 36.293], [-86.5056, 36.2927], [-86.506, 36.2919], [-86.5095, 36.2898], [-86.5061, 36.2979], [-86.5025, 36.2995], [-86.503, 36.2967], [-86.502, 36.2977], [-86.5004, 36.2969], [-86.5004, 36.298], [-86.5014, 36.2982], [-86.501, 36.299], [-86.5019, 36.2996], [-86.4996, 36.3002], [-86.4999, 36.3029], [-86.498, 36.3055], [-86.4973, 36.3055], [-86.4973, 36.3039], [-86.4962, 36.305], [-86.4917, 36.3049], [-86.4952, 36.3068], [-86.4931, 36.3087], [-86.4872, 36.3112], [-86.4854, 36.3113], [-86.485, 36.309], [-86.4848, 36.3115], [-86.481, 36.3118], [-86.4796, 36.31], [-86.4778, 36.31], [-86.4756, 36.3078], [-86.478, 36.3076], [-86.4743, 36.3039], [-86.4756, 36.3021], [-86.4771, 36.3022], [-86.4761, 36.3014], [-86.4769, 36.3001], [-86.4731, 36.3019], [-86.4722, 36.3005], [-86.4731, 36.3], [-86.4704, 36.2989], [-86.4688, 36.2969], [-86.4711, 36.2962], [-86.4684, 36.2956], [-86.4675, 36.2946], [-86.4662, 36.2901], [-86.4666, 36.2897], [-86.4633, 36.2882], [-86.4629, 36.2866], [-86.4607, 36.287], [-86.4601, 36.2851], [-86.4595, 36.2851], [-86.4592, 36.287], [-86.4552, 36.2868], [-86.4508, 36.2824], [-86.4547, 36.2835], [-86.4564, 36.282], [-86.4528, 36.2806], [-86.448, 36.2803], [-86.4477, 36.2813], [-86.4488, 36.2857], [-86.4464, 36.2846], [-86.448, 36.2868], [-86.4453, 36.2881], [-86.4439, 36.2863], [-86.4439, 36.2897], [-86.4458, 36.2903], [-86.4502, 36.2889], [-86.4505, 36.2916], [-86.452, 36.2921], [-86.4518, 36.2939], [-86.4495, 36.2952], [-86.4475, 36.2991], [-86.4482, 36.2993], [-86.45, 36.2966], [-86.452, 36.2962], [-86.4523, 36.2969], [-86.4542, 36.2948], [-86.4561, 36.295], [-86.4594, 36.2916], [-86.4628, 36.2918], [-86.4642, 36.2939], [-86.4629, 36.2987], [-86.4639, 36.2993], [-86.4648, 36.3027], [-86.463, 36.3046], [-86.4655, 36.3034], [-86.4663, 36.3056], [-86.4656, 36.3062], [-86.4665, 36.3068], [-86.4661, 36.3076], [-86.4676, 36.3069], [-86.4658, 36.3096], [-86.4692, 36.3081], [-86.4709, 36.3083], [-86.4717, 36.3098], [-86.4714, 36.3111], [-86.4721, 36.3111], [-86.4709, 36.3116], [-86.4727, 36.3118], [-86.4747, 36.3149], [-86.4722, 36.3165], [-86.4708, 36.3162], [-86.4696, 36.3176], [-86.4682, 36.3173], [-86.4685, 36.3197], [-86.4674, 36.3217], [-86.4672, 36.3211], [-86.4643, 36.3207], [-86.4676, 36.3235], [-86.4686, 36.3234], [-86.4684, 36.3246], [-86.4671, 36.3253], [-86.4665, 36.3245], [-86.4652, 36.3245], [-86.4665, 36.3258], [-86.4638, 36.3275], [-86.4596, 36.3284], [-86.4583, 36.3271], [-86.4568, 36.3272], [-86.4576, 36.3258], [-86.457, 36.325], [-86.4559, 36.3256], [-86.4547, 36.3246], [-86.4553, 36.3244], [-86.4541, 36.3246], [-86.4528, 36.3237], [-86.4521, 36.3208], [-86.4514, 36.3214], [-86.4506, 36.321], [-86.4492, 36.3187], [-86.4487, 36.3191], [-86.4494, 36.3212], [-86.4481, 36.3214], [-86.4501, 36.3233], [-86.451, 36.3233], [-86.4494, 36.3243], [-86.4511, 36.3245], [-86.4511, 36.3258], [-86.4526, 36.3253], [-86.4533, 36.3259], [-86.4541, 36.3271], [-86.4535, 36.3282], [-86.4547, 36.3278], [-86.4558, 36.329], [-86.4552, 36.3305], [-86.4519, 36.3325], [-86.4512, 36.3319], [-86.4504, 36.3331], [-86.4468, 36.3328], [-86.4455, 36.3345], [-86.4444, 36.3339], [-86.4422, 36.3344], [-86.4418, 36.3362], [-86.4407, 36.3368], [-86.4398, 36.3358], [-86.4384, 36.3358], [-86.4376, 36.334], [-86.4381, 36.3371], [-86.4335, 36.3368], [-86.4334, 36.3354], [-86.4322, 36.3367], [-86.4306, 36.3335], [-86.4303, 36.3361], [-86.4281, 36.3351], [-86.4268, 36.333], [-86.4251, 36.3281], [-86.4283, 36.3283], [-86.4265, 36.3269], [-86.4276, 36.3257], [-86.4243, 36.3262], [-86.4243, 36.3245], [-86.4224, 36.3229], [-86.4264, 36.3213], [-86.4233, 36.3216], [-86.4219, 36.3211], [-86.4224, 36.32], [-86.4214, 36.3206], [-86.4206, 36.3201], [-86.4199, 36.3168], [-86.4193, 36.3167], [-86.4193, 36.3184], [-86.4135, 36.3111], [-86.4074, 36.3066], [-86.4036, 36.3054], [-86.4039, 36.3029], [-86.4022, 36.3056], [-86.3972, 36.3054], [-86.3912, 36.3084], [-86.3923, 36.3056], [-86.3899, 36.3076], [-86.3886, 36.3063], [-86.3881, 36.3075], [-86.3842, 36.3088], [-86.3906, 36.3083], [-86.3907, 36.309], [-86.3887, 36.3111], [-86.3861, 36.3127], [-86.3836, 36.3118], [-86.3825, 36.3122], [-86.385, 36.3129], [-86.3843, 36.3142], [-86.3771, 36.3147], [-86.3785, 36.3156], [-86.3837, 36.3151], [-86.3822, 36.3181], [-86.3834, 36.3177], [-86.3852, 36.3152], [-86.3845, 36.3185], [-86.3824, 36.3199], [-86.3826, 36.3204], [-86.3843, 36.3195], [-86.3822, 36.3229], [-86.382, 36.3249], [-86.3827, 36.3257], [-86.3833, 36.3233], [-86.3853, 36.3214], [-86.386, 36.3195], [-86.3865, 36.3233], [-86.386, 36.3221], [-86.3851, 36.3228], [-86.3864, 36.3259], [-86.3852, 36.3249], [-86.3851, 36.3264], [-86.3859, 36.3265], [-86.385, 36.3267], [-86.3855, 36.3279], [-86.3848, 36.3284], [-86.3852, 36.3299], [-86.3859, 36.329], [-86.3857, 36.3309], [-86.3851, 36.331], [-86.3856, 36.3317], [-86.3842, 36.3355], [-86.3847, 36.3367], [-86.3835, 36.3375], [-86.3833, 36.3392], [-86.3842, 36.3375], [-86.3849, 36.3371], [-86.3849, 36.3376], [-86.3832, 36.3405], [-86.3803, 36.3392], [-86.3809, 36.338], [-86.3798, 36.3382], [-86.3796, 36.3392], [-86.3771, 36.3409], [-86.3746, 36.3398], [-86.3745, 36.3379], [-86.3732, 36.3416], [-86.3746, 36.3408], [-86.3756, 36.3418], [-86.3782, 36.3421], [-86.3804, 36.3401], [-86.3828, 36.341], [-86.3777, 36.346], [-86.3769, 36.3449], [-86.3764, 36.3464], [-86.3771, 36.3464], [-86.3757, 36.3477], [-86.3724, 36.3485], [-86.3705, 36.352], [-86.3659, 36.3527], [-86.3672, 36.3539], [-86.3662, 36.3544], [-86.37, 36.3542], [-86.3701, 36.353], [-86.3717, 36.3525], [-86.3722, 36.3508], [-86.3729, 36.3504], [-86.3727, 36.3515], [-86.3737, 36.3519], [-86.3761, 36.3494], [-86.3749, 36.3515], [-86.3673, 36.3568], [-86.3691, 36.3548], [-86.3623, 36.3553], [-86.3602, 36.3539], [-86.3626, 36.3531], [-86.3627, 36.3521], [-86.3609, 36.3523], [-86.3583, 36.351], [-86.3601, 36.3526], [-86.3593, 36.3534], [-86.354, 36.3499], [-86.3542, 36.3509], [-86.3592, 36.3544], [-86.3586, 36.3549], [-86.3511, 36.3492], [-86.351, 36.3468], [-86.3502, 36.3463], [-86.3529, 36.348], [-86.3557, 36.3473], [-86.3545, 36.3471], [-86.355, 36.3458], [-86.3533, 36.3467], [-86.353, 36.3451], [-86.3526, 36.3467], [-86.3504, 36.3455], [-86.3497, 36.3442], [-86.3507, 36.3437], [-86.3496, 36.3437], [-86.3489, 36.3426], [-86.3503, 36.3431], [-86.3518, 36.3415], [-86.3533, 36.3412], [-86.3513, 36.3407], [-86.3493, 36.3419], [-86.3489, 36.3409], [-86.3504, 36.3397], [-86.349, 36.3398], [-86.3494, 36.3379], [-86.3508, 36.338], [-86.3496, 36.3371], [-86.3516, 36.3364], [-86.3537, 36.3378], [-86.3525, 36.3368], [-86.3526, 36.3357], [-86.3505, 36.3357], [-86.3521, 36.3341], [-86.3515, 36.3338], [-86.3521, 36.3328], [-86.3528, 36.3328], [-86.3533, 36.3303], [-86.3561, 36.3314], [-86.3537, 36.3297], [-86.354, 36.3287], [-86.3534, 36.3284], [-86.3514, 36.331], [-86.3483, 36.3308], [-86.3488, 36.3311], [-86.3473, 36.3355], [-86.3478, 36.3379], [-86.3492, 36.3387], [-86.3484, 36.3389], [-86.3478, 36.3415], [-86.3468, 36.3298], [-86.3481, 36.328], [-86.3562, 36.3237], [-86.3617, 36.3167], [-86.3632, 36.3115], [-86.3609, 36.3086], [-86.3579, 36.308], [-86.3616, 36.3057], [-86.3638, 36.3079], [-86.3645, 36.3055], [-86.3624, 36.3052], [-86.3622, 36.3045], [-86.3634, 36.3042], [-86.3628, 36.3034], [-86.365, 36.2996], [-86.365, 36.2968], [-86.3654, 36.296], [-86.3677, 36.2967], [-86.3689, 36.2958], [-86.3659, 36.2946], [-86.3675, 36.2942], [-86.3692, 36.2951], [-86.369, 36.2943], [-86.3711, 36.2942], [-86.3728, 36.2955], [-86.3726, 36.2942], [-86.3758, 36.2943], [-86.3748, 36.2934], [-86.3782, 36.29], [-86.3771, 36.2897], [-86.3782, 36.2876], [-86.3766, 36.2842], [-86.3743, 36.2841], [-86.3732, 36.2823], [-86.372, 36.2831], [-86.3709, 36.2825], [-86.3707, 36.2803], [-86.3696, 36.2798], [-86.3695, 36.2786], [-86.3712, 36.2769], [-86.3695, 36.2773], [-86.3678, 36.2791], [-86.3656, 36.2778], [-86.3648, 36.2734], [-86.3618, 36.2722], [-86.3617, 36.2729], [-86.3557, 36.2728], [-86.3633, 36.2737], [-86.3643, 36.2748], [-86.3644, 36.2779], [-86.3688, 36.2804], [-86.3706, 36.2832], [-86.3751, 36.286], [-86.3763, 36.288], [-86.3737, 36.2926], [-86.373, 36.2918], [-86.3728, 36.2929], [-86.3703, 36.293], [-86.3692, 36.292], [-86.3628, 36.2939], [-86.3617, 36.2961], [-86.3626, 36.2983], [-86.3617, 36.3011], [-86.3596, 36.3054], [-86.3578, 36.3066], [-86.3566, 36.3056], [-86.3575, 36.307], [-86.357, 36.308], [-86.3558, 36.3058], [-86.3561, 36.3077], [-86.3544, 36.3079], [-86.3545, 36.3086], [-86.3553, 36.3085], [-86.3497, 36.3105], [-86.3513, 36.3093], [-86.3542, 36.3086], [-86.3538, 36.3075], [-86.3539, 36.3081], [-86.3532, 36.3077], [-86.3503, 36.309], [-86.3544, 36.3035], [-86.356, 36.299], [-86.3537, 36.2992], [-86.3539, 36.3011], [-86.3527, 36.3035], [-86.3515, 36.3044], [-86.351, 36.3032], [-86.3501, 36.3037], [-86.351, 36.3053], [-86.3478, 36.3074], [-86.3482, 36.3086], [-86.3458, 36.3091], [-86.3462, 36.3097], [-86.3454, 36.31], [-86.343, 36.3052], [-86.3409, 36.303], [-86.3434, 36.3108], [-86.3456, 36.3109], [-86.3487, 36.3092], [-86.3486, 36.31], [-86.3446, 36.3124], [-86.3493, 36.311], [-86.3452, 36.3132], [-86.3414, 36.3103], [-86.3389, 36.3096], [-86.3389, 36.3088], [-86.3374, 36.3089], [-86.3377, 36.3053], [-86.3328, 36.3019], [-86.3303, 36.2992], [-86.3256, 36.2977], [-86.3259, 36.2969], [-86.3245, 36.2971], [-86.3255, 36.2958], [-86.3269, 36.296], [-86.3261, 36.2956], [-86.3262, 36.2908], [-86.3216, 36.2873], [-86.3216, 36.2854], [-86.317, 36.2852], [-86.3106, 36.2815], [-86.31, 36.2819], [-86.3129, 36.283], [-86.31, 36.2827], [-86.3127, 36.2839], [-86.3133, 36.2835], [-86.3129, 36.2844], [-86.3135, 36.2857], [-86.3165, 36.2868], [-86.3179, 36.2884], [-86.323, 36.291], [-86.3237, 36.2937], [-86.3224, 36.2966], [-86.3231, 36.2982], [-86.3266, 36.2999], [-86.3257, 36.3007], [-86.3272, 36.3009], [-86.3279, 36.3027], [-86.3302, 36.3044], [-86.3336, 36.3052], [-86.3344, 36.3061], [-86.3352, 36.3057], [-86.3351, 36.3074], [-86.3345, 36.3074], [-86.3352, 36.3084], [-86.3334, 36.3087], [-86.3332, 36.31], [-86.3356, 36.309], [-86.3406, 36.3118], [-86.34, 36.3127], [-86.3417, 36.3122], [-86.3429, 36.3131], [-86.3413, 36.3143], [-86.3436, 36.3132], [-86.3442, 36.3136], [-86.3369, 36.3171], [-86.3361, 36.3169], [-86.336, 36.3175], [-86.3352, 36.3167], [-86.3357, 36.3164], [-86.3333, 36.3156], [-86.3373, 36.3162], [-86.3411, 36.3145], [-86.3408, 36.3137], [-86.3347, 36.3153], [-86.3308, 36.3154], [-86.3275, 36.314], [-86.3275, 36.3147], [-86.325, 36.3148], [-86.3315, 36.317], [-86.3359, 36.3175], [-86.33, 36.3182], [-86.3183, 36.3155], [-86.3165, 36.3138], [-86.3061, 36.3125], [-86.3056, 36.3115], [-86.3052, 36.3122], [-86.2997, 36.3122], [-86.2978, 36.3142], [-86.2969, 36.3135], [-86.2928, 36.3156], [-86.2901, 36.3188], [-86.2876, 36.3174], [-86.2863, 36.3175], [-86.288, 36.3194], [-86.2901, 36.3197], [-86.2899, 36.3218], [-86.2917, 36.318], [-86.2951, 36.3152], [-86.2921, 36.3202], [-86.2925, 36.3223], [-86.2911, 36.3231], [-86.2916, 36.3251], [-86.2931, 36.3228], [-86.2939, 36.3192], [-86.2941, 36.326], [-86.2959, 36.3159], [-86.297, 36.3146], [-86.2976, 36.3149], [-86.2961, 36.3198], [-86.2959, 36.3345], [-86.2948, 36.3374], [-86.2925, 36.3404], [-86.2905, 36.3398], [-86.2892, 36.3407], [-86.2869, 36.3393], [-86.288, 36.341], [-86.2842, 36.3426], [-86.2914, 36.3404], [-86.291, 36.341], [-86.2917, 36.3413], [-86.2885, 36.3448], [-86.2793, 36.3482], [-86.2762, 36.3483], [-86.2725, 36.3469], [-86.2698, 36.3438], [-86.2663, 36.3357], [-86.2659, 36.3314], [-86.2664, 36.3297], [-86.2655, 36.3306], [-86.2666, 36.3279], [-86.2716, 36.3234], [-86.2735, 36.3189], [-86.2746, 36.3091], [-86.2721, 36.3042], [-86.2679, 36.3018], [-86.2659, 36.2997], [-86.2623, 36.2991], [-86.2568, 36.3003], [-86.2488, 36.3049], [-86.2454, 36.3035], [-86.2451, 36.3042], [-86.2461, 36.3048], [-86.2454, 36.3048], [-86.2446, 36.3031], [-86.2439, 36.3037], [-86.2447, 36.3056], [-86.2476, 36.3055], [-86.2468, 36.3079], [-86.2482, 36.3058], [-86.2466, 36.3102], [-86.2461, 36.315], [-86.247, 36.3239], [-86.2465, 36.3243], [-86.2475, 36.3267], [-86.2466, 36.3305], [-86.2437, 36.336], [-86.23, 36.3476], [-86.221, 36.3591], [-86.2203, 36.3611], [-86.221, 36.3671], [-86.223, 36.3721], [-86.2211, 36.3738], [-86.2166, 36.3755], [-86.2141, 36.3739], [-86.21, 36.3663], [-86.21, 36.3622], [-86.2071, 36.3518], [-86.208, 36.3475], [-86.2076, 36.3362], [-86.2036, 36.3305], [-86.1948, 36.3224], [-86.1912, 36.3201], [-86.1856, 36.3188], [-86.1815, 36.3199], [-86.175, 36.328], [-86.1768, 36.3358], [-86.1816, 36.347], [-86.1827, 36.3527], [-86.1823, 36.3631], [-86.183, 36.3678], [-86.1817, 36.3717], [-86.1787, 36.3729], [-86.1714, 36.3721], [-86.1691, 36.3708], [-86.1641, 36.3597], [-86.1595, 36.3532], [-86.1584, 36.3503], [-86.1553, 36.3485], [-86.1462, 36.3477], [-86.1423, 36.3465], [-86.1418, 36.3466], [-86.1456, 36.3477], [-86.134, 36.3479], [-86.1171, 36.3446], [-86.1059, 36.3436], [-86.0987, 36.341], [-86.0797, 36.3412], [-86.0732, 36.3397], [-86.0707, 36.3382], [-86.0688, 36.3355], [-86.068, 36.3325], [-86.0683, 36.3297], [-86.0701, 36.3255], [-86.0735, 36.3213], [-86.0762, 36.3206], [-86.0793, 36.3182], [-86.0805, 36.3189], [-86.0816, 36.3186], [-86.0806, 36.3189], [-86.0795, 36.3182], [-86.0827, 36.3149], [-86.0804, 36.3177], [-86.0756, 36.3208], [-86.0737, 36.3211], [-86.0824, 36.3111], [-86.0888, 36.3076], [-86.0873, 36.311], [-86.0889, 36.3075], [-86.0964, 36.298], [-86.098, 36.2942], [-86.097, 36.2873], [-86.09, 36.2743], [-86.087, 36.2702], [-86.0868, 36.2679], [-86.0771, 36.263], [-86.0696, 36.2628], [-86.0694, 36.2611], [-86.0725, 36.2591], [-86.0756, 36.2595], [-86.0785, 36.2567], [-86.0755, 36.2593], [-86.0723, 36.2588], [-86.0691, 36.261], [-86.0697, 36.2638], [-86.0619, 36.2707], [-86.0586, 36.2799], [-86.0522, 36.288], [-86.0522, 36.291], [-86.054, 36.2949], [-86.0693, 36.3043], [-86.0684, 36.3085], [-86.0642, 36.3109], [-86.0611, 36.3112], [-86.0517, 36.3086], [-86.0506, 36.3069], [-86.0505, 36.2992], [-86.0487, 36.296], [-86.0474, 36.2906], [-86.0446, 36.2881], [-86.0468, 36.291], [-86.0437, 36.2878], [-86.0359, 36.2848], [-86.0316, 36.2866], [-86.028, 36.2892], [-86.0193, 36.2991], [-86.0165, 36.3009], [-86.011, 36.3009], [-86.0026, 36.297], [-85.9992, 36.2935], [-85.999, 36.2923], [-86.0065, 36.2818], [-86.01, 36.2728]], [[-86.4367, 36.3378], [-86.4367, 36.3378], [-86.4367, 36.3378], [-86.4367, 36.3378]], [[-86.4368, 36.3383], [-86.4368, 36.3383], [-86.4368, 36.3383], [-86.4368, 36.3383]], [[-86.4368, 36.3381], [-86.4368, 36.3381], [-86.4368, 36.3381], [-86.4368, 36.3381]], [[-86.4366, 36.3373], [-86.4365, 36.3373], [-86.4366, 36.3373], [-86.4366, 36.3373]], [[-86.4366, 36.3376], [-86.4366, 36.3376], [-86.4366, 36.3376], [-86.4366, 36.3376]], [[-86.4368, 36.338], [-86.4368, 36.338], [-86.4368, 36.338], [-86.4368, 36.338]], [[-86.4365, 36.3372], [-86.4365, 36.3372], [-86.4365, 36.3372], [-86.4365, 36.3372]], [[-86.4367, 36.3376], [-86.4367, 36.3376], [-86.4367, 36.3376], [-86.4367, 36.3376]], [[-86.4369, 36.3383], [-86.4369, 36.3383], [-86.4369, 36.3383], [-86.4369, 36.3383]], [[-86.4368, 36.3381], [-86.4368, 36.3381], [-86.4368, 36.3381], [-86.4368, 36.3381]], [[-86.4366, 36.3374], [-86.4366, 36.3374], [-86.4366, 36.3374], [-86.4366, 36.3374]], [[-86.4366, 36.3373], [-86.4366, 36.3373], [-86.4366, 36.3373], [-86.4366, 36.3373]], [[-86.4367, 36.338], [-86.4367, 36.338], [-86.4367, 36.338], [-86.4367, 36.338]], [[-86.4367, 36.3375], [-86.4366, 36.3374], [-86.4367, 36.3374], [-86.4367, 36.3375]], [[-86.4366, 36.3374], [-86.4366, 36.3374], [-86.4366, 36.3374], [-86.4366, 36.3374]], [[-86.4366, 36.3375], [-86.4366, 36.3375], [-86.4366, 36.3375], [-86.4366, 36.3375]], [[-86.4366, 36.3372], [-86.4366, 36.3372], [-86.4366, 36.3372], [-86.4366, 36.3372]], [[-86.4367, 36.3378], [-86.4367, 36.3378], [-86.4367, 36.3378], [-86.4367, 36.3378]], [[-86.3129, 36.2831], [-86.3129, 36.2831], [-86.3129, 36.2831], [-86.3129, 36.2831]], [[-86.4367, 36.3384], [-86.4366, 36.3385], [-86.4367, 36.3384], [-86.4367, 36.3384]], [[-86.4364, 36.3378], [-86.4364, 36.3378], [-86.4365, 36.3377], [-86.4364, 36.3378]], [[-86.4365, 36.3381], [-86.4365, 36.3381], [-86.4366, 36.3381], [-86.4365, 36.3381]], [[-86.3619, 36.273], [-86.3619, 36.273], [-86.3619, 36.273], [-86.3619, 36.273]], [[-86.4363, 36.3374], [-86.4363, 36.3374], [-86.4364, 36.3374], [-86.4363, 36.3374]], [[-86.5177, 36.2577], [-86.5177, 36.2578], [-86.5176, 36.2577], [-86.5177, 36.2577]], [[-86.3698, 36.2776], [-86.3698, 36.2776], [-86.3698, 36.2774], [-86.3698, 36.2776]], [[-86.5563, 36.3086], [-86.5562, 36.3087], [-86.5562, 36.3086], [-86.5563, 36.3086]], [[-86.3125, 36.2837], [-86.3124, 36.2836], [-86.3125, 36.2836], [-86.3125, 36.2837]], [[-86.3856, 36.3278], [-86.3857, 36.3278], [-86.3858, 36.3278], [-86.3856, 36.3278]], [[-86.3482, 36.3411], [-86.3483, 36.3411], [-86.3482, 36.3411], [-86.3482, 36.3411]], [[-86.5157, 36.259], [-86.5156, 36.259], [-86.5157, 36.2589], [-86.5157, 36.259]], [[-86.3858, 36.3164], [-86.3859, 36.3162], [-86.3859, 36.3164], [-86.3858, 36.3164]], [[-86.3858, 36.3177], [-86.3858, 36.3176], [-86.3859, 36.3177], [-86.3858, 36.3177]], [[-86.517, 36.259], [-86.517, 36.2589], [-86.5171, 36.259], [-86.517, 36.259]], [[-86.3354, 36.3171], [-86.3355, 36.3171], [-86.3356, 36.3172], [-86.3354, 36.3171]], [[-86.448, 36.2987], [-86.4479, 36.2985], [-86.448, 36.2985], [-86.448, 36.2987]], [[-86.3124, 36.2835], [-86.3122, 36.2834], [-86.3124, 36.2834], [-86.3124, 36.2835]], [[-86.5177, 36.2576], [-86.5175, 36.2577], [-86.5176, 36.2575], [-86.5177, 36.2576]], [[-86.4481, 36.2987], [-86.4481, 36.2985], [-86.4482, 36.2987], [-86.4481, 36.2987]], [[-86.3734, 36.3504], [-86.3733, 36.3503], [-86.3734, 36.3502], [-86.3734, 36.3504]], [[-86.3858, 36.3173], [-86.3857, 36.3171], [-86.3858, 36.317], [-86.3858, 36.3173]], [[-86.517, 36.2582], [-86.5171, 36.2581], [-86.5172, 36.2583], [-86.517, 36.2582]], [[-86.3628, 36.2732], [-86.3625, 36.2731], [-86.363, 36.2731], [-86.3628, 36.2732]], [[-86.3355, 36.3171], [-86.335, 36.3169], [-86.3354, 36.3169], [-86.3355, 36.3171]], [[-86.3858, 36.3183], [-86.3859, 36.3179], [-86.3859, 36.3183], [-86.3858, 36.3183]], [[-86.5172, 36.2585], [-86.5171, 36.2587], [-86.517, 36.2584], [-86.5172, 36.2585]], [[-86.4901, 36.3112], [-86.4901, 36.3109], [-86.4903, 36.3111], [-86.4901, 36.3112]], [[-86.36, 36.3548], [-86.3602, 36.3549], [-86.3599, 36.3549], [-86.36, 36.3548]], [[-86.2472, 36.3048], [-86.2469, 36.3046], [-86.2471, 36.3044], [-86.2472, 36.3048]], [[-86.3734, 36.3505], [-86.3736, 36.3506], [-86.3734, 36.3508], [-86.3734, 36.3505]], [[-86.5094, 36.2826], [-86.5088, 36.2825], [-86.5091, 36.2825], [-86.5094, 36.2826]], [[-86.4422, 36.3369], [-86.4419, 36.337], [-86.4425, 36.3368], [-86.4422, 36.3369]], [[-86.0611, 36.3121], [-86.0616, 36.3119], [-86.0607, 36.3122], [-86.0611, 36.3121]], [[-86.5483, 36.3161], [-86.5481, 36.316], [-86.5487, 36.3162], [-86.5483, 36.3161]], [[-86.3862, 36.3271], [-86.3864, 36.3269], [-86.3862, 36.3277], [-86.3862, 36.3271]], [[-86.5053, 36.3037], [-86.5055, 36.3037], [-86.5048, 36.304], [-86.5053, 36.3037]], [[-86.4697, 36.3186], [-86.4692, 36.319], [-86.4693, 36.3186], [-86.4697, 36.3186]], [[-86.4246, 36.3278], [-86.4245, 36.3274], [-86.4249, 36.328], [-86.4246, 36.3278]], [[-86.3482, 36.342], [-86.3484, 36.342], [-86.3486, 36.3425], [-86.3482, 36.342]], [[-86.3481, 36.3375], [-86.3486, 36.3371], [-86.3487, 36.3377], [-86.3481, 36.3375]], [[-86.4447, 36.3363], [-86.4438, 36.3365], [-86.4453, 36.3361], [-86.4447, 36.3363]], [[-86.3647, 36.2741], [-86.3647, 36.2745], [-86.3635, 36.2736], [-86.3647, 36.2741]], [[-86.4193, 36.3242], [-86.4194, 36.3236], [-86.4194, 36.3255], [-86.4193, 36.3242]], [[-86.4204, 36.3325], [-86.4204, 36.3331], [-86.4198, 36.3314], [-86.4204, 36.3325]], [[-86.5165, 36.2576], [-86.5155, 36.2589], [-86.5156, 36.2578], [-86.5165, 36.2576]], [[-86.3691, 36.3531], [-86.3687, 36.3528], [-86.37, 36.3528], [-86.3691, 36.3531]], [[-86.1173, 36.3451], [-86.1193, 36.3457], [-86.1167, 36.3451], [-86.1173, 36.3451]], [[-86.4653, 36.2943], [-86.4642, 36.2931], [-86.4655, 36.2937], [-86.4653, 36.2943]], [[-86.5087, 36.2889], [-86.5081, 36.2895], [-86.5083, 36.2883], [-86.5087, 36.2889]], [[-86.3876, 36.3163], [-86.3878, 36.3138], [-86.3877, 36.317], [-86.3876, 36.3163]], [[-86.5066, 36.2875], [-86.5071, 36.2858], [-86.5076, 36.2862], [-86.5066, 36.2875]], [[-86.0473, 36.2916], [-86.0462, 36.2897], [-86.0473, 36.2907], [-86.0473, 36.2916]], [[-86.3156, 36.3143], [-86.3164, 36.3151], [-86.3137, 36.314], [-86.3156, 36.3143]], [[-86.4191, 36.3199], [-86.4193, 36.3193], [-86.4196, 36.3221], [-86.4191, 36.3199]], [[-86.3654, 36.3568], [-86.3666, 36.3571], [-86.3639, 36.3573], [-86.3654, 36.3568]], [[-85.9889, 36.2681], [-85.9936, 36.2671], [-85.9908, 36.268], [-85.9889, 36.2681]], [[-85.9756, 36.2687], [-85.9756, 36.2672], [-85.9771, 36.2689], [-85.9756, 36.2687]], [[-86.3478, 36.3436], [-86.3479, 36.3417], [-86.3486, 36.3464], [-86.3478, 36.3436]], [[-86.5, 36.3036], [-86.5017, 36.3014], [-86.5028, 36.3018], [-86.4998, 36.3043], [-86.5, 36.3036]], [[-86.5558, 36.3025], [-86.5566, 36.3018], [-86.5582, 36.3035], [-86.5566, 36.3042], [-86.5558, 36.3025]], [[-86.3644, 36.3564], [-86.3636, 36.3572], [-86.3593, 36.3551], [-86.3644, 36.3564]], [[-86.0535, 36.3095], [-86.0607, 36.3117], [-86.057, 36.3116], [-86.0594, 36.3125], [-86.0572, 36.3122], [-86.0535, 36.3095]], [[-86.3853, 36.3353], [-86.3888, 36.3207], [-86.3882, 36.3288], [-86.3849, 36.3369], [-86.3853, 36.3353]], [[-86.4688, 36.3235], [-86.4685, 36.3213], [-86.4702, 36.3218], [-86.4724, 36.3204], [-86.4729, 36.3209], [-86.4724, 36.3194], [-86.4738, 36.3179], [-86.4769, 36.3179], [-86.4699, 36.3235], [-86.4688, 36.3235]]]}, "properties": {"OBJECTID": 1965, "Depth_Area_Value_1": "0", "Depth_Area_Value_2": "2.74", "Source_Date": "20200512", "Source_Indication": "US,U3,USACE,Encoding_Guide_Consistency", "Source_Dataset": "U37CR221.000", "Feature_ID": "U3 1392979885 00001"}}, {"type": "Feature", "id": 1966, "geometry": {"type": "MultiPolygon", "coordinates": [[[[-86.5403, 36.3216], [-86.5369, 36.3205], [-86.5343, 36.3181], [-86.5346, 36.3165], [-86.5338, 36.3147], [-86.5319, 36.3137], [-86.5315, 36.3097], [-86.5326, 36.3064], [-86.5355, 36.3048], [-86.5373, 36.301], [-86.5376, 36.2997], [-86.5363, 36.2967], [-86.5373, 36.2927], [-86.5369, 36.2916], [-86.5346, 36.2873], [-86.5315, 36.284], [-86.529, 36.2826], [-86.5253, 36.2823], [-86.5247, 36.2789], [-86.5222, 36.2787], [-86.5194, 36.2816], [-86.5175, 36.2854], [-86.5133, 36.3007], [-86.5082, 36.3048], [-86.5044, 36.3064], [-86.5016, 36.3104], [-86.4968, 36.3146], [-86.4948, 36.3155], [-86.4932, 36.3137], [-86.49, 36.3135], [-86.4735, 36.3231], [-86.4592, 36.3331], [-86.4486, 36.3382], [-86.4466, 36.34], [-86.4402, 36.3398], [-86.433, 36.3408], [-86.4265, 36.3385], [-86.4196, 36.3345], [-86.4177, 36.3328], [-86.417, 36.3304], [-86.4167, 36.3261], [-86.418, 36.3233], [-86.4176, 36.3207], [-86.415, 36.3199], [-86.4143, 36.3167], [-86.4115, 36.3116], [-86.4052, 36.307], [-86.3995, 36.3066], [-86.3952, 36.3075], [-86.3919, 36.3096], [-86.3904, 36.3123], [-86.3909, 36.3136], [-86.3901, 36.3149], [-86.3899, 36.3188], [-86.3913, 36.3244], [-86.387, 36.3383], [-86.3779, 36.3512], [-86.372, 36.3564], [-86.3665, 36.3588], [-86.3636, 36.3591], [-86.3544, 36.3547], [-86.3483, 36.3498], [-86.346, 36.3449], [-86.345, 36.3381], [-86.3452, 36.3274], [-86.3502, 36.322], [-86.3576, 36.3184], [-86.3597, 36.3164], [-86.3618, 36.313], [-86.3607, 36.3101], [-86.357, 36.3098], [-86.3492, 36.3128], [-86.3421, 36.3167], [-86.3326, 36.3199], [-86.3189, 36.3178], [-86.3064, 36.3139], [-86.3009, 36.3132], [-86.2994, 36.3154], [-86.2978, 36.321], [-86.2972, 36.3353], [-86.2961, 36.3384], [-86.2889, 36.3463], [-86.2858, 36.3477], [-86.2772, 36.3496], [-86.2725, 36.3485], [-86.2689, 36.3455], [-86.2649, 36.3371], [-86.2638, 36.3295], [-86.2669, 36.3223], [-86.2714, 36.3164], [-86.2728, 36.3101], [-86.2657, 36.3012], [-86.2633, 36.3004], [-86.2604, 36.3006], [-86.2533, 36.3036], [-86.2494, 36.3075], [-86.2483, 36.3126], [-86.2491, 36.3282], [-86.2466, 36.3348], [-86.2441, 36.3381], [-86.2347, 36.346], [-86.2273, 36.3534], [-86.2237, 36.3579], [-86.223, 36.3608], [-86.224, 36.3732], [-86.2233, 36.3748], [-86.2173, 36.3767], [-86.2144, 36.3771], [-86.2118, 36.3763], [-86.2094, 36.3745], [-86.2082, 36.3718], [-86.2082, 36.3625], [-86.2053, 36.3529], [-86.2061, 36.3379], [-86.2046, 36.3343], [-86.1971, 36.327], [-86.1866, 36.32], [-86.1843, 36.3202], [-86.1809, 36.3225], [-86.1778, 36.3258], [-86.1769, 36.3284], [-86.1784, 36.3346], [-86.1839, 36.3491], [-86.1839, 36.3616], [-86.185, 36.3662], [-86.1828, 36.3722], [-86.1804, 36.3736], [-86.177, 36.3742], [-86.1691, 36.3729], [-86.1676, 36.3717], [-86.1605, 36.3588], [-86.1576, 36.3514], [-86.1555, 36.3501], [-86.1506, 36.3491], [-86.132, 36.3493], [-86.1248, 36.3475], [-86.1072, 36.345], [-86.0996, 36.3421], [-86.0799, 36.3428], [-86.0726, 36.3406], [-86.0696, 36.3389], [-86.0664, 36.3325], [-86.0666, 36.3293], [-86.0683, 36.3254], [-86.0804, 36.3109], [-86.0895, 36.305], [-86.0952, 36.2976], [-86.0965, 36.2944], [-86.0953, 36.2874], [-86.0879, 36.2734], [-86.0812, 36.2664], [-86.0785, 36.2648], [-86.0737, 36.2637], [-86.0674, 36.2671], [-86.0637, 36.2708], [-86.0597, 36.2811], [-86.0536, 36.2873], [-86.0533, 36.2904], [-86.055, 36.2941], [-86.0676, 36.301], [-86.0707, 36.3046], [-86.0696, 36.3084], [-86.0678, 36.3105], [-86.0592, 36.3136], [-86.0542, 36.312], [-86.0486, 36.3072], [-86.0467, 36.3065], [-86.0469, 36.2935], [-86.0421, 36.2886], [-86.0374, 36.2862], [-86.0348, 36.2864], [-86.0307, 36.2888], [-86.0203, 36.2996], [-86.0163, 36.3021], [-86.0112, 36.3023], [-86.0035, 36.2991], [-86.0008, 36.2972], [-85.9974, 36.2919], [-86.0059, 36.2801], [-86.0096, 36.2704], [-86.0096, 36.2686], [-86.0086, 36.2674], [-86.0011, 36.2666], [-85.9891, 36.2693], [-85.9743, 36.2699], [-85.9667, 36.2685], [-85.9743, 36.2701], [-85.9885, 36.2694], [-85.9994, 36.267], [-86.0083, 36.2674], [-86.0094, 36.2684], [-86.0094, 36.2705], [-86.0057, 36.2803], [-85.9971, 36.2922], [-86.0017, 36.2981], [-86.0115, 36.3025], [-86.0165, 36.3021], [-86.0206, 36.2994], [-86.0303, 36.2893], [-86.0345, 36.2867], [-86.0371, 36.2862], [-86.0415, 36.2883], [-86.0468, 36.2934], [-86.0466, 36.3065], [-86.0485, 36.3072], [-86.0544, 36.3123], [-86.0596, 36.3137], [-86.0679, 36.3106], [-86.0697, 36.3084], [-86.0708, 36.3048], [-86.0652, 36.2984], [-86.0635, 36.2978], [-86.0662, 36.2998], [-86.0587, 36.2965], [-86.0551, 36.2941], [-86.0634, 36.298], [-86.0545, 36.2932], [-86.0533, 36.2901], [-86.0537, 36.2873], [-86.0592, 36.282], [-86.0615, 36.278], [-86.0638, 36.2708], [-86.0651, 36.2693], [-86.0724, 36.2641], [-86.0754, 36.2637], [-86.0778, 36.2645], [-86.0811, 36.2665], [-86.088, 36.2737], [-86.0904, 36.2795], [-86.0953, 36.2874], [-86.0965, 36.2945], [-86.0954, 36.2972], [-86.0895, 36.3049], [-86.0796, 36.3114], [-86.069, 36.3241], [-86.0661, 36.331], [-86.067, 36.3349], [-86.0693, 36.3387], [-86.0726, 36.3407], [-86.0788, 36.3425], [-86.0747, 36.3439], [-86.0754, 36.3452], [-86.075, 36.344], [-86.0791, 36.3427], [-86.0843, 36.344], [-86.0913, 36.3425], [-86.0991, 36.3425], [-86.1074, 36.3452], [-86.1073, 36.3457], [-86.124, 36.3474], [-86.1323, 36.3494], [-86.1468, 36.3492], [-86.1554, 36.3502], [-86.1578, 36.352], [-86.1603, 36.3586], [-86.1558, 36.359], [-86.1528, 36.3556], [-86.1497, 36.3575], [-86.1504, 36.3611], [-86.1531, 36.3651], [-86.1527, 36.3664], [-86.1536, 36.3653], [-86.1499, 36.3582], [-86.1528, 36.3561], [-86.1552, 36.3592], [-86.1606, 36.3592], [-86.1658, 36.3683], [-86.1641, 36.3685], [-86.1659, 36.3686], [-86.1683, 36.3726], [-86.1769, 36.3743], [-86.1827, 36.3724], [-86.1866, 36.3645], [-86.1861, 36.3621], [-86.1844, 36.3597], [-86.1844, 36.3509], [-86.1835, 36.347], [-86.1787, 36.3352], [-86.177, 36.3282], [-86.1806, 36.3228], [-86.1843, 36.3203], [-86.1871, 36.3203], [-86.1971, 36.3271], [-86.2033, 36.3328], [-86.205, 36.3355], [-86.206, 36.3394], [-86.205, 36.3482], [-86.2052, 36.3532], [-86.2081, 36.3632], [-86.2074, 36.3675], [-86.2075, 36.3682], [-86.2081, 36.3669], [-86.2081, 36.368], [-86.2071, 36.3699], [-86.2099, 36.3753], [-86.2149, 36.3773], [-86.2224, 36.3749], [-86.2246, 36.3755], [-86.2234, 36.3746], [-86.2244, 36.3722], [-86.2237, 36.3646], [-86.2249, 36.3652], [-86.2256, 36.3643], [-86.2237, 36.3644], [-86.2234, 36.3586], [-86.2328, 36.3481], [-86.234, 36.3506], [-86.2361, 36.3515], [-86.2331, 36.3478], [-86.2379, 36.3432], [-86.2415, 36.3409], [-86.2424, 36.3408], [-86.2412, 36.3419], [-86.2432, 36.3423], [-86.2446, 36.341], [-86.2433, 36.3403], [-86.2424, 36.3414], [-86.2427, 36.3406], [-86.2419, 36.3406], [-86.2464, 36.3355], [-86.2492, 36.328], [-86.2485, 36.3242], [-86.2491, 36.3164], [-86.2485, 36.3129], [-86.2512, 36.3056], [-86.2572, 36.3017], [-86.2625, 36.3005], [-86.2651, 36.301], [-86.2655, 36.3025], [-86.2671, 36.3031], [-86.2724, 36.3096], [-86.2726, 36.3123], [-86.2715, 36.3159], [-86.2684, 36.3198], [-86.2677, 36.3196], [-86.2682, 36.3202], [-86.2655, 36.3253], [-86.2632, 36.3258], [-86.2641, 36.3237], [-86.2626, 36.326], [-86.2638, 36.3214], [-86.2624, 36.3238], [-86.2612, 36.3233], [-86.2618, 36.3242], [-86.2597, 36.3253], [-86.262, 36.3247], [-86.2619, 36.3258], [-86.2603, 36.3275], [-86.2599, 36.3304], [-86.2607, 36.3298], [-86.2622, 36.3316], [-86.2612, 36.3325], [-86.2624, 36.3323], [-86.2625, 36.3313], [-86.2609, 36.3291], [-86.2614, 36.3272], [-86.2609, 36.3273], [-86.2653, 36.3259], [-86.2635, 36.3292], [-86.2647, 36.3351], [-86.2642, 36.3353], [-86.2678, 36.3438], [-86.2724, 36.3487], [-86.2772, 36.3496], [-86.2833, 36.3483], [-86.2846, 36.349], [-86.284, 36.3482], [-86.2895, 36.3466], [-86.2893, 36.3461], [-86.2954, 36.3402], [-86.2973, 36.3352], [-86.2979, 36.321], [-86.2993, 36.3163], [-86.3012, 36.3135], [-86.3028, 36.3132], [-86.307, 36.3144], [-86.306, 36.3153], [-86.3061, 36.3172], [-86.3051, 36.3161], [-86.3025, 36.3164], [-86.3033, 36.3174], [-86.305, 36.3175], [-86.3072, 36.3206], [-86.3051, 36.3262], [-86.3074, 36.324], [-86.3085, 36.3215], [-86.3125, 36.3217], [-86.3091, 36.3199], [-86.3088, 36.3189], [-86.3095, 36.3187], [-86.3086, 36.3184], [-86.3087, 36.3174], [-86.3077, 36.3167], [-86.3076, 36.3145], [-86.3173, 36.3176], [-86.3289, 36.32], [-86.328, 36.3207], [-86.3245, 36.3207], [-86.325, 36.321], [-86.3229, 36.3206], [-86.3232, 36.3214], [-86.3256, 36.322], [-86.3308, 36.3208], [-86.3297, 36.3202], [-86.3291, 36.321], [-86.3292, 36.3202], [-86.3341, 36.32], [-86.3394, 36.3173], [-86.3456, 36.3157], [-86.3452, 36.3152], [-86.3489, 36.3131], [-86.3541, 36.311], [-86.36, 36.3101], [-86.3613, 36.3109], [-86.3618, 36.3126], [-86.3607, 36.315], [-86.355, 36.3198], [-86.3501, 36.322], [-86.3451, 36.3273], [-86.3446, 36.3381], [-86.3451, 36.342], [-86.3414, 36.3403], [-86.3397, 36.3404], [-86.3414, 36.3405], [-86.3432, 36.3425], [-86.3449, 36.3425], [-86.3469, 36.3471], [-86.3461, 36.3481], [-86.347, 36.3478], [-86.3483, 36.351], [-86.3473, 36.3521], [-86.3483, 36.3518], [-86.3485, 36.3532], [-86.3473, 36.3538], [-86.3463, 36.3531], [-86.3461, 36.3544], [-86.3445, 36.3549], [-86.3429, 36.3538], [-86.3429, 36.3558], [-86.342, 36.3565], [-86.3391, 36.3556], [-86.3408, 36.3578], [-86.3387, 36.3603], [-86.3383, 36.362], [-86.3398, 36.3646], [-86.3393, 36.3664], [-86.3412, 36.3645], [-86.3429, 36.3659], [-86.342, 36.3679], [-86.344, 36.3669], [-86.3507, 36.3686], [-86.3514, 36.3731], [-86.3498, 36.3736], [-86.3513, 36.3741], [-86.3509, 36.3758], [-86.3501, 36.3766], [-86.3472, 36.3766], [-86.3474, 36.3777], [-86.3461, 36.3784], [-86.3457, 36.3802], [-86.3435, 36.3765], [-86.334, 36.3731], [-86.3323, 36.3717], [-86.3332, 36.3726], [-86.3331, 36.3737], [-86.3337, 36.3734], [-86.3353, 36.3752], [-86.3331, 36.3772], [-86.3338, 36.3791], [-86.3333, 36.3779], [-86.3339, 36.3772], [-86.334, 36.379], [-86.3332, 36.3795], [-86.3341, 36.3793], [-86.3347, 36.3779], [-86.3376, 36.3778], [-86.34, 36.3763], [-86.342, 36.379], [-86.3413, 36.3794], [-86.3424, 36.3794], [-86.3463, 36.3831], [-86.3443, 36.3867], [-86.3451, 36.3924], [-86.3463, 36.3932], [-86.3462, 36.3918], [-86.3469, 36.393], [-86.3465, 36.3957], [-86.3453, 36.3973], [-86.3413, 36.3992], [-86.3403, 36.4006], [-86.3407, 36.4013], [-86.3428, 36.399], [-86.3449, 36.3996], [-86.3435, 36.3986], [-86.3459, 36.398], [-86.3487, 36.3954], [-86.3485, 36.3964], [-86.3499, 36.3956], [-86.3496, 36.3917], [-86.3474, 36.3901], [-86.3463, 36.3878], [-86.3467, 36.386], [-86.3501, 36.3845], [-86.3498, 36.3827], [-86.3484, 36.3809], [-86.3488, 36.3792], [-86.3528, 36.3759], [-86.3526, 36.375], [-86.3539, 36.3735], [-86.3572, 36.3745], [-86.3584, 36.377], [-86.3587, 36.3765], [-86.3606, 36.3772], [-86.3601, 36.3768], [-86.3609, 36.3767], [-86.359, 36.3756], [-86.3586, 36.3734], [-86.3574, 36.372], [-86.354, 36.3711], [-86.3545, 36.37], [-86.3465, 36.3615], [-86.345, 36.3608], [-86.3432, 36.3624], [-86.3422, 36.3613], [-86.3405, 36.3611], [-86.3438, 36.3583], [-86.3464, 36.3579], [-86.3465, 36.3569], [-86.3492, 36.3542], [-86.3518, 36.3541], [-86.3588, 36.3576], [-86.3495, 36.3544], [-86.3531, 36.3573], [-86.3529, 36.3587], [-86.3538, 36.3578], [-86.3606, 36.3588], [-86.3618, 36.359], [-86.3615, 36.3602], [-86.3626, 36.3605], [-86.3625, 36.3592], [-86.3681, 36.3592], [-86.3669, 36.3588], [-86.3699, 36.3571], [-86.3754, 36.356], [-86.3778, 36.3545], [-86.3774, 36.3568], [-86.3794, 36.3535], [-86.3779, 36.3573], [-86.3773, 36.3626], [-86.3802, 36.3581], [-86.382, 36.36], [-86.385, 36.3611], [-86.3858, 36.364], [-86.3887, 36.3676], [-86.3899, 36.368], [-86.3869, 36.3634], [-86.3874, 36.3628], [-86.3868, 36.3612], [-86.3877, 36.361], [-86.3825, 36.3568], [-86.3838, 36.3543], [-86.3801, 36.3546], [-86.3867, 36.3492], [-86.3865, 36.3451], [-86.3873, 36.3426], [-86.3886, 36.3404], [-86.3903, 36.3394], [-86.3923, 36.3351], [-86.3927, 36.3298], [-86.3919, 36.3245], [-86.3925, 36.3244], [-86.39, 36.3181], [-86.3903, 36.3142], [-86.391, 36.3138], [-86.3906, 36.3125], [-86.3926, 36.3098], [-86.3931, 36.3104], [-86.3926, 36.31], [-86.3924, 36.3119], [-86.3933, 36.3119], [-86.3939, 36.3108], [-86.3984, 36.3084], [-86.4007, 36.3086], [-86.3978, 36.3104], [-86.3998, 36.3117], [-86.4004, 36.3111], [-86.3998, 36.3107], [-86.4006, 36.3109], [-86.4013, 36.3101], [-86.4004, 36.3101], [-86.4007, 36.3095], [-86.4021, 36.3104], [-86.4037, 36.3101], [-86.4025, 36.3094], [-86.4029, 36.3087], [-86.4061, 36.3098], [-86.4114, 36.3138], [-86.411, 36.3144], [-86.4095, 36.3131], [-86.4121, 36.317], [-86.4135, 36.3165], [-86.4128, 36.3148], [-86.4145, 36.3187], [-86.4135, 36.3169], [-86.4127, 36.317], [-86.4132, 36.3187], [-86.4126, 36.3199], [-86.4141, 36.3201], [-86.4121, 36.3201], [-86.4118, 36.321], [-86.415, 36.3207], [-86.4155, 36.3281], [-86.4184, 36.3338], [-86.4175, 36.3346], [-86.42, 36.3346], [-86.4245, 36.3376], [-86.4289, 36.3392], [-86.4294, 36.3409], [-86.4301, 36.3398], [-86.4325, 36.3407], [-86.4312, 36.341], [-86.4319, 36.342], [-86.4329, 36.3413], [-86.4332, 36.3437], [-86.4387, 36.3462], [-86.4358, 36.3421], [-86.4337, 36.3411], [-86.4402, 36.3399], [-86.4467, 36.3401], [-86.4473, 36.3402], [-86.4468, 36.3404], [-86.4476, 36.3424], [-86.4469, 36.3431], [-86.4496, 36.3448], [-86.4483, 36.3415], [-86.4508, 36.3411], [-86.4495, 36.3403], [-86.4524, 36.3398], [-86.4628, 36.3337], [-86.468, 36.3316], [-86.4717, 36.3279], [-86.4729, 36.3285], [-86.4735, 36.3269], [-86.4746, 36.3271], [-86.4745, 36.328], [-86.4759, 36.3294], [-86.4767, 36.3287], [-86.4756, 36.3278], [-86.4755, 36.3263], [-86.4768, 36.3265], [-86.4771, 36.3291], [-86.4758, 36.3298], [-86.4752, 36.334], [-86.4743, 36.3346], [-86.4752, 36.3366], [-86.4764, 36.3361], [-86.4759, 36.3381], [-86.4764, 36.3387], [-86.475, 36.3412], [-86.476, 36.3436], [-86.4735, 36.3445], [-86.4766, 36.3449], [-86.4775, 36.3467], [-86.4765, 36.3479], [-86.4749, 36.3478], [-86.4759, 36.3486], [-86.4742, 36.35], [-86.4782, 36.3481], [-86.4783, 36.3491], [-86.4732, 36.352], [-86.4725, 36.3555], [-86.4714, 36.3562], [-86.4731, 36.3565], [-86.4732, 36.3596], [-86.4684, 36.3622], [-86.4731, 36.3613], [-86.4767, 36.3632], [-86.478, 36.3659], [-86.4801, 36.3665], [-86.4821, 36.3656], [-86.4791, 36.3653], [-86.4793, 36.3631], [-86.4764, 36.3605], [-86.4748, 36.3542], [-86.4752, 36.3528], [-86.4777, 36.3519], [-86.48, 36.3525], [-86.4817, 36.3497], [-86.4797, 36.3436], [-86.48, 36.3429], [-86.4825, 36.3425], [-86.4795, 36.3413], [-86.4808, 36.3391], [-86.4797, 36.3371], [-86.4815, 36.3327], [-86.4826, 36.3338], [-86.4838, 36.3328], [-86.4872, 36.335], [-86.4872, 36.3383], [-86.4865, 36.3388], [-86.4882, 36.3417], [-86.4904, 36.3431], [-86.4901, 36.3442], [-86.4917, 36.343], [-86.489, 36.3383], [-86.4894, 36.3357], [-86.4938, 36.3392], [-86.4933, 36.3418], [-86.4949, 36.3445], [-86.5002, 36.347], [-86.5006, 36.3485], [-86.5016, 36.3477], [-86.5035, 36.3487], [-86.5078, 36.3491], [-86.5094, 36.3502], [-86.5105, 36.3488], [-86.5125, 36.3496], [-86.5144, 36.3488], [-86.5135, 36.3482], [-86.5137, 36.3473], [-86.5119, 36.3464], [-86.5073, 36.3459], [-86.5074, 36.3442], [-86.5054, 36.346], [-86.5031, 36.3438], [-86.5006, 36.3444], [-86.4972, 36.3401], [-86.4984, 36.338], [-86.5005, 36.3375], [-86.499, 36.3348], [-86.4964, 36.3377], [-86.495, 36.3359], [-86.4952, 36.3349], [-86.4967, 36.3343], [-86.4968, 36.3326], [-86.4951, 36.3337], [-86.4934, 36.3312], [-86.4938, 36.3334], [-86.4912, 36.3332], [-86.487, 36.3305], [-86.4869, 36.3294], [-86.4815, 36.3291], [-86.483, 36.3284], [-86.4818, 36.3278], [-86.4808, 36.3244], [-86.4857, 36.3203], [-86.4866, 36.3221], [-86.487, 36.321], [-86.4898, 36.3216], [-86.489, 36.321], [-86.4893, 36.3204], [-86.4877, 36.3196], [-86.495, 36.3167], [-86.5024, 36.3099], [-86.5041, 36.3099], [-86.505, 36.3087], [-86.5065, 36.3091], [-86.5066, 36.3081], [-86.5075, 36.3079], [-86.5067, 36.3079], [-86.5066, 36.307], [-86.508, 36.3054], [-86.5093, 36.3054], [-86.5096, 36.3063], [-86.5106, 36.3066], [-86.5105, 36.3096], [-86.5116, 36.3103], [-86.5112, 36.3124], [-86.5098, 36.3127], [-86.5109, 36.3136], [-86.5101, 36.3152], [-86.511, 36.3155], [-86.5107, 36.3177], [-86.512, 36.3171], [-86.5124, 36.313], [-86.5133, 36.312], [-86.5146, 36.313], [-86.5186, 36.3126], [-86.5138, 36.309], [-86.5139, 36.3081], [-86.5165, 36.3076], [-86.5137, 36.307], [-86.5134, 36.3056], [-86.5171, 36.3052], [-86.5127, 36.3044], [-86.5137, 36.3034], [-86.513, 36.3018], [-86.5146, 36.3011], [-86.5138, 36.301], [-86.5135, 36.3], [-86.5151, 36.298], [-86.5139, 36.2983], [-86.5163, 36.2922], [-86.5171, 36.2878], [-86.5191, 36.2872], [-86.5196, 36.2882], [-86.5221, 36.2878], [-86.5213, 36.287], [-86.5237, 36.2886], [-86.5223, 36.2861], [-86.5229, 36.2857], [-86.5225, 36.2842], [-86.5238, 36.2835], [-86.5269, 36.2829], [-86.5278, 36.2834], [-86.5273, 36.2841], [-86.5248, 36.2843], [-86.5244, 36.285], [-86.5277, 36.2856], [-86.5291, 36.2848], [-86.5292, 36.2858], [-86.5311, 36.2862], [-86.5333, 36.288], [-86.5353, 36.2913], [-86.5349, 36.2921], [-86.5296, 36.2906], [-86.5339, 36.2933], [-86.5351, 36.293], [-86.5359, 36.2944], [-86.5354, 36.2947], [-86.5363, 36.295], [-86.5346, 36.2962], [-86.5324, 36.2958], [-86.5356, 36.2969], [-86.5327, 36.2988], [-86.5363, 36.2985], [-86.5361, 36.2993], [-86.5338, 36.3005], [-86.5359, 36.3003], [-86.5356, 36.3011], [-86.5344, 36.3021], [-86.5332, 36.3016], [-86.5325, 36.3033], [-86.5287, 36.3061], [-86.5321, 36.3054], [-86.5302, 36.3096], [-86.5327, 36.3177], [-86.5353, 36.3204], [-86.5341, 36.3211], [-86.533, 36.3242], [-86.5361, 36.3226], [-86.5372, 36.3211], [-86.5399, 36.3219], [-86.5386, 36.3268], [-86.5403, 36.3249], [-86.5414, 36.3258], [-86.5403, 36.3216]], [[-86.1761, 36.3742], [-86.1762, 36.3742], [-86.1761, 36.3742], [-86.1761, 36.3742]], [[-86.3474, 36.3952], [-86.3474, 36.3952], [-86.3473, 36.3952], [-86.3474, 36.3952]], [[-86.4164, 36.3269], [-86.4165, 36.3269], [-86.4165, 36.3269], [-86.4164, 36.3269]], [[-86.4155, 36.3227], [-86.4155, 36.3227], [-86.4155, 36.3227], [-86.4155, 36.3227]], [[-86.4157, 36.3238], [-86.4158, 36.3237], [-86.4157, 36.3238], [-86.4157, 36.3238]], [[-86.4158, 36.3243], [-86.4159, 36.3243], [-86.4159, 36.3243], [-86.4158, 36.3243]], [[-86.4162, 36.3259], [-86.4162, 36.3258], [-86.4163, 36.3259], [-86.4162, 36.3259]], [[-86.4161, 36.3253], [-86.4161, 36.3253], [-86.4161, 36.3254], [-86.4161, 36.3253]], [[-86.4156, 36.3232], [-86.4156, 36.3232], [-86.4157, 36.3232], [-86.4156, 36.3232]], [[-86.4163, 36.3264], [-86.4164, 36.3264], [-86.4164, 36.3264], [-86.4163, 36.3264]], [[-86.4159, 36.3248], [-86.416, 36.3248], [-86.416, 36.3248], [-86.4159, 36.3248]], [[-86.4149, 36.3206], [-86.415, 36.3205], [-86.415, 36.3206], [-86.4149, 36.3206]], [[-86.4153, 36.3222], [-86.4154, 36.3222], [-86.4154, 36.3222], [-86.4153, 36.3222]], [[-86.4152, 36.3216], [-86.4153, 36.3216], [-86.4152, 36.3217], [-86.4152, 36.3216]], [[-86.3476, 36.3952], [-86.3476, 36.3951], [-86.3476, 36.3952], [-86.3476, 36.3952]], [[-86.4093, 36.31], [-86.4093, 36.31], [-86.4094, 36.3101], [-86.4093, 36.31]], [[-86.3473, 36.3956], [-86.3475, 36.3956], [-86.3474, 36.3957], [-86.3473, 36.3956]], [[-86.3473, 36.395], [-86.3473, 36.3951], [-86.3472, 36.3951], [-86.3473, 36.395]], [[-86.5345, 36.304], [-86.5347, 36.304], [-86.5346, 36.3041], [-86.5345, 36.304]], [[-86.3473, 36.3949], [-86.3473, 36.395], [-86.3473, 36.3948], [-86.3473, 36.3949]], [[-86.3474, 36.3952], [-86.3475, 36.3953], [-86.3474, 36.3954], [-86.3474, 36.3952]], [[-86.4067, 36.3081], [-86.407, 36.3082], [-86.4068, 36.3082], [-86.4067, 36.3081]], [[-86.3594, 36.3162], [-86.3595, 36.3161], [-86.3593, 36.3163], [-86.3594, 36.3162]], [[-86.3483, 36.3931], [-86.3483, 36.3933], [-86.3482, 36.393], [-86.3483, 36.3931]], [[-86.5292, 36.2836], [-86.5292, 36.2838], [-86.5291, 36.2837], [-86.5292, 36.2836]], [[-86.4771, 36.3354], [-86.4772, 36.3353], [-86.4773, 36.3354], [-86.4771, 36.3354]], [[-86.3895, 36.3325], [-86.3896, 36.332], [-86.3895, 36.3325], [-86.3895, 36.3325]], [[-86.3413, 36.4001], [-86.3417, 36.3999], [-86.3412, 36.4003], [-86.3413, 36.4001]], [[-86.5073, 36.3079], [-86.5071, 36.3081], [-86.507, 36.308], [-86.5073, 36.3079]], [[-86.4917, 36.3135], [-86.4919, 36.3134], [-86.492, 36.3136], [-86.4917, 36.3135]], [[-86.3933, 36.3106], [-86.3932, 36.3106], [-86.3936, 36.3104], [-86.3933, 36.3106]], [[-86.3823, 36.3517], [-86.3828, 36.3518], [-86.382, 36.3518], [-86.3823, 36.3517]], [[-86.3785, 36.3512], [-86.3782, 36.3515], [-86.3786, 36.351], [-86.3785, 36.3512]], [[-86.4794, 36.3518], [-86.4792, 36.3519], [-86.4792, 36.3516], [-86.4794, 36.3518]], [[-86.2606, 36.3277], [-86.2608, 36.3274], [-86.2606, 36.3281], [-86.2606, 36.3277]], [[-86.4744, 36.323], [-86.475, 36.3227], [-86.4748, 36.323], [-86.4744, 36.323]], [[-86.0836, 36.3428], [-86.0831, 36.3428], [-86.0841, 36.3427], [-86.0836, 36.3428]], [[-86.4008, 36.3068], [-86.4009, 36.3068], [-86.3996, 36.3069], [-86.4008, 36.3068]], [[-86.3498, 36.3946], [-86.3495, 36.3946], [-86.3498, 36.3942], [-86.3498, 36.3946]], [[-86.0901, 36.3425], [-86.0897, 36.3423], [-86.0906, 36.3423], [-86.0901, 36.3425]], [[-86.4809, 36.3657], [-86.4814, 36.3655], [-86.4815, 36.366], [-86.4809, 36.3657]], [[-86.3482, 36.3921], [-86.3485, 36.3931], [-86.348, 36.392], [-86.3482, 36.3921]], [[-86.4705, 36.3617], [-86.4698, 36.3618], [-86.4716, 36.3613], [-86.4705, 36.3617]], [[-86.381, 36.356], [-86.3815, 36.3563], [-86.3804, 36.3557], [-86.381, 36.356]], [[-86.5361, 36.2923], [-86.5361, 36.2916], [-86.5364, 36.2926], [-86.5361, 36.2923]], [[-86.5182, 36.2864], [-86.5175, 36.2866], [-86.5187, 36.2862], [-86.5182, 36.2864]], [[-86.3482, 36.3916], [-86.3478, 36.3909], [-86.3486, 36.3921], [-86.3482, 36.3916]], [[-86.4799, 36.3659], [-86.4804, 36.3658], [-86.4808, 36.3661], [-86.4799, 36.3659]]], [[[-86.3413, 36.3999], [-86.3409, 36.4002], [-86.3424, 36.399], [-86.3413, 36.3999]], [[-86.3478, 36.3937], [-86.3475, 36.3951], [-86.3476, 36.3932], [-86.3478, 36.3937]], [[-86.3496, 36.352], [-86.3502, 36.3526], [-86.3494, 36.3529], [-86.3496, 36.352]], [[-86.534, 36.2874], [-86.5336, 36.288], [-86.5331, 36.2867], [-86.534, 36.2874]], [[-86.3824, 36.3467], [-86.3813, 36.3486], [-86.3826, 36.3462], [-86.3824, 36.3467]], [[-86.5209, 36.2851], [-86.5197, 36.2842], [-86.5209, 36.2832], [-86.5202, 36.2842], [-86.5209, 36.2851]], [[-86.4051, 36.3076], [-86.4036, 36.3072], [-86.4066, 36.308], [-86.4051, 36.3076]]], [[[-86.3805, 36.3537], [-86.3816, 36.3522], [-86.3801, 36.3542], [-86.3805, 36.3537]], [[-86.1859, 36.3625], [-86.1863, 36.3637], [-86.1858, 36.3644], [-86.1859, 36.3625]], [[-86.0854, 36.3427], [-86.0842, 36.3426], [-86.0895, 36.3424], [-86.0854, 36.3427]], [[-86.5316, 36.285], [-86.5323, 36.2858], [-86.5305, 36.2851], [-86.5308, 36.2845], [-86.5316, 36.285]], [[-86.3471, 36.3843], [-86.3482, 36.3836], [-86.3486, 36.3841], [-86.3466, 36.3855], [-86.3471, 36.3843]], [[-86.3975, 36.3073], [-86.3929, 36.3095], [-86.3951, 36.3078], [-86.3992, 36.307], [-86.3975, 36.3073]]], [[[-86.3889, 36.3344], [-86.3893, 36.3332], [-86.3864, 36.3402], [-86.3889, 36.3344]], [[-86.5039, 36.3072], [-86.505, 36.3063], [-86.5043, 36.3087], [-86.5032, 36.3091], [-86.5039, 36.3072]], [[-86.083, 36.3433], [-86.0895, 36.3427], [-86.0844, 36.3438], [-86.083, 36.3433]], [[-86.3791, 36.3511], [-86.3799, 36.3486], [-86.3811, 36.3493], [-86.3794, 36.3519], [-86.3821, 36.3502], [-86.383, 36.3486], [-86.3837, 36.3496], [-86.3855, 36.3483], [-86.3832, 36.3514], [-86.3815, 36.351], [-86.3803, 36.3529], [-86.3788, 36.3527], [-86.378, 36.3538], [-86.3791, 36.3511]]]]}, "properties": {"OBJECTID": 1966, "Depth_Area_Value_1": "0", "Depth_Area_Value_2": "2.74", "Source_Date": "20200512", "Source_Indication": "US,U3,USACE,Encoding_Guide_Consistency", "Source_Dataset": "U37CR221.000", "Feature_ID": "U3 1392979895 00001"}}, {"type": "Feature", "id": 1969, "geometry": {"type": "Polygon", "coordinates": [[[-86.5365, 36.2844], [-86.5374, 36.2852], [-86.537, 36.2866], [-86.5386, 36.289], [-86.5397, 36.2929], [-86.5404, 36.293], [-86.5395, 36.29], [-86.5402, 36.2893], [-86.5414, 36.2923], [-86.5422, 36.2927], [-86.5419, 36.2889], [-86.5391, 36.2858], [-86.5394, 36.2844], [-86.5365, 36.2844]], [[-86.5416, 36.2924], [-86.5416, 36.2924], [-86.5416, 36.2925], [-86.5416, 36.2924]]]}, "properties": {"OBJECTID": 1969, "Depth_Area_Value_1": "0", "Depth_Area_Value_2": "2.74", "Source_Date": "20040930", "Source_Indication": "US,U3,USACE,LRN_GIS", "Source_Dataset": "U37CR221.000", "Feature_ID": "U3 1392981025 00001"}}, {"type": "Feature", "id": 1971, "geometry": {"type": "Polygon", "coordinates": [[[-86.4872, 36.315], [-86.4747, 36.3225], [-86.4858, 36.3163], [-86.4872, 36.315]]]}, "properties": {"OBJECTID": 1971, "Depth_Area_Value_1": "0", "Depth_Area_Value_2": "2.74", "Source_Date": "20040930", "Source_Indication": "US,U3,USACE,LRN_GIS", "Source_Dataset": "U37CR221.000", "Feature_ID": "U3 1392981034 00001"}}, {"type": "Feature", "id": 1972, "geometry": {"type": "Polygon", "coordinates": [[[-86.4535, 36.336], [-86.4481, 36.3377], [-86.4468, 36.3392], [-86.4451, 36.3392], [-86.4466, 36.34], [-86.4486, 36.3382], [-86.4535, 36.336]]]}, "properties": {"OBJECTID": 1972, "Depth_Area_Value_1": "0", "Depth_Area_Value_2": "2.74", "Source_Date": "20040930", "Source_Indication": "US,U3,USACE,LRN_GIS", "Source_Dataset": "U37CR221.000", "Feature_ID": "U3 1392981036 00001"}}, {"type": "Feature", "id": 1973, "geometry": {"type": "Polygon", "coordinates": [[[-86.5133, 36.3003], [-86.5102, 36.3033], [-86.5069, 36.3052], [-86.511, 36.3028], [-86.5133, 36.3003]]]}, "properties": {"OBJECTID": 1973, "Depth_Area_Value_1": "0", "Depth_Area_Value_2": "2.74", "Source_Date": "20040930", "Source_Indication": "US,U3,USACE,LRN_GIS", "Source_Dataset": "U37CR221.000", "Feature_ID": "U3 1392981038 00001"}}, {"type": "Feature", "id": 1974, "geometry": {"type": "Polygon", "coordinates": [[[-86.5115, 36.2991], [-86.5133, 36.2944], [-86.5123, 36.296], [-86.5115, 36.2991]]]}, "properties": {"OBJECTID": 1974, "Depth_Area_Value_1": "0", "Depth_Area_Value_2": "2.74", "Source_Date": "20040930", "Source_Indication": "US,U3,USACE,LRN_GIS", "Source_Dataset": "U37CR221.000", "Feature_ID": "U3 1392981056 00001"}}, {"type": "Feature", "id": 1975, "geometry": {"type": "Polygon", "coordinates": [[[-86.5315, 36.284], [-86.5291, 36.2814], [-86.5258, 36.2815], [-86.5255, 36.2802], [-86.5264, 36.2797], [-86.5247, 36.2789], [-86.5253, 36.2823], [-86.529, 36.2826], [-86.5315, 36.284]]]}, "properties": {"OBJECTID": 1975, "Depth_Area_Value_1": "0", "Depth_Area_Value_2": "2.74", "Source_Date": "20040930", "Source_Indication": "US,U3,USACE,LRN_GIS", "Source_Dataset": "U37CR221.000", "Feature_ID": "U3 1392981057 00001"}}, {"type": "Feature", "id": 1976, "geometry": {"type": "Polygon", "coordinates": [[[-86.5364, 36.2954], [-86.5378, 36.2997], [-86.5375, 36.3017], [-86.5359, 36.3037], [-86.5362, 36.3048], [-86.5365, 36.3037], [-86.5376, 36.3035], [-86.5372, 36.3108], [-86.5391, 36.3158], [-86.539, 36.3026], [-86.5382, 36.3017], [-86.5389, 36.2998], [-86.5378, 36.293], [-86.5367, 36.2954], [-86.5372, 36.2978], [-86.5364, 36.2954]]]}, "properties": {"OBJECTID": 1976, "Depth_Area_Value_1": "0", "Depth_Area_Value_2": "2.74", "Source_Date": "20040930", "Source_Indication": "US,U3,USACE,LRN_GIS", "Source_Dataset": "U37CR221.000", "Feature_ID": "U3 1392981059 00001"}}, {"type": "Feature", "id": 1977, "geometry": {"type": "Polygon", "coordinates": [[[-86.5355, 36.3048], [-86.5326, 36.3064], [-86.5315, 36.3097], [-86.5319, 36.3137], [-86.5338, 36.3146], [-86.5326, 36.3138], [-86.5322, 36.3116], [-86.5327, 36.3094], [-86.5334, 36.3097], [-86.5346, 36.3073], [-86.5355, 36.3122], [-86.5351, 36.3131], [-86.5347, 36.3121], [-86.5341, 36.3124], [-86.537, 36.3157], [-86.5368, 36.3064], [-86.536, 36.3053], [-86.5355, 36.3085], [-86.5355, 36.3048]]]}, "properties": {"OBJECTID": 1977, "Depth_Area_Value_1": "0", "Depth_Area_Value_2": "2.74", "Source_Date": "20040930", "Source_Indication": "US,U3,USACE,LRN_GIS", "Source_Dataset": "U37CR221.000", "Feature_ID": "U3 1392981073 00001"}}, {"type": "Feature", "id": 1978, "geometry": {"type": "Polygon", "coordinates": [[[-86.5416, 36.2924], [-86.5416, 36.2925], [-86.5416, 36.2924], [-86.5416, 36.2924]]]}, "properties": {"OBJECTID": 1978, "Depth_Area_Value_1": "2.74", "Depth_Area_Value_2": "Unknown", "Source_Date": "20040930", "Source_Indication": "US,U3,USACE,LRN_GIS", "Source_Dataset": "U37CR221.000", "Feature_ID": "U3 1392981121 00001"}}, {"type": "Feature", "id": 1979, "geometry": {"type": "Polygon", "coordinates": [[[-86.5412, 36.3111], [-86.5427, 36.3166], [-86.5426, 36.3125], [-86.5412, 36.3111]]]}, "properties": {"OBJECTID": 1979, "Depth_Area_Value_1": "0", "Depth_Area_Value_2": "2.74", "Source_Date": "20040930", "Source_Indication": "US,U3,USACE,LRN_GIS", "Source_Dataset": "U37CR221.000", "Feature_ID": "U3 1392981140 00001"}}, {"type": "Feature", "id": 1982, "geometry": {"type": "Polygon", "coordinates": [[[-86.4401, 36.3375], [-86.4376, 36.3375], [-86.4364, 36.3391], [-86.4401, 36.3375]], [[-86.4369, 36.3385], [-86.4369, 36.3385], [-86.4369, 36.3385], [-86.4369, 36.3385]], [[-86.437, 36.3388], [-86.437, 36.3388], [-86.437, 36.3388], [-86.437, 36.3388]], [[-86.437, 36.3388], [-86.4369, 36.3388], [-86.437, 36.3388], [-86.437, 36.3388]], [[-86.4369, 36.3386], [-86.4369, 36.3387], [-86.4369, 36.3386], [-86.4369, 36.3386]], [[-86.4369, 36.3385], [-86.4369, 36.3385], [-86.4369, 36.3385], [-86.4369, 36.3385]], [[-86.437, 36.3386], [-86.437, 36.3386], [-86.437, 36.3386], [-86.437, 36.3386]], [[-86.4371, 36.339], [-86.437, 36.339], [-86.437, 36.339], [-86.4371, 36.339]], [[-86.4367, 36.3388], [-86.4367, 36.3388], [-86.4368, 36.3388], [-86.4367, 36.3388]]]}, "properties": {"OBJECTID": 1982, "Depth_Area_Value_1": "0", "Depth_Area_Value_2": "2.74", "Source_Date": "20040930", "Source_Indication": "US,U3,USACE,LRN_GIS", "Source_Dataset": "U37CR221.000", "Feature_ID": "U3 1392981316 00001"}}, {"type": "Feature", "id": 1983, "geometry": {"type": "Polygon", "coordinates": [[[-86.4932, 36.3137], [-86.4978, 36.311], [-86.4912, 36.3131], [-86.4932, 36.3137]]]}, "properties": {"OBJECTID": 1983, "Depth_Area_Value_1": "0", "Depth_Area_Value_2": "2.74", "Source_Date": "20040930", "Source_Indication": "US,U3,USACE,LRN_GIS", "Source_Dataset": "U37CR221.000", "Feature_ID": "U3 1392981317 00001"}}, {"type": "Feature", "id": 1984, "geometry": {"type": "Polygon", "coordinates": [[[-86.463, 36.328], [-86.4562, 36.33], [-86.4561, 36.3322], [-86.4533, 36.3341], [-86.463, 36.328]]]}, "properties": {"OBJECTID": 1984, "Depth_Area_Value_1": "0", "Depth_Area_Value_2": "2.74", "Source_Date": "20040930", "Source_Indication": "US,U3,USACE,LRN_GIS", "Source_Dataset": "U37CR221.000", "Feature_ID": "U3 1392981326 00001"}}, {"type": "Feature", "id": 1986, "geometry": {"type": "Polygon", "coordinates": [[[-86.5073, 36.3079], [-86.507, 36.308], [-86.5071, 36.3081], [-86.5073, 36.3079]]]}, "properties": {"OBJECTID": 1986, "Depth_Area_Value_1": "2.74", "Depth_Area_Value_2": "Unknown", "Source_Date": "20040930", "Source_Indication": "US,U3,USACE,LRN_GIS", "Source_Dataset": "U37CR221.000", "Feature_ID": "U3 1392981416 00001"}}, {"type": "Feature", "id": 1987, "geometry": {"type": "Polygon", "coordinates": [[[-86.5545, 36.2892], [-86.5547, 36.2837], [-86.5561, 36.2825], [-86.5601, 36.2736], [-86.5581, 36.2729], [-86.561, 36.2709], [-86.5666, 36.2639], [-86.5695, 36.2596], [-86.5687, 36.2582], [-86.5693, 36.2574], [-86.571, 36.2574], [-86.5725, 36.2557], [-86.5722, 36.2547], [-86.5742, 36.2539], [-86.5727, 36.2521], [-86.5738, 36.2511], [-86.5774, 36.2507], [-86.5943, 36.2431], [-86.6005, 36.242], [-86.601, 36.2404], [-86.6027, 36.2419], [-86.6043, 36.2416], [-86.6157, 36.2445], [-86.6208, 36.2437], [-86.6208, 36.2428], [-86.619, 36.2413], [-86.6197, 36.2438], [-86.6132, 36.243], [-86.6131, 36.2435], [-86.6155, 36.2443], [-86.6055, 36.242], [-86.6052, 36.2409], [-86.6026, 36.2418], [-86.6022, 36.2382], [-86.6027, 36.2367], [-86.6014, 36.2369], [-86.6014, 36.238], [-86.6004, 36.2376], [-86.6014, 36.2389], [-86.6004, 36.242], [-86.5953, 36.2428], [-86.5947, 36.2417], [-86.5935, 36.2432], [-86.5932, 36.2423], [-86.5919, 36.2423], [-86.5926, 36.241], [-86.5918, 36.2414], [-86.5908, 36.2404], [-86.5906, 36.2427], [-86.5889, 36.2427], [-86.5897, 36.2433], [-86.5891, 36.2439], [-86.591, 36.2436], [-86.5911, 36.2444], [-86.5836, 36.2471], [-86.5771, 36.2506], [-86.5758, 36.2499], [-86.5766, 36.248], [-86.5747, 36.2482], [-86.5752, 36.2462], [-86.5736, 36.2458], [-86.573, 36.2443], [-86.5702, 36.2488], [-86.5681, 36.2502], [-86.5676, 36.2492], [-86.5664, 36.2499], [-86.5648, 36.251], [-86.5645, 36.2525], [-86.5662, 36.2538], [-86.5674, 36.2533], [-86.5705, 36.2542], [-86.5715, 36.2555], [-86.5709, 36.2565], [-86.5685, 36.2571], [-86.5661, 36.2553], [-86.5658, 36.2538], [-86.5629, 36.2523], [-86.5597, 36.2551], [-86.563, 36.256], [-86.5643, 36.2573], [-86.5642, 36.2586], [-86.5623, 36.2608], [-86.5652, 36.261], [-86.5664, 36.2598], [-86.5682, 36.261], [-86.5655, 36.2652], [-86.5629, 36.2661], [-86.5631, 36.2672], [-86.562, 36.2679], [-86.5606, 36.2709], [-86.5593, 36.2713], [-86.5575, 36.2704], [-86.5563, 36.2687], [-86.5541, 36.2692], [-86.552, 36.2668], [-86.5517, 36.2692], [-86.5505, 36.2684], [-86.5488, 36.2689], [-86.5503, 36.2686], [-86.5498, 36.2689], [-86.551, 36.27], [-86.553, 36.2697], [-86.5535, 36.2707], [-86.5552, 36.2706], [-86.5554, 36.2718], [-86.5584, 36.2738], [-86.5592, 36.2753], [-86.5574, 36.2791], [-86.5558, 36.2798], [-86.5565, 36.2807], [-86.5548, 36.2834], [-86.5532, 36.2839], [-86.5501, 36.2821], [-86.5481, 36.2824], [-86.5523, 36.2847], [-86.5518, 36.2865], [-86.5546, 36.285], [-86.5538, 36.2893], [-86.5561, 36.2936], [-86.5569, 36.292], [-86.5545, 36.2892]], [[-86.5596, 36.2734], [-86.5594, 36.2731], [-86.5597, 36.2734], [-86.5596, 36.2734]], [[-86.5688, 36.2601], [-86.569, 36.2596], [-86.5693, 36.2596], [-86.5688, 36.2601]], [[-86.57, 36.2518], [-86.5698, 36.251], [-86.5708, 36.2507], [-86.5721, 36.252], [-86.57, 36.2518]]]}, "properties": {"OBJECTID": 1987, "Depth_Area_Value_1": "0", "Depth_Area_Value_2": "2.74", "Source_Date": "20040930", "Source_Indication": "US,U3,USACE,LRN_GIS_Data", "Source_Dataset": "U37CR221.000", "Feature_ID": "U3 1393085366 00001"}}, {"type": "Feature", "id": 1988, "geometry": {"type": "Polygon", "coordinates": [[[-86.6208, 36.2515], [-86.6208, 36.2509], [-86.6113, 36.248], [-86.6015, 36.2477], [-86.5906, 36.2515], [-86.5766, 36.2613], [-86.5733, 36.2645], [-86.5703, 36.2695], [-86.5685, 36.2765], [-86.57, 36.2799], [-86.5675, 36.2821], [-86.5678, 36.2849], [-86.5694, 36.2864], [-86.5684, 36.2884], [-86.5718, 36.2949], [-86.5728, 36.299], [-86.5708, 36.3002], [-86.5685, 36.2999], [-86.5697, 36.2974], [-86.5687, 36.2936], [-86.5662, 36.296], [-86.5653, 36.2989], [-86.565, 36.2962], [-86.5645, 36.2964], [-86.5648, 36.301], [-86.5664, 36.3059], [-86.5591, 36.3143], [-86.555, 36.3187], [-86.5521, 36.3203], [-86.548, 36.3216], [-86.5441, 36.3213], [-86.5415, 36.3223], [-86.5403, 36.3216], [-86.5411, 36.3233], [-86.5425, 36.3234], [-86.5423, 36.3224], [-86.5437, 36.3222], [-86.5451, 36.3235], [-86.5447, 36.3221], [-86.5517, 36.321], [-86.5553, 36.319], [-86.5574, 36.3161], [-86.5592, 36.3186], [-86.5603, 36.3177], [-86.5582, 36.3154], [-86.5618, 36.311], [-86.5627, 36.3112], [-86.5623, 36.3104], [-86.5634, 36.3089], [-86.5662, 36.3066], [-86.5674, 36.3066], [-86.5661, 36.3075], [-86.5665, 36.3082], [-86.5673, 36.3078], [-86.5668, 36.309], [-86.5673, 36.3107], [-86.5685, 36.3088], [-86.5692, 36.3088], [-86.5698, 36.3102], [-86.5707, 36.3099], [-86.5717, 36.3107], [-86.5713, 36.312], [-86.5728, 36.3116], [-86.5746, 36.313], [-86.5742, 36.3153], [-86.5756, 36.314], [-86.5771, 36.3156], [-86.5772, 36.3136], [-86.5792, 36.3131], [-86.5768, 36.312], [-86.5769, 36.3109], [-86.575, 36.311], [-86.5725, 36.3083], [-86.5729, 36.3076], [-86.5715, 36.3077], [-86.5703, 36.3061], [-86.5715, 36.3047], [-86.5788, 36.3045], [-86.5738, 36.3023], [-86.5727, 36.2959], [-86.5687, 36.2878], [-86.5728, 36.2901], [-86.5714, 36.2873], [-86.5699, 36.2864], [-86.5702, 36.2855], [-86.569, 36.2855], [-86.5698, 36.2834], [-86.5682, 36.2823], [-86.5709, 36.2814], [-86.5721, 36.2827], [-86.5729, 36.2822], [-86.5725, 36.2812], [-86.5737, 36.2809], [-86.5772, 36.283], [-86.5769, 36.2816], [-86.5782, 36.2811], [-86.5759, 36.2804], [-86.5743, 36.279], [-86.5749, 36.2766], [-86.5728, 36.2783], [-86.5698, 36.2776], [-86.569, 36.2764], [-86.5691, 36.2738], [-86.5703, 36.2733], [-86.5696, 36.2723], [-86.5702, 36.2704], [-86.5718, 36.2716], [-86.5721, 36.2703], [-86.5733, 36.2702], [-86.5709, 36.2691], [-86.5719, 36.2669], [-86.5744, 36.268], [-86.573, 36.2655], [-86.5737, 36.2646], [-86.5751, 36.265], [-86.5745, 36.2635], [-86.5759, 36.2635], [-86.5759, 36.2621], [-86.5773, 36.2611], [-86.5788, 36.2624], [-86.578, 36.2604], [-86.58, 36.2591], [-86.5828, 36.2639], [-86.5829, 36.2623], [-86.5814, 36.26], [-86.5815, 36.2584], [-86.583, 36.2587], [-86.5823, 36.2577], [-86.584, 36.2562], [-86.5863, 36.2567], [-86.5848, 36.2555], [-86.5867, 36.2543], [-86.587, 36.2553], [-86.5877, 36.2535], [-86.5918, 36.2512], [-86.5946, 36.2521], [-86.5926, 36.2532], [-86.594, 36.2543], [-86.5954, 36.2536], [-86.5961, 36.2541], [-86.5942, 36.2572], [-86.5956, 36.2572], [-86.5973, 36.2557], [-86.599, 36.2576], [-86.6016, 36.2588], [-86.6, 36.2601], [-86.6004, 36.2617], [-86.599, 36.2627], [-86.5984, 36.2651], [-86.5955, 36.2654], [-86.5973, 36.2671], [-86.597, 36.2686], [-86.5954, 36.2689], [-86.5965, 36.2709], [-86.5977, 36.2708], [-86.5976, 36.2717], [-86.5952, 36.2729], [-86.5943, 36.2725], [-86.5938, 36.2738], [-86.5926, 36.2738], [-86.5934, 36.2756], [-86.5929, 36.2763], [-86.5956, 36.2746], [-86.5984, 36.2744], [-86.5991, 36.2757], [-86.5986, 36.2769], [-86.5945, 36.2779], [-86.5975, 36.2794], [-86.5973, 36.2807], [-86.5985, 36.2816], [-86.5984, 36.2824], [-86.5964, 36.2834], [-86.5984, 36.284], [-86.6007, 36.2833], [-86.5998, 36.286], [-86.6016, 36.2853], [-86.6038, 36.2888], [-86.6024, 36.291], [-86.6048, 36.2901], [-86.6082, 36.2969], [-86.6086, 36.2964], [-86.6098, 36.2973], [-86.613, 36.3014], [-86.6143, 36.3013], [-86.6133, 36.2979], [-86.614, 36.2975], [-86.6095, 36.2909], [-86.6082, 36.29], [-86.6087, 36.2871], [-86.6072, 36.2847], [-86.6047, 36.2836], [-86.6069, 36.2818], [-86.6042, 36.2811], [-86.6034, 36.2799], [-86.6031, 36.2779], [-86.6065, 36.2786], [-86.6064, 36.2777], [-86.6032, 36.2765], [-86.6041, 36.2761], [-86.6037, 36.2756], [-86.6044, 36.2747], [-86.6054, 36.2752], [-86.6062, 36.2728], [-86.6035, 36.2719], [-86.6021, 36.2703], [-86.6042, 36.2705], [-86.6059, 36.2696], [-86.6033, 36.2685], [-86.6034, 36.2674], [-86.6072, 36.2669], [-86.608, 36.2659], [-86.6069, 36.2642], [-86.6078, 36.2626], [-86.609, 36.2624], [-86.6079, 36.2613], [-86.609, 36.2597], [-86.6064, 36.2601], [-86.6064, 36.2588], [-86.6038, 36.2568], [-86.6016, 36.253], [-86.6033, 36.2531], [-86.6024, 36.2525], [-86.6028, 36.2519], [-86.6018, 36.2519], [-86.6014, 36.2501], [-86.6082, 36.2483], [-86.6092, 36.2486], [-86.6094, 36.2522], [-86.6105, 36.2493], [-86.6121, 36.2484], [-86.6146, 36.2504], [-86.6163, 36.2498], [-86.6196, 36.2517], [-86.6208, 36.2515]], [[-86.5727, 36.2786], [-86.5728, 36.2785], [-86.5728, 36.2786], [-86.5727, 36.2786]], [[-86.6008, 36.2494], [-86.601, 36.2497], [-86.6007, 36.2496], [-86.6008, 36.2494]], [[-86.6054, 36.2484], [-86.6049, 36.2484], [-86.6052, 36.2481], [-86.6054, 36.2484]], [[-86.6048, 36.2636], [-86.6051, 36.2631], [-86.6055, 36.2636], [-86.6048, 36.2636]], [[-86.6004, 36.249], [-86.5996, 36.2485], [-86.6002, 36.2483], [-86.6004, 36.249]]]}, "properties": {"OBJECTID": 1988, "Depth_Area_Value_1": "0", "Depth_Area_Value_2": "2.74", "Source_Date": "20040930", "Source_Indication": "US,U3,USACE,LRN_GIS_Data", "Source_Dataset": "U37CR221.000", "Feature_ID": "U3 1393085367 00001"}}, {"type": "Feature", "id": 1989, "geometry": {"type": "Polygon", "coordinates": [[[-86.6208, 36.2543], [-86.6195, 36.2549], [-86.6194, 36.2563], [-86.6208, 36.2553], [-86.6208, 36.2543]]]}, "properties": {"OBJECTID": 1989, "Depth_Area_Value_1": "0", "Depth_Area_Value_2": "2.74", "Source_Date": "20040930", "Source_Indication": "US,U3,USACE,LRN_GIS_Data", "Source_Dataset": "U37CR221.000", "Feature_ID": "U3 1393085367 00001"}}, {"type": "Feature", "id": 1990, "geometry": {"type": "Polygon", "coordinates": [[[-86.6208, 36.2509], [-86.6208, 36.2437], [-86.6157, 36.2445], [-86.6043, 36.2416], [-86.6027, 36.2419], [-86.601, 36.2404], [-86.6005, 36.242], [-86.5943, 36.2431], [-86.5774, 36.2507], [-86.5738, 36.2511], [-86.5727, 36.2521], [-86.5742, 36.2539], [-86.5722, 36.2547], [-86.5725, 36.2557], [-86.571, 36.2574], [-86.5693, 36.2574], [-86.5687, 36.2582], [-86.5695, 36.2596], [-86.5666, 36.2639], [-86.561, 36.2709], [-86.5581, 36.2729], [-86.5601, 36.2736], [-86.5561, 36.2825], [-86.5547, 36.2837], [-86.5545, 36.2892], [-86.5569, 36.292], [-86.5561, 36.2936], [-86.5572, 36.2937], [-86.5568, 36.296], [-86.5589, 36.3007], [-86.5586, 36.3018], [-86.5603, 36.3035], [-86.5572, 36.306], [-86.5578, 36.3095], [-86.5613, 36.302], [-86.56, 36.2923], [-86.5611, 36.2939], [-86.5631, 36.3053], [-86.5593, 36.3115], [-86.5558, 36.315], [-86.56, 36.309], [-86.5605, 36.3071], [-86.5598, 36.3069], [-86.5556, 36.3133], [-86.5497, 36.3171], [-86.5451, 36.3153], [-86.5459, 36.3167], [-86.5496, 36.3186], [-86.5461, 36.3186], [-86.5472, 36.3193], [-86.5514, 36.3184], [-86.5548, 36.3161], [-86.551, 36.3193], [-86.5485, 36.3196], [-86.5478, 36.3204], [-86.5444, 36.3201], [-86.5445, 36.3194], [-86.5467, 36.3197], [-86.5436, 36.3181], [-86.5435, 36.3169], [-86.5422, 36.3159], [-86.5405, 36.3079], [-86.5415, 36.2991], [-86.5435, 36.2934], [-86.5426, 36.2896], [-86.5419, 36.2889], [-86.5422, 36.2927], [-86.5414, 36.2923], [-86.5403, 36.2895], [-86.5396, 36.2897], [-86.5404, 36.2929], [-86.5398, 36.293], [-86.5386, 36.289], [-86.537, 36.2866], [-86.5373, 36.285], [-86.5306, 36.2799], [-86.5252, 36.2777], [-86.521, 36.2773], [-86.5188, 36.2796], [-86.5172, 36.2797], [-86.5169, 36.2819], [-86.5147, 36.2855], [-86.5146, 36.2895], [-86.5122, 36.2975], [-86.5084, 36.3023], [-86.5008, 36.3074], [-86.4874, 36.3126], [-86.4551, 36.3333], [-86.4401, 36.3375], [-86.438, 36.3389], [-86.435, 36.3393], [-86.4305, 36.3383], [-86.4201, 36.333], [-86.419, 36.3303], [-86.4186, 36.3192], [-86.4151, 36.3127], [-86.4098, 36.3082], [-86.4047, 36.3055], [-86.3994, 36.3054], [-86.3943, 36.3065], [-86.3903, 36.3094], [-86.3886, 36.312], [-86.3882, 36.3163], [-86.3896, 36.3243], [-86.3875, 36.3322], [-86.3847, 36.3385], [-86.3753, 36.3514], [-86.3679, 36.3567], [-86.3653, 36.3577], [-86.3597, 36.3557], [-86.3529, 36.3516], [-86.3499, 36.349], [-86.3476, 36.3441], [-86.3467, 36.3292], [-86.3564, 36.3234], [-86.3602, 36.3185], [-86.3633, 36.3121], [-86.3606, 36.3086], [-86.3574, 36.3081], [-86.3546, 36.3089], [-86.3353, 36.318], [-86.3326, 36.3186], [-86.3194, 36.3162], [-86.3102, 36.3131], [-86.3018, 36.312], [-86.299, 36.3127], [-86.2965, 36.3192], [-86.2961, 36.3342], [-86.2948, 36.3379], [-86.288, 36.3453], [-86.2775, 36.3486], [-86.2729, 36.3474], [-86.2699, 36.3444], [-86.2668, 36.3383], [-86.2654, 36.3316], [-86.2659, 36.3287], [-86.2716, 36.323], [-86.2734, 36.3188], [-86.2732, 36.317], [-86.2744, 36.3114], [-86.274, 36.3085], [-86.2705, 36.3034], [-86.2659, 36.2999], [-86.2634, 36.2992], [-86.2585, 36.2999], [-86.253, 36.3023], [-86.2484, 36.3057], [-86.2469, 36.3097], [-86.2462, 36.3168], [-86.2478, 36.3271], [-86.2455, 36.3341], [-86.2294, 36.3483], [-86.2216, 36.3584], [-86.2213, 36.3674], [-86.2231, 36.3721], [-86.2199, 36.3746], [-86.2159, 36.3756], [-86.2133, 36.3734], [-86.2099, 36.3663], [-86.2097, 36.3623], [-86.207, 36.3528], [-86.2077, 36.3475], [-86.2076, 36.3379], [-86.2068, 36.3351], [-86.2008, 36.3282], [-86.1922, 36.3214], [-86.1868, 36.3191], [-86.1837, 36.3192], [-86.1809, 36.3208], [-86.1754, 36.3275], [-86.1769, 36.335], [-86.1817, 36.3467], [-86.1828, 36.3533], [-86.1824, 36.3631], [-86.1831, 36.368], [-86.182, 36.3715], [-86.1793, 36.3729], [-86.1745, 36.3728], [-86.1692, 36.371], [-86.1645, 36.3606], [-86.1588, 36.351], [-86.1552, 36.3486], [-86.149, 36.3477], [-86.1339, 36.348], [-86.118, 36.3449], [-86.1169, 36.3449], [-86.1193, 36.3457], [-86.1055, 36.3436], [-86.0985, 36.3411], [-86.0797, 36.3413], [-86.0729, 36.3397], [-86.0707, 36.3385], [-86.069, 36.336], [-86.0679, 36.3325], [-86.0686, 36.3285], [-86.0706, 36.3247], [-86.0796, 36.3134], [-86.0908, 36.3055], [-86.0972, 36.2967], [-86.098, 36.2939], [-86.0967, 36.287], [-86.09, 36.2743], [-86.087, 36.2704], [-86.0867, 36.2678], [-86.0775, 36.2633], [-86.0714, 36.2628], [-86.0631, 36.2694], [-86.0614, 36.272], [-86.0587, 36.2797], [-86.0523, 36.2877], [-86.0524, 36.2918], [-86.054, 36.2948], [-86.0675, 36.3026], [-86.0694, 36.3044], [-86.0691, 36.307], [-86.0677, 36.3092], [-86.0592, 36.3128], [-86.0552, 36.3114], [-86.0508, 36.3076], [-86.0504, 36.2993], [-86.0476, 36.2921], [-86.0424, 36.2874], [-86.0376, 36.2853], [-86.0341, 36.2854], [-86.0286, 36.2889], [-86.0195, 36.299], [-86.0159, 36.3012], [-86.01, 36.3007], [-86.004, 36.2984], [-86.0019, 36.2966], [-85.9989, 36.2933], [-85.9989, 36.2919], [-86.0032, 36.285], [-86.0041, 36.2843], [-86.0039, 36.2851], [-86.0062, 36.2821], [-86.0083, 36.2778], [-86.0107, 36.2697], [-86.0094, 36.2666], [-86.0008, 36.2655], [-85.9958, 36.2662], [-85.9893, 36.2684], [-85.9832, 36.2683], [-85.9745, 36.2693], [-85.97, 36.2683], [-85.9667, 36.268], [-85.9667, 36.2685], [-85.9743, 36.2699], [-85.9891, 36.2693], [-86.0011, 36.2666], [-86.0086, 36.2674], [-86.0096, 36.2686], [-86.0096, 36.2704], [-86.0059, 36.2801], [-85.9974, 36.2919], [-86.0008, 36.2972], [-86.0035, 36.2991], [-86.0112, 36.3023], [-86.0163, 36.3021], [-86.0203, 36.2996], [-86.0307, 36.2888], [-86.0348, 36.2864], [-86.0374, 36.2862], [-86.0421, 36.2886], [-86.0469, 36.2935], [-86.0467, 36.3065], [-86.0486, 36.3072], [-86.0542, 36.312], [-86.0592, 36.3136], [-86.0678, 36.3105], [-86.0696, 36.3084], [-86.0707, 36.3046], [-86.0676, 36.301], [-86.055, 36.2941], [-86.0533, 36.2904], [-86.0536, 36.2873], [-86.0597, 36.2811], [-86.0644, 36.2699], [-86.0716, 36.2644], [-86.0742, 36.2636], [-86.0771, 36.2641], [-86.0812, 36.2664], [-86.0879, 36.2734], [-86.0953, 36.2874], [-86.0965, 36.2944], [-86.0952, 36.2976], [-86.0895, 36.305], [-86.0804, 36.3109], [-86.0683, 36.3254], [-86.0666, 36.3293], [-86.0664, 36.3325], [-86.0672, 36.3352], [-86.0698, 36.3391], [-86.0799, 36.3428], [-86.0996, 36.3421], [-86.1072, 36.345], [-86.1248, 36.3475], [-86.132, 36.3493], [-86.1506, 36.3491], [-86.1555, 36.3501], [-86.1576, 36.3514], [-86.1605, 36.3588], [-86.1676, 36.3717], [-86.1691, 36.3729], [-86.1781, 36.3741], [-86.183, 36.372], [-86.185, 36.3662], [-86.1839, 36.3616], [-86.1839, 36.3491], [-86.1784, 36.3346], [-86.1769, 36.3277], [-86.1818, 36.3216], [-86.1843, 36.3202], [-86.1866, 36.32], [-86.1971, 36.327], [-86.2034, 36.3328], [-86.2054, 36.3356], [-86.2062, 36.3391], [-86.2053, 36.3529], [-86.2082, 36.3625], [-86.2082, 36.3718], [-86.2107, 36.3756], [-86.2144, 36.3771], [-86.2233, 36.3748], [-86.2243, 36.372], [-86.223, 36.3608], [-86.2237, 36.3579], [-86.2347, 36.346], [-86.2462, 36.3357], [-86.2491, 36.3282], [-86.2483, 36.3209], [-86.2489, 36.3086], [-86.2521, 36.3044], [-86.259, 36.301], [-86.265, 36.3008], [-86.2728, 36.3101], [-86.2714, 36.3164], [-86.2669, 36.3223], [-86.2638, 36.3295], [-86.2649, 36.3371], [-86.2689, 36.3455], [-86.2725, 36.3485], [-86.2772, 36.3496], [-86.2858, 36.3477], [-86.2889, 36.3463], [-86.2961, 36.3384], [-86.2972, 36.3353], [-86.2978, 36.321], [-86.2994, 36.3154], [-86.3009, 36.3132], [-86.3064, 36.3139], [-86.3189, 36.3178], [-86.3326, 36.3199], [-86.3421, 36.3167], [-86.3492, 36.3128], [-86.357, 36.3098], [-86.3607, 36.3101], [-86.3618, 36.313], [-86.3597, 36.3164], [-86.3576, 36.3184], [-86.3502, 36.322], [-86.3452, 36.3274], [-86.345, 36.3381], [-86.346, 36.3449], [-86.3493, 36.3508], [-86.3587, 36.3571], [-86.3654, 36.3591], [-86.372, 36.3564], [-86.3779, 36.3512], [-86.387, 36.3383], [-86.3913, 36.3244], [-86.3899, 36.3188], [-86.3901, 36.3149], [-86.3909, 36.3136], [-86.3904, 36.3123], [-86.3919, 36.3096], [-86.3952, 36.3075], [-86.3995, 36.3066], [-86.4052, 36.307], [-86.4115, 36.3116], [-86.4143, 36.3167], [-86.415, 36.3199], [-86.4176, 36.3207], [-86.418, 36.3233], [-86.4167, 36.3261], [-86.417, 36.3304], [-86.4177, 36.3328], [-86.4194, 36.3344], [-86.4265, 36.3385], [-86.433, 36.3408], [-86.4455, 36.3398], [-86.4463, 36.3396], [-86.4453, 36.339], [-86.4468, 36.3392], [-86.4481, 36.3377], [-86.4592, 36.3331], [-86.4761, 36.3213], [-86.49, 36.3135], [-86.4977, 36.3109], [-86.4932, 36.3137], [-86.4948, 36.3155], [-86.4968, 36.3146], [-86.5016, 36.3104], [-86.5044, 36.3064], [-86.5102, 36.3033], [-86.5131, 36.3006], [-86.5175, 36.2854], [-86.5194, 36.2816], [-86.5222, 36.2787], [-86.5262, 36.2794], [-86.5255, 36.2802], [-86.5258, 36.2815], [-86.5291, 36.2814], [-86.5346, 36.2873], [-86.5373, 36.2927], [-86.5364, 36.2954], [-86.537, 36.2978], [-86.5374, 36.2964], [-86.5367, 36.2954], [-86.5378, 36.293], [-86.5389, 36.2998], [-86.5382, 36.3019], [-86.539, 36.3026], [-86.5386, 36.3093], [-86.5395, 36.3154], [-86.5391, 36.3158], [-86.5385, 36.3149], [-86.5372, 36.3108], [-86.5376, 36.3035], [-86.5365, 36.3037], [-86.5362, 36.3048], [-86.5359, 36.3037], [-86.5375, 36.3017], [-86.5377, 36.2992], [-86.5351, 36.3066], [-86.5355, 36.3085], [-86.536, 36.3053], [-86.5368, 36.3064], [-86.5364, 36.3095], [-86.5371, 36.3156], [-86.5341, 36.3124], [-86.5347, 36.3121], [-86.5351, 36.3131], [-86.5355, 36.3122], [-86.5345, 36.3095], [-86.5347, 36.3074], [-86.5324, 36.3104], [-86.5326, 36.3138], [-86.5346, 36.3165], [-86.5339, 36.3176], [-86.5369, 36.3205], [-86.5415, 36.3223], [-86.5441, 36.3213], [-86.5453, 36.3218], [-86.5509, 36.3208], [-86.555, 36.3187], [-86.5664, 36.3059], [-86.5648, 36.301], [-86.5645, 36.2964], [-86.565, 36.2962], [-86.5653, 36.2989], [-86.5662, 36.296], [-86.5687, 36.2936], [-86.5697, 36.2974], [-86.5685, 36.2999], [-86.5708, 36.3002], [-86.5728, 36.299], [-86.5718, 36.2949], [-86.5684, 36.2884], [-86.5694, 36.2864], [-86.5678, 36.2849], [-86.5675, 36.2821], [-86.57, 36.2799], [-86.5685, 36.2765], [-86.5693, 36.272], [-86.5716, 36.2669], [-86.5743, 36.2635], [-86.578, 36.2601], [-86.5906, 36.2515], [-86.6015, 36.2477], [-86.6113, 36.248], [-86.6208, 36.2509]], [[-86.1751, 36.373], [-86.1752, 36.373], [-86.1752, 36.373], [-86.1751, 36.373]], [[-86.1752, 36.373], [-86.1753, 36.373], [-86.1752, 36.373], [-86.1752, 36.373]], [[-86.4369, 36.3394], [-86.4369, 36.3394], [-86.437, 36.3394], [-86.4369, 36.3394]], [[-86.4373, 36.3402], [-86.4374, 36.3402], [-86.4374, 36.3402], [-86.4373, 36.3402]], [[-86.4372, 36.3393], [-86.4372, 36.3394], [-86.4371, 36.3394], [-86.4372, 36.3393]], [[-86.3899, 36.3156], [-86.39, 36.3156], [-86.39, 36.3156], [-86.3899, 36.3156]], [[-86.2632, 36.3002], [-86.2635, 36.3002], [-86.2632, 36.3002], [-86.2632, 36.3002]], [[-86.2221, 36.3657], [-86.2224, 36.3672], [-86.2222, 36.3674], [-86.2221, 36.3657]], [[-86.0836, 36.2667], [-86.0863, 36.2681], [-86.0863, 36.2702], [-86.0836, 36.2667]], [[-86.2101, 36.3691], [-86.2123, 36.3739], [-86.2145, 36.3763], [-86.2103, 36.3741], [-86.2092, 36.3716], [-86.2101, 36.3691]], [[-86.2721, 36.3183], [-86.2729, 36.3185], [-86.2712, 36.3227], [-86.2669, 36.3261], [-86.2683, 36.3227], [-86.2721, 36.3183]], [[-86.0481, 36.2972], [-86.0498, 36.3006], [-86.0494, 36.3069], [-86.0477, 36.3064], [-86.0471, 36.3051], [-86.0475, 36.2986], [-86.0481, 36.2972]], [[-86.3572, 36.3202], [-86.3575, 36.3207], [-86.3544, 36.3239], [-86.3472, 36.3273], [-86.3501, 36.3237], [-86.3572, 36.3202]]]}, "properties": {"OBJECTID": 1990, "Depth_Area_Value_1": "2.74", "Depth_Area_Value_2": "Unknown", "Source_Date": "20141101", "Source_Indication": "US,U3,SURVY,2014_SEAS_Multibeam_Hydro_Survey", "Source_Dataset": "U37CR221.000", "Feature_ID": "U3 1617860793 00001"}}]}