{"type": "FeatureCollection", "features": [{"type": "Feature", "id": 1098, "geometry": {"type": "Point", "coordinates": [-86.5633, 36.2713]}, "properties": {"OBJECTID": 1098, "Category_of_Distance_Mark": "Distance Mark Not Physically Installed", "Horizontal_Units": "Statute Miles", "Waterway_Distance": 225, "Information": "Cumberland (CR)", "Scale_Minimum": 120000, "Source_Date": "20040930", "Source_Indication": "US,U3,USACE,LRN_GIS", "Source_Dataset": "U37CR221.000", "Feature_ID": "U3 1392980121 00001"}}, {"type": "Feature", "id": 1099, "geometry": {"type": "Point", "coordinates": [-86.5712, 36.2599]}, "properties": {"OBJECTID": 1099, "Category_of_Distance_Mark": "Distance Mark Not Physically Installed", "Horizontal_Units": "Statute Miles", "Waterway_Distance": 224, "Information": "Cumberland (CR)", "Scale_Minimum": 120000, "Source_Date": "20040930", "Source_Indication": "US,U3,USACE,LRN_GIS", "Source_Dataset": "U37CR221.000", "Feature_ID": "U3 1392980122 00001"}}, {"type": "Feature", "id": 1100, "geometry": {"type": "Point", "coordinates": [-86.5593, 36.2853]}, "properties": {"OBJECTID": 1100, "Category_of_Distance_Mark": "Distance Mark Not Physically Installed", "Horizontal_Units": "Statute Miles", "Waterway_Distance": 226, "Information": "Cumberland (CR)", "Scale_Minimum": 120000, "Source_Date": "20040930", "Source_Indication": "US,U3,USACE,LRN_GIS", "Source_Dataset": "U37CR221.000", "Feature_ID": "U3 1392980123 00001"}}, {"type": "Feature", "id": 1101, "geometry": {"type": "Point", "coordinates": [-86.6011, 36.2445]}, "properties": {"OBJECTID": 1101, "Category_of_Distance_Mark": "Distance Mark Not Physically Installed", "Horizontal_Units": "Statute Miles", "Waterway_Distance": 222, "Information": "Cumberland (CR)", "Scale_Minimum": 120000, "Source_Date": "20040930", "Source_Indication": "US,U3,USACE,LRN_GIS", "Source_Dataset": "U37CR221.000", "Feature_ID": "U3 1392980124 00001"}}, {"type": "Feature", "id": 1102, "geometry": {"type": "Point", "coordinates": [-86.5642, 36.2999]}, "properties": {"OBJECTID": 1102, "Category_of_Distance_Mark": "Distance Mark Not Physically Installed", "Horizontal_Units": "Statute Miles", "Waterway_Distance": 227, "Information": "Cumberland (CR)", "Scale_Minimum": 120000, "Source_Date": "20040930", "Source_Indication": "US,U3,USACE,LRN_GIS", "Source_Dataset": "U37CR221.000", "Feature_ID": "U3 1392980125 00001"}}, {"type": "Feature", "id": 1103, "geometry": {"type": "Point", "coordinates": [-86.5401, 36.31]}, "properties": {"OBJECTID": 1103, "Category_of_Distance_Mark": "Distance Mark Not Physically Installed", "Horizontal_Units": "Statute Miles", "Waterway_Distance": 230, "Information": "Cumberland (CR)", "Scale_Minimum": 120000, "Source_Date": "20040930", "Source_Indication": "US,U3,USACE,LRN_GIS", "Source_Dataset": "U37CR221.000", "Feature_ID": "U3 1392980126 00001"}}, {"type": "Feature", "id": 1105, "geometry": {"type": "Point", "coordinates": [-86.5397, 36.2955]}, "properties": {"OBJECTID": 1105, "Category_of_Distance_Mark": "Distance Mark Not Physically Installed", "Horizontal_Units": "Statute Miles", "Waterway_Distance": 231, "Information": "Cumberland (CR)", "Scale_Minimum": 120000, "Source_Date": "20040930", "Source_Indication": "US,U3,USACE,LRN_GIS", "Source_Dataset": "U37CR221.000", "Feature_ID": "U3 1392980128 00001"}}, {"type": "Feature", "id": 1106, "geometry": {"type": "Point", "coordinates": [-86.5318, 36.2831]}, "properties": {"OBJECTID": 1106, "Category_of_Distance_Mark": "Distance Mark Not Physically Installed", "Horizontal_Units": "Statute Miles", "Waterway_Distance": 232, "Information": "Cumberland (CR)", "Scale_Minimum": 120000, "Source_Date": "20040930", "Source_Indication": "US,U3,USACE,LRN_GIS", "Source_Dataset": "U37CR221.000", "Feature_ID": "U3 1392980129 00001"}}, {"type": "Feature", "id": 1107, "geometry": {"type": "Point", "coordinates": [-86.6174, 36.2464]}, "properties": {"OBJECTID": 1107, "Category_of_Distance_Mark": "Distance Mark Not Physically Installed", "Horizontal_Units": "Statute Miles", "Waterway_Distance": 221, "Information": "Cumberland (CR)", "Scale_Minimum": 120000, "Source_Date": "20040930", "Source_Indication": "US,U3,USACE,LRN_GIS", "Source_Dataset": "U37CR221.000", "Feature_ID": "U3 1392980130 00001"}}, {"type": "Feature", "id": 1108, "geometry": {"type": "Point", "coordinates": [-86.5844, 36.2486]}, "properties": {"OBJECTID": 1108, "Category_of_Distance_Mark": "Distance Mark Not Physically Installed", "Horizontal_Units": "Statute Miles", "Waterway_Distance": 223, "Information": "Cumberland (CR)", "Scale_Minimum": 120000, "Source_Date": "20040930", "Source_Indication": "US,U3,USACE,LRN_GIS", "Source_Dataset": "U37CR221.000", "Feature_ID": "U3 1392980131 00001"}}, {"type": "Feature", "id": 1111, "geometry": {"type": "Point", "coordinates": [-86.5594, 36.3124]}, "properties": {"OBJECTID": 1111, "Category_of_Distance_Mark": "Distance Mark Not Physically Installed", "Horizontal_Units": "Statute Miles", "Waterway_Distance": 228, "Information": "Cumberland (CR)", "Scale_Minimum": 120000, "Source_Date": "20040930", "Source_Indication": "US,U3,USACE,LRN_GIS", "Source_Dataset": "U37CR221.000", "Feature_ID": "U3 1392980134 00001"}}, {"type": "Feature", "id": 1112, "geometry": {"type": "Point", "coordinates": [-86.5474, 36.321]}, "properties": {"OBJECTID": 1112, "Category_of_Distance_Mark": "Distance Mark Not Physically Installed", "Horizontal_Units": "Statute Miles", "Waterway_Distance": 229, "Information": "Cumberland (CR)", "Scale_Minimum": 120000, "Source_Date": "20040930", "Source_Indication": "US,U3,USACE,LRN_GIS", "Source_Dataset": "U37CR221.000", "Feature_ID": "U3 1392980135 00001"}}, {"type": "Feature", "id": 1116, "geometry": {"type": "Point", "coordinates": [-86.4896, 36.3129]}, "properties": {"OBJECTID": 1116, "Category_of_Distance_Mark": "Distance Mark Not Physically Installed", "Horizontal_Units": "Statute Miles", "Waterway_Distance": 236, "Information": "Cumberland (CR)", "Scale_Minimum": 120000, "Source_Date": "20040930", "Source_Indication": "US,U3,USACE,LRN_GIS", "Source_Dataset": "U37CR221.000", "Feature_ID": "U3 1392980141 00001"}}, {"type": "Feature", "id": 1117, "geometry": {"type": "Point", "coordinates": [-86.5041, 36.3062]}, "properties": {"OBJECTID": 1117, "Category_of_Distance_Mark": "Distance Mark Not Physically Installed", "Horizontal_Units": "Statute Miles", "Waterway_Distance": 235, "Information": "Cumberland (CR)", "Scale_Minimum": 120000, "Source_Date": "20040930", "Source_Indication": "US,U3,USACE,LRN_GIS", "Source_Dataset": "U37CR221.000", "Feature_ID": "U3 1392980142 00001"}}, {"type": "Feature", "id": 1118, "geometry": {"type": "Point", "coordinates": [-86.4741, 36.3218]}, "properties": {"OBJECTID": 1118, "Category_of_Distance_Mark": "Distance Mark Not Physically Installed", "Horizontal_Units": "Statute Miles", "Waterway_Distance": 237, "Information": "Cumberland (CR)", "Scale_Minimum": 120000, "Source_Date": "20040930", "Source_Indication": "US,U3,USACE,LRN_GIS", "Source_Dataset": "U37CR221.000", "Feature_ID": "U3 1392980143 00001"}}, {"type": "Feature", "id": 1119, "geometry": {"type": "Point", "coordinates": [-86.4608, 36.3313]}, "properties": {"OBJECTID": 1119, "Category_of_Distance_Mark": "Distance Mark Not Physically Installed", "Horizontal_Units": "Statute Miles", "Waterway_Distance": 238, "Information": "Cumberland (CR)", "Scale_Minimum": 120000, "Source_Date": "20040930", "Source_Indication": "US,U3,USACE,LRN_GIS", "Source_Dataset": "U37CR221.000", "Feature_ID": "U3 1392980144 00001"}}, {"type": "Feature", "id": 1120, "geometry": {"type": "Point", "coordinates": [-86.4445, 36.3377]}, "properties": {"OBJECTID": 1120, "Category_of_Distance_Mark": "Distance Mark Not Physically Installed", "Horizontal_Units": "Statute Miles", "Waterway_Distance": 239, "Information": "Cumberland (CR)", "Scale_Minimum": 120000, "Source_Date": "20040930", "Source_Indication": "US,U3,USACE,LRN_GIS", "Source_Dataset": "U37CR221.000", "Feature_ID": "U3 1392980145 00001"}}, {"type": "Feature", "id": 1122, "geometry": {"type": "Point", "coordinates": [-86.5189, 36.2813]}, "properties": {"OBJECTID": 1122, "Category_of_Distance_Mark": "Distance Mark Not Physically Installed", "Horizontal_Units": "Statute Miles", "Waterway_Distance": 233, "Information": "Cumberland (CR)", "Scale_Minimum": 120000, "Source_Date": "20040930", "Source_Indication": "US,U3,USACE,LRN_GIS", "Source_Dataset": "U37CR221.000", "Feature_ID": "U3 1392980147 00001"}}, {"type": "Feature", "id": 1130, "geometry": {"type": "Point", "coordinates": [-86.514, 36.2948]}, "properties": {"OBJECTID": 1130, "Category_of_Distance_Mark": "Distance Mark Not Physically Installed", "Horizontal_Units": "Statute Miles", "Waterway_Distance": 234, "Information": "Cumberland (CR)", "Scale_Minimum": 120000, "Source_Date": "20040930", "Source_Indication": "US,U3,USACE,LRN_GIS", "Source_Dataset": "U37CR221.000", "Feature_ID": "U3 1392980155 00001"}}]}