{"type": "FeatureCollection", "features": [{"type": "Feature", "id": 23, "geometry": {"type": "Polygon", "coordinates": [[[-86.6461, 36.2976], [-86.6461, 36.299], [-86.6469, 36.2989], [-86.6477, 36.2962], [-86.6443, 36.2973], [-86.6461, 36.2976]]]}, "properties": {"OBJECTID": 23, "Category_of_Harbour_Facility": "Yacht Harbor/Marina", "Object_Name": "Anchor High Marina", "Information": "", "Scale_Minimum": 60000, "Source_Date": "20050408", "Source_Indication": "US,U3,USACE,LRN_GIS_Data", "Source_Dataset": "U37CR149.000", "Feature_ID": "U3 1392973272 00001"}}, {"type": "Feature", "id": 24, "geometry": {"type": "Polygon", "coordinates": [[[-86.6377, 36.2526], [-86.639, 36.251], [-86.6386, 36.2519], [-86.6365, 36.2499], [-86.6357, 36.2511], [-86.6377, 36.2526]]]}, "properties": {"OBJECTID": 24, "Category_of_Harbour_Facility": "Yacht Harbor/Marina", "Object_Name": "Lakewood Marina", "Information": "", "Scale_Minimum": 60000, "Source_Date": "20050408", "Source_Indication": "US,U3,USACE,LRN_GIS_Data", "Source_Dataset": "U37CR149.000", "Feature_ID": "U3 1392973063 00001"}}, {"type": "Feature", "id": 25, "geometry": {"type": "Polygon", "coordinates": [[[-86.6394, 36.2528], [-86.6407, 36.2525], [-86.6414, 36.2508], [-86.6399, 36.2517], [-86.6392, 36.2514], [-86.6394, 36.2528]]]}, "properties": {"OBJECTID": 25, "Category_of_Harbour_Facility": "Yacht Harbor/Marina", "Object_Name": "Old Hickory Boat Dock and Marina", "Information": "", "Scale_Minimum": 60000, "Source_Date": "20050408", "Source_Indication": "US,U3,USACE,LRN_GIS_Data", "Source_Dataset": "U37CR149.000", "Feature_ID": "U3 1392973073 00001"}}, {"type": "Feature", "id": 26, "geometry": {"type": "Polygon", "coordinates": [[[-86.6085, 36.287], [-86.6072, 36.2847], [-86.6053, 36.2857], [-86.6069, 36.2878], [-86.6085, 36.287]]]}, "properties": {"OBJECTID": 26, "Category_of_Harbour_Facility": "Yacht Harbor/Marina", "Object_Name": "Creekwood Marina", "Information": "", "Scale_Minimum": 60000, "Source_Date": "20050412", "Source_Indication": "US,U3,USACE,LRN_GIS", "Source_Dataset": "U37CR221.000", "Feature_ID": "U3 1392981115 00001"}}, {"type": "Feature", "id": 27, "geometry": {"type": "Polygon", "coordinates": [[[-86.6082, 36.2617], [-86.609, 36.2596], [-86.6063, 36.2608], [-86.6068, 36.2625], [-86.6082, 36.2617]]]}, "properties": {"OBJECTID": 27, "Category_of_Harbour_Facility": "Yacht Harbor/Marina", "Object_Name": "Drake's Creek Marina", "Information": "", "Scale_Minimum": 60000, "Source_Date": "20050412", "Source_Indication": "US,U3,USACE,LRN_GIS", "Source_Dataset": "U37CR221.000", "Feature_ID": "U3 1392981117 00001"}}, {"type": "Feature", "id": 28, "geometry": {"type": "Polygon", "coordinates": [[[-86.5047, 36.2796], [-86.5025, 36.281], [-86.5049, 36.2812], [-86.5056, 36.28], [-86.5047, 36.2796]]]}, "properties": {"OBJECTID": 28, "Category_of_Harbour_Facility": "Yacht Harbor/Marina", "Object_Name": "Cedar Creek Club", "Information": "", "Scale_Minimum": 60000, "Source_Date": "20050412", "Source_Indication": "US,U3,USACE,LRN_GIS", "Source_Dataset": "U37CR221.000", "Feature_ID": "U3 1392981228 00001"}}, {"type": "Feature", "id": 29, "geometry": {"type": "Polygon", "coordinates": [[[-86.5111, 36.274], [-86.5117, 36.2729], [-86.5101, 36.2723], [-86.5099, 36.2744], [-86.5113, 36.2746], [-86.5111, 36.274]]]}, "properties": {"OBJECTID": 29, "Category_of_Harbour_Facility": "Yacht Harbor/Marina", "Object_Name": "Cedar Creek Boat Dock", "Information": "", "Scale_Minimum": 60000, "Source_Date": "20050412", "Source_Indication": "US,U3,USACE,LRN_GIS", "Source_Dataset": "U37CR221.000", "Feature_ID": "U3 1392981229 00001"}}, {"type": "Feature", "id": 30, "geometry": {"type": "Polygon", "coordinates": [[[-86.4774, 36.3465], [-86.4765, 36.3479], [-86.4749, 36.3478], [-86.4759, 36.3486], [-86.4747, 36.3496], [-86.4788, 36.3474], [-86.4774, 36.3465]]]}, "properties": {"OBJECTID": 30, "Category_of_Harbour_Facility": "Yacht Harbor/Marina", "Object_Name": "Gallatin Marina", "Information": "", "Scale_Minimum": 60000, "Source_Date": "20050412", "Source_Indication": "US,U3,USACE,LRN_GIS", "Source_Dataset": "U37CR221.000", "Feature_ID": "U3 1392981234 00001"}}, {"type": "Feature", "id": 31, "geometry": {"type": "Polygon", "coordinates": [[[-86.5652, 36.2533], [-86.563, 36.2531], [-86.5624, 36.2539], [-86.5629, 36.2549], [-86.5662, 36.256], [-86.566, 36.254], [-86.5652, 36.2533]]]}, "properties": {"OBJECTID": 31, "Category_of_Harbour_Facility": "Yacht Harbor/Marina", "Object_Name": "Harbor Island Yacht Club", "Information": "", "Scale_Minimum": 60000, "Source_Date": "20050412", "Source_Indication": "US,U3,USACE,LRN_GIS", "Source_Dataset": "U37CR221.000", "Feature_ID": "U3 1392981452 00001"}}]}