{"type": "FeatureCollection", "features": [{"type": "Feature", "id": 46, "geometry": {"type": "Point", "coordinates": [-86.67418309999994, 36.20655400000004]}, "properties": {"OBJECTID": 46, "Category_of_Landmark": "Tower", "Visually_Conspicuous": "Visually Conspicuous", "Object_Name": "", "Function": "", "Height": "", "Information": "Antenna", "Scale_Minimum": 60000, "Source_Date": "20050408", "Source_Indication": "US,U3,USACE,LRN_GIS_Data", "Source_Dataset": "U37CR149.000", "Feature_ID": "U3 1392978514 00001"}}, {"type": "Feature", "id": 54, "geometry": {"type": "Point", "coordinates": [-86.66410399999995, 36.22745100000003]}, "properties": {"OBJECTID": 54, "Category_of_Landmark": "Tower", "Visually_Conspicuous": "Visually Conspicuous", "Object_Name": "", "Function": "", "Height": "", "Information": "Antenna", "Scale_Minimum": 60000, "Source_Date": "20050408", "Source_Indication": "US,U3,USACE,LRN_GIS_Data", "Source_Dataset": "U37CR149.000", "Feature_ID": "U3 1392978540 00001"}}, {"type": "Feature", "id": 56, "geometry": {"type": "Point", "coordinates": [-86.65875269999998, 36.29484260000004]}, "properties": {"OBJECTID": 56, "Category_of_Landmark": "Tower", "Visually_Conspicuous": "Visually Conspicuous", "Object_Name": "", "Function": "", "Height": "", "Information": "Antenna", "Scale_Minimum": 60000, "Source_Date": "20050408", "Source_Indication": "US,U3,USACE,LRN_GIS_Data", "Source_Dataset": "U37CR149.000", "Feature_ID": "U3 1392978674 00001"}}, {"type": "Feature", "id": 58, "geometry": {"type": "Point", "coordinates": [-86.67700519999994, 36.262838300000055]}, "properties": {"OBJECTID": 58, "Category_of_Landmark": "Tower", "Visually_Conspicuous": "Visually Conspicuous", "Object_Name": "", "Function": "", "Height": "", "Information": "Antenna", "Scale_Minimum": 60000, "Source_Date": "20050408", "Source_Indication": "US,U3,USACE,LRN_GIS_Data", "Source_Dataset": "U37CR149.000", "Feature_ID": "U3 1392978858 00001"}}, {"type": "Feature", "id": 60, "geometry": {"type": "Point", "coordinates": [-86.65354649999995, 36.297641800000065]}, "properties": {"OBJECTID": 60, "Category_of_Landmark": "Tower", "Visually_Conspicuous": "Visually Conspicuous", "Object_Name": "", "Function": "", "Height": "", "Information": "Antenna", "Scale_Minimum": 60000, "Source_Date": "20050408", "Source_Indication": "US,U3,USACE,LRN_GIS_Data", "Source_Dataset": "U37CR149.000", "Feature_ID": "U3 1392978856 00001"}}, {"type": "Feature", "id": 63, "geometry": {"type": "Point", "coordinates": [-86.67345479999994, 36.206895200000076]}, "properties": {"OBJECTID": 63, "Category_of_Landmark": "Tower", "Visually_Conspicuous": "Visually Conspicuous", "Object_Name": "", "Function": "", "Height": "", "Information": "Antenna", "Scale_Minimum": 60000, "Source_Date": "20050408", "Source_Indication": "US,U3,USACE,LRN_GIS_Data", "Source_Dataset": "U37CR149.000", "Feature_ID": "U3 1392978867 00001"}}, {"type": "Feature", "id": 65, "geometry": {"type": "Point", "coordinates": [-86.66502369999995, 36.27034320000007]}, "properties": {"OBJECTID": 65, "Category_of_Landmark": "Tower", "Visually_Conspicuous": "Visually Conspicuous", "Object_Name": "", "Function": "", "Height": "", "Information": "Antenna", "Scale_Minimum": 60000, "Source_Date": "20050408", "Source_Indication": "US,U3,USACE,LRN_GIS_Data", "Source_Dataset": "U37CR149.000", "Feature_ID": "U3 1392978920 00001"}}, {"type": "Feature", "id": 76, "geometry": {"type": "Point", "coordinates": [-86.65847949999994, 36.29426010000003]}, "properties": {"OBJECTID": 76, "Category_of_Landmark": "Tower", "Visually_Conspicuous": "Visually Conspicuous", "Object_Name": "", "Function": "", "Height": "", "Information": "Antenna", "Scale_Minimum": 60000, "Source_Date": "20050408", "Source_Indication": "US,U3,USACE,LRN_GIS_Data", "Source_Dataset": "U37CR149.000", "Feature_ID": "U3 1392978945 00001"}}, {"type": "Feature", "id": 77, "geometry": {"type": "Point", "coordinates": [-86.65878279999998, 36.29524420000007]}, "properties": {"OBJECTID": 77, "Category_of_Landmark": "Tower", "Visually_Conspicuous": "Visually Conspicuous", "Object_Name": "", "Function": "", "Height": "", "Information": "Antenna", "Scale_Minimum": 60000, "Source_Date": "20050408", "Source_Indication": "US,U3,USACE,LRN_GIS_Data", "Source_Dataset": "U37CR149.000", "Feature_ID": "U3 1392978944 00001"}}, {"type": "Feature", "id": 85, "geometry": {"type": "Point", "coordinates": [-86.67290659999998, 36.20746260000004]}, "properties": {"OBJECTID": 85, "Category_of_Landmark": "Tower", "Visually_Conspicuous": "Visually Conspicuous", "Object_Name": "", "Function": "", "Height": "", "Information": "Antenna", "Scale_Minimum": 60000, "Source_Date": "20050408", "Source_Indication": "US,U3,USACE,LRN_GIS_Data", "Source_Dataset": "U37CR149.000", "Feature_ID": "U3 1392978760 00001"}}, {"type": "Feature", "id": 87, "geometry": {"type": "Point", "coordinates": [-86.65799819999995, 36.294913500000064]}, "properties": {"OBJECTID": 87, "Category_of_Landmark": "Tower", "Visually_Conspicuous": "Visually Conspicuous", "Object_Name": "", "Function": "", "Height": "", "Information": "Antenna", "Scale_Minimum": 60000, "Source_Date": "20050408", "Source_Indication": "US,U3,USACE,LRN_GIS_Data", "Source_Dataset": "U37CR149.000", "Feature_ID": "U3 1392978770 00001"}}, {"type": "Feature", "id": 89, "geometry": {"type": "Point", "coordinates": [-86.66898069999996, 36.23696210000003]}, "properties": {"OBJECTID": 89, "Category_of_Landmark": "Tower", "Visually_Conspicuous": "Visually Conspicuous", "Object_Name": "", "Function": "", "Height": "", "Information": "Antenna", "Scale_Minimum": 60000, "Source_Date": "20050408", "Source_Indication": "US,U3,USACE,LRN_GIS_Data", "Source_Dataset": "U37CR149.000", "Feature_ID": "U3 1392978785 00001"}}, {"type": "Feature", "id": 96, "geometry": {"type": "Point", "coordinates": [-86.60092079999998, 36.23125750000003]}, "properties": {"OBJECTID": 96, "Category_of_Landmark": "Tower", "Visually_Conspicuous": "Visually Conspicuous", "Object_Name": "Antenna", "Function": "", "Height": "", "Information": "", "Scale_Minimum": 60000, "Source_Date": "20050412", "Source_Indication": "US,U3,USACE,LRN_GIS", "Source_Dataset": "U37CR221.000", "Feature_ID": "U3 1392980000 00001"}}, {"type": "Feature", "id": 97, "geometry": {"type": "Point", "coordinates": [-86.25750319999997, 36.29344660000004]}, "properties": {"OBJECTID": 97, "Category_of_Landmark": "Tower", "Visually_Conspicuous": "Visually Conspicuous", "Object_Name": "Antenna", "Function": "", "Height": "", "Information": "", "Scale_Minimum": 60000, "Source_Date": "20050412", "Source_Indication": "US,U3,USACE,LRN_GIS", "Source_Dataset": "U37CR221.000", "Feature_ID": "U3 1392980001 00001"}}, {"type": "Feature", "id": 98, "geometry": {"type": "Point", "coordinates": [-86.08273009999994, 36.35077540000003]}, "properties": {"OBJECTID": 98, "Category_of_Landmark": "Chimney", "Visually_Conspicuous": "Visually Conspicuous", "Object_Name": "", "Function": "", "Height": "", "Information": "", "Scale_Minimum": 60000, "Source_Date": "20050412", "Source_Indication": "US,U3,USACE,LRN_GIS", "Source_Dataset": "U37CR221.000", "Feature_ID": "U3 1392980020 00001"}}, {"type": "Feature", "id": 99, "geometry": {"type": "Point", "coordinates": [-86.51770169999998, 36.34196650000007]}, "properties": {"OBJECTID": 99, "Category_of_Landmark": "Tower", "Visually_Conspicuous": "Visually Conspicuous", "Object_Name": "Antenna", "Function": "", "Height": "", "Information": "", "Scale_Minimum": 60000, "Source_Date": "20050412", "Source_Indication": "US,U3,USACE,LRN_GIS", "Source_Dataset": "U37CR221.000", "Feature_ID": "U3 1392980047 00001"}}, {"type": "Feature", "id": 100, "geometry": {"type": "Point", "coordinates": [-86.40102039999994, 36.31514930000003]}, "properties": {"OBJECTID": 100, "Category_of_Landmark": "Chimney", "Visually_Conspicuous": "Visually Conspicuous", "Object_Name": "", "Function": "", "Height": "", "Information": "", "Scale_Minimum": 60000, "Source_Date": "20050412", "Source_Indication": "US,U3,USACE,LRN_GIS", "Source_Dataset": "U37CR221.000", "Feature_ID": "U3 1392980049 00001"}}, {"type": "Feature", "id": 101, "geometry": {"type": "Point", "coordinates": [-86.58536279999998, 36.27326110000007]}, "properties": {"OBJECTID": 101, "Category_of_Landmark": "Tower", "Visually_Conspicuous": "Visually Conspicuous", "Object_Name": "Antenna", "Function": "", "Height": "", "Information": "", "Scale_Minimum": 60000, "Source_Date": "20050412", "Source_Indication": "US,U3,USACE,LRN_GIS", "Source_Dataset": "U37CR221.000", "Feature_ID": "U3 1392980344 00001"}}, {"type": "Feature", "id": 102, "geometry": {"type": "Point", "coordinates": [-86.08068799999995, 36.35133190000005]}, "properties": {"OBJECTID": 102, "Category_of_Landmark": "Chimney", "Visually_Conspicuous": "Visually Conspicuous", "Object_Name": "", "Function": "", "Height": "", "Information": "", "Scale_Minimum": 60000, "Source_Date": "20050412", "Source_Indication": "US,U3,USACE,LRN_GIS", "Source_Dataset": "U37CR221.000", "Feature_ID": "U3 1392980349 00001"}}, {"type": "Feature", "id": 103, "geometry": {"type": "Point", "coordinates": [-86.49473999999998, 36.316980700000045]}, "properties": {"OBJECTID": 103, "Category_of_Landmark": "Tower", "Visually_Conspicuous": "Visually Conspicuous", "Object_Name": "Antenna", "Function": "", "Height": "", "Information": "", "Scale_Minimum": 60000, "Source_Date": "20050412", "Source_Indication": "US,U3,USACE,LRN_GIS", "Source_Dataset": "U37CR221.000", "Feature_ID": "U3 1392980852 00001"}}, {"type": "Feature", "id": 104, "geometry": {"type": "Point", "coordinates": [-86.40065349999998, 36.315581800000075]}, "properties": {"OBJECTID": 104, "Category_of_Landmark": "Chimney", "Visually_Conspicuous": "Visually Conspicuous", "Object_Name": "", "Function": "", "Height": "", "Information": "", "Scale_Minimum": 60000, "Source_Date": "20050412", "Source_Indication": "US,U3,USACE,LRN_GIS", "Source_Dataset": "U37CR221.000", "Feature_ID": "U3 1392980853 00001"}}, {"type": "Feature", "id": 106, "geometry": {"type": "Point", "coordinates": [-85.92993309999997, 36.265002700000025]}, "properties": {"OBJECTID": 106, "Category_of_Landmark": "Tower", "Visually_Conspicuous": "Visually Conspicuous", "Object_Name": "Antenna", "Function": "", "Height": "", "Information": "", "Scale_Minimum": 60000, "Source_Date": "20050414", "Source_Indication": "US,U3,USACE,LRN_GIS", "Source_Dataset": "U37CR307.000", "Feature_ID": "U3 1392989333 00001"}}, {"type": "Feature", "id": 107, "geometry": {"type": "Point", "coordinates": [-85.94677829999995, 36.29006990000005]}, "properties": {"OBJECTID": 107, "Category_of_Landmark": "Tower", "Visually_Conspicuous": "Visually Conspicuous", "Object_Name": "Antenna", "Function": "", "Height": "", "Information": "", "Scale_Minimum": 60000, "Source_Date": "20050414", "Source_Indication": "US,U3,USACE,LRN_GIS", "Source_Dataset": "U37CR307.000", "Feature_ID": "U3 1392989346 00001"}}, {"type": "Feature", "id": 108, "geometry": {"type": "Point", "coordinates": [-85.94276789999998, 36.285687100000075]}, "properties": {"OBJECTID": 108, "Category_of_Landmark": "Tower", "Visually_Conspicuous": "Visually Conspicuous", "Object_Name": "Antenna", "Function": "", "Height": "", "Information": "", "Scale_Minimum": 60000, "Source_Date": "20050414", "Source_Indication": "US,U3,USACE,LRN_GIS", "Source_Dataset": "U37CR307.000", "Feature_ID": "U3 1392989404 00001"}}, {"type": "Feature", "id": 109, "geometry": {"type": "Point", "coordinates": [-85.95486199999993, 36.25015070000006]}, "properties": {"OBJECTID": 109, "Category_of_Landmark": "Tower", "Visually_Conspicuous": "Visually Conspicuous", "Object_Name": "Antenna", "Function": "", "Height": "", "Information": "", "Scale_Minimum": 60000, "Source_Date": "20050414", "Source_Indication": "US,U3,USACE,LRN_GIS", "Source_Dataset": "U37CR307.000", "Feature_ID": "U3 1392989503 00001"}}]}