{"type": "FeatureCollection", "features": [{"type": "Feature", "id": 212, "geometry": {"type": "Point", "coordinates": [-86.66550599999994, 36.25158760000005]}, "properties": {"OBJECTID": 212, "Category_of_Land_Region": "", "Object_Name": "Hills Island", "Information": "", "Scale_Minimum": 60000, "Source_Date": "20050408", "Source_Indication": "US,U3,USACE,LRN_GIS_Data", "Source_Dataset": "U37CR149.000", "Feature_ID": "U3 1392978703 00001"}}, {"type": "Feature", "id": 213, "geometry": {"type": "Point", "coordinates": [-86.66035249999999, 36.29765580000003]}, "properties": {"OBJECTID": 213, "Category_of_Land_Region": "", "Object_Name": "Old Hickory Lock Arrival Point", "Information": "", "Scale_Minimum": 60000, "Source_Date": "20050408", "Source_Indication": "US,U3,USACE,LRN_GIS_Data", "Source_Dataset": "U37CR149.000", "Feature_ID": "U3 1392978862 00001"}}, {"type": "Feature", "id": 223, "geometry": {"type": "Point", "coordinates": [-86.21934649999997, 36.37374610000006]}, "properties": {"OBJECTID": 223, "Category_of_Land_Region": "", "Object_Name": "Beasleys Bend", "Information": "", "Scale_Minimum": 60000, "Source_Date": "20050412", "Source_Indication": "US,U3,USACE,LRN_GIS", "Source_Dataset": "U37CR221.000", "Feature_ID": "U3 1392979977 00001"}}, {"type": "Feature", "id": 224, "geometry": {"type": "Point", "coordinates": [-86.08127799999994, 36.31435400000004]}, "properties": {"OBJECTID": 224, "Category_of_Land_Region": "", "Object_Name": "Alexander Island", "Information": "", "Scale_Minimum": 60000, "Source_Date": "20190201", "Source_Indication": "US,U3,OTHER,USGS_GNIS_Database", "Source_Dataset": "U37CR221.000", "Feature_ID": "U3 1392979983 00001"}}, {"type": "Feature", "id": 225, "geometry": {"type": "Point", "coordinates": [-86.29918719999995, 36.31841970000005]}, "properties": {"OBJECTID": 225, "Category_of_Land_Region": "", "Object_Name": "Sevenmile Bluff", "Information": "", "Scale_Minimum": 60000, "Source_Date": "20190201", "Source_Indication": "US,U3,OTHER,USGS_GNIS_Database", "Source_Dataset": "U37CR221.000", "Feature_ID": "U3 1392979985 00001"}}, {"type": "Feature", "id": 226, "geometry": {"type": "Point", "coordinates": [-86.30438359999994, 36.31200140000004]}, "properties": {"OBJECTID": 226, "Category_of_Land_Region": "", "Object_Name": "Indian Ladder Bluff", "Information": "", "Scale_Minimum": 60000, "Source_Date": "20050412", "Source_Indication": "US,U3,USACE,LRN_GIS", "Source_Dataset": "U37CR221.000", "Feature_ID": "U3 1392980003 00001"}}, {"type": "Feature", "id": 227, "geometry": {"type": "Point", "coordinates": [-85.96756149999999, 36.26510560000003]}, "properties": {"OBJECTID": 227, "Category_of_Land_Region": "", "Object_Name": "Goodall Island", "Information": "", "Scale_Minimum": 60000, "Source_Date": "20050412", "Source_Indication": "US,U3,USACE,LRN_GIS", "Source_Dataset": "U37CR221.000", "Feature_ID": "U3 1392980009 00001"}}, {"type": "Feature", "id": 228, "geometry": {"type": "Point", "coordinates": [-86.16561239999999, 36.361118300000044]}, "properties": {"OBJECTID": 228, "Category_of_Land_Region": "", "Object_Name": "Goose Creek Bar", "Information": "", "Scale_Minimum": 60000, "Source_Date": "20050412", "Source_Indication": "US,U3,USACE,LRN_GIS", "Source_Dataset": "U37CR221.000", "Feature_ID": "U3 1392980013 00001"}}, {"type": "Feature", "id": 229, "geometry": {"type": "Point", "coordinates": [-86.11794239999995, 36.345363200000065]}, "properties": {"OBJECTID": 229, "Category_of_Land_Region": "", "Object_Name": "Cotton Bar", "Information": "", "Scale_Minimum": 60000, "Source_Date": "20050412", "Source_Indication": "US,U3,USACE,LRN_GIS", "Source_Dataset": "U37CR221.000", "Feature_ID": "U3 1392980018 00001"}}, {"type": "Feature", "id": 230, "geometry": {"type": "Point", "coordinates": [-86.31506599999994, 36.31440870000006]}, "properties": {"OBJECTID": 230, "Category_of_Land_Region": "", "Object_Name": "Belotes Bar", "Information": "", "Scale_Minimum": 60000, "Source_Date": "20050412", "Source_Indication": "US,U3,USACE,LRN_GIS", "Source_Dataset": "U37CR221.000", "Feature_ID": "U3 1392980021 00001"}}, {"type": "Feature", "id": 231, "geometry": {"type": "Point", "coordinates": [-86.32922319999994, 36.31711070000006]}, "properties": {"OBJECTID": 231, "Category_of_Land_Region": "", "Object_Name": "Belotes Bar", "Information": "", "Scale_Minimum": 60000, "Source_Date": "20050412", "Source_Indication": "US,U3,USACE,LRN_GIS", "Source_Dataset": "U37CR221.000", "Feature_ID": "U3 1392980022 00001"}}, {"type": "Feature", "id": 232, "geometry": {"type": "Point", "coordinates": [-86.23687959999995, 36.34094220000003]}, "properties": {"OBJECTID": 232, "Category_of_Land_Region": "", "Object_Name": "Berdine Bar", "Information": "", "Scale_Minimum": 60000, "Source_Date": "20050412", "Source_Indication": "US,U3,USACE,LRN_GIS", "Source_Dataset": "U37CR221.000", "Feature_ID": "U3 1392980025 00001"}}, {"type": "Feature", "id": 233, "geometry": {"type": "Point", "coordinates": [-86.52742809999995, 36.28752970000005]}, "properties": {"OBJECTID": 233, "Category_of_Land_Region": "", "Object_Name": "Cages Bend", "Information": "", "Scale_Minimum": 60000, "Source_Date": "20050412", "Source_Indication": "US,U3,USACE,LRN_GIS", "Source_Dataset": "U37CR221.000", "Feature_ID": "U3 1392980026 00001"}}, {"type": "Feature", "id": 234, "geometry": {"type": "Point", "coordinates": [-86.07219159999994, 36.303373700000066]}, "properties": {"OBJECTID": 234, "Category_of_Land_Region": "", "Object_Name": "Bradleys Bend", "Information": "", "Scale_Minimum": 60000, "Source_Date": "20050412", "Source_Indication": "US,U3,USACE,LRN_GIS", "Source_Dataset": "U37CR221.000", "Feature_ID": "U3 1392980032 00001"}}, {"type": "Feature", "id": 235, "geometry": {"type": "Point", "coordinates": [-86.05017169999996, 36.308788400000026]}, "properties": {"OBJECTID": 235, "Category_of_Land_Region": "", "Object_Name": "Scraunchers Rock Bluff", "Information": "", "Scale_Minimum": 60000, "Source_Date": "20050412", "Source_Indication": "US,U3,USACE,LRN_GIS", "Source_Dataset": "U37CR221.000", "Feature_ID": "U3 1392980046 00001"}}, {"type": "Feature", "id": 236, "geometry": {"type": "Point", "coordinates": [-86.36464579999995, 36.35032190000004]}, "properties": {"OBJECTID": 236, "Category_of_Land_Region": "", "Object_Name": "Cairo Bend", "Information": "", "Scale_Minimum": 60000, "Source_Date": "20050412", "Source_Indication": "US,U3,USACE,LRN_GIS", "Source_Dataset": "U37CR221.000", "Feature_ID": "U3 1392980048 00001"}}, {"type": "Feature", "id": 237, "geometry": {"type": "Point", "coordinates": [-85.99120949999997, 36.26759460000005]}, "properties": {"OBJECTID": 237, "Category_of_Land_Region": "", "Object_Name": "Carters Island", "Information": "", "Scale_Minimum": 60000, "Source_Date": "20050412", "Source_Indication": "US,U3,USACE,LRN_GIS", "Source_Dataset": "U37CR221.000", "Feature_ID": "U3 1392980051 00001"}}, {"type": "Feature", "id": 238, "geometry": {"type": "Point", "coordinates": [-86.26253709999997, 36.30598550000008]}, "properties": {"OBJECTID": 238, "Category_of_Land_Region": "", "Object_Name": "Hunters Point Bend", "Information": "", "Scale_Minimum": 60000, "Source_Date": "20050412", "Source_Indication": "US,U3,USACE,LRN_GIS", "Source_Dataset": "U37CR221.000", "Feature_ID": "U3 1392980053 00001"}}, {"type": "Feature", "id": 239, "geometry": {"type": "Point", "coordinates": [-86.54886559999994, 36.31141880000007]}, "properties": {"OBJECTID": 239, "Category_of_Land_Region": "", "Object_Name": "Lindsley Bend", "Information": "", "Scale_Minimum": 60000, "Source_Date": "20050412", "Source_Indication": "US,U3,USACE,LRN_GIS", "Source_Dataset": "U37CR221.000", "Feature_ID": "U3 1392980056 00001"}}, {"type": "Feature", "id": 240, "geometry": {"type": "Point", "coordinates": [-86.08656809999997, 36.34288280000004]}, "properties": {"OBJECTID": 240, "Category_of_Land_Region": "", "Object_Name": "Dixon Island", "Information": "", "Scale_Minimum": 60000, "Source_Date": "20050412", "Source_Indication": "US,U3,USACE,LRN_GIS", "Source_Dataset": "U37CR221.000", "Feature_ID": "U3 1392980058 00001"}}, {"type": "Feature", "id": 241, "geometry": {"type": "Point", "coordinates": [-86.05706479999998, 36.31114830000007]}, "properties": {"OBJECTID": 241, "Category_of_Land_Region": "", "Object_Name": "Bartletts Bar", "Information": "", "Scale_Minimum": 60000, "Source_Date": "20050412", "Source_Indication": "US,U3,USACE,LRN_GIS", "Source_Dataset": "U37CR221.000", "Feature_ID": "U3 1392980060 00001"}}, {"type": "Feature", "id": 242, "geometry": {"type": "Point", "coordinates": [-86.08534139999995, 36.26851840000006]}, "properties": {"OBJECTID": 242, "Category_of_Land_Region": "", "Object_Name": "Rome Island", "Information": "", "Scale_Minimum": 60000, "Source_Date": "20050412", "Source_Indication": "US,U3,USACE,LRN_GIS", "Source_Dataset": "U37CR221.000", "Feature_ID": "U3 1392980353 00001"}}, {"type": "Feature", "id": 243, "geometry": {"type": "Point", "coordinates": [-86.35270839999998, 36.32346170000005]}, "properties": {"OBJECTID": 243, "Category_of_Land_Region": "", "Object_Name": "Cunningham Island", "Information": "", "Scale_Minimum": 60000, "Source_Date": "20050412", "Source_Indication": "US,U3,USACE,LRN_GIS", "Source_Dataset": "U37CR221.000", "Feature_ID": "U3 1392980358 00001"}}, {"type": "Feature", "id": 244, "geometry": {"type": "Point", "coordinates": [-86.27448959999998, 36.31110060000003]}, "properties": {"OBJECTID": 244, "Category_of_Land_Region": "", "Object_Name": "Hunters Point", "Information": "", "Scale_Minimum": 60000, "Source_Date": "20050412", "Source_Indication": "US,U3,USACE,LRN_GIS", "Source_Dataset": "U37CR221.000", "Feature_ID": "U3 1392980359 00001"}}, {"type": "Feature", "id": 245, "geometry": {"type": "Point", "coordinates": [-86.18595869999996, 36.363503800000046]}, "properties": {"OBJECTID": 245, "Category_of_Land_Region": "", "Object_Name": "Hartsville Island", "Information": "", "Scale_Minimum": 60000, "Source_Date": "20050412", "Source_Indication": "US,U3,USACE,LRN_GIS", "Source_Dataset": "U37CR221.000", "Feature_ID": "U3 1392980363 00001"}}, {"type": "Feature", "id": 246, "geometry": {"type": "Point", "coordinates": [-86.40216569999995, 36.31983280000003]}, "properties": {"OBJECTID": 246, "Category_of_Land_Region": "", "Object_Name": "Odoms Bend", "Information": "", "Scale_Minimum": 60000, "Source_Date": "20050412", "Source_Indication": "US,U3,USACE,LRN_GIS", "Source_Dataset": "U37CR221.000", "Feature_ID": "U3 1392980365 00001"}}, {"type": "Feature", "id": 247, "geometry": {"type": "Point", "coordinates": [-86.24655399999995, 36.32282740000005]}, "properties": {"OBJECTID": 247, "Category_of_Land_Region": "", "Object_Name": "Old Lock & Dam No.5, Mile 264.7 River Lock Wall (Removed)", "Information": "", "Scale_Minimum": 60000, "Source_Date": "20050412", "Source_Indication": "US,U3,USACE,LRN_GIS", "Source_Dataset": "U37CR221.000", "Feature_ID": "U3 1392980802 00001"}}, {"type": "Feature", "id": 248, "geometry": {"type": "Point", "coordinates": [-86.18502479999995, 36.32321540000004]}, "properties": {"OBJECTID": 248, "Category_of_Land_Region": "", "Object_Name": "Puryears Bend", "Information": "", "Scale_Minimum": 60000, "Source_Date": "20050412", "Source_Indication": "US,U3,USACE,LRN_GIS", "Source_Dataset": "U37CR221.000", "Feature_ID": "U3 1392980803 00001"}}, {"type": "Feature", "id": 249, "geometry": {"type": "Point", "coordinates": [-86.06111219999997, 36.297321700000055]}, "properties": {"OBJECTID": 249, "Category_of_Land_Region": "", "Object_Name": "Parkers Island", "Information": "", "Scale_Minimum": 60000, "Source_Date": "20050412", "Source_Indication": "US,U3,USACE,LRN_GIS", "Source_Dataset": "U37CR221.000", "Feature_ID": "U3 1392980815 00001"}}, {"type": "Feature", "id": 250, "geometry": {"type": "Point", "coordinates": [-86.06724889999998, 36.304495400000064]}, "properties": {"OBJECTID": 250, "Category_of_Land_Region": "", "Object_Name": "Kennys Bend", "Information": "", "Scale_Minimum": 60000, "Source_Date": "20050412", "Source_Indication": "US,U3,USACE,LRN_GIS", "Source_Dataset": "U37CR221.000", "Feature_ID": "U3 1392980827 00001"}}, {"type": "Feature", "id": 251, "geometry": {"type": "Point", "coordinates": [-86.03116099999994, 36.28688990000006]}, "properties": {"OBJECTID": 251, "Category_of_Land_Region": "", "Object_Name": "Old Lock & Dam No. 7 (299.7)", "Information": "", "Scale_Minimum": 60000, "Source_Date": "20050412", "Source_Indication": "US,U3,USACE,LRN_GIS", "Source_Dataset": "U37CR221.000", "Feature_ID": "U3 1392980830 00001"}}, {"type": "Feature", "id": 252, "geometry": {"type": "Point", "coordinates": [-86.39151469999996, 36.322456000000045]}, "properties": {"OBJECTID": 252, "Category_of_Land_Region": "", "Object_Name": "Devil's Tea Table", "Information": "", "Scale_Minimum": 60000, "Source_Date": "20050412", "Source_Indication": "US,U3,USACE,LRN_GIS", "Source_Dataset": "U37CR221.000", "Feature_ID": "U3 1392980840 00001"}}, {"type": "Feature", "id": 253, "geometry": {"type": "Point", "coordinates": [-86.26376159999995, 36.32832860000008]}, "properties": {"OBJECTID": 253, "Category_of_Land_Region": "", "Object_Name": "Sevenmile Bluff", "Information": "", "Scale_Minimum": 60000, "Source_Date": "20190201", "Source_Indication": "US,U3,OTHER,USGS_GNIS_Database", "Source_Dataset": "U37CR221.000", "Feature_ID": "U3 1392980841 00001"}}, {"type": "Feature", "id": 254, "geometry": {"type": "Point", "coordinates": [-86.27808859999999, 36.34732050000008]}, "properties": {"OBJECTID": 254, "Category_of_Land_Region": "", "Object_Name": "Lyles Bend", "Information": "", "Scale_Minimum": 60000, "Source_Date": "20050412", "Source_Indication": "US,U3,USACE,LRN_GIS", "Source_Dataset": "U37CR221.000", "Feature_ID": "U3 1392980843 00001"}}, {"type": "Feature", "id": 255, "geometry": {"type": "Point", "coordinates": [-86.21206929999994, 36.37447210000005]}, "properties": {"OBJECTID": 255, "Category_of_Land_Region": "", "Object_Name": "Second Creek Island", "Information": "", "Scale_Minimum": 60000, "Source_Date": "20050412", "Source_Indication": "US,U3,USACE,LRN_GIS", "Source_Dataset": "U37CR221.000", "Feature_ID": "U3 1392980846 00001"}}, {"type": "Feature", "id": 256, "geometry": {"type": "Point", "coordinates": [-86.04849279999996, 36.30219210000007]}, "properties": {"OBJECTID": 256, "Category_of_Land_Region": "", "Object_Name": "Lovells Island", "Information": "", "Scale_Minimum": 60000, "Source_Date": "20050412", "Source_Indication": "US,U3,USACE,LRN_GIS", "Source_Dataset": "U37CR221.000", "Feature_ID": "U3 1392980848 00001"}}, {"type": "Feature", "id": 257, "geometry": {"type": "Point", "coordinates": [-86.26981429999995, 36.32289550000007]}, "properties": {"OBJECTID": 257, "Category_of_Land_Region": "", "Object_Name": "Armstrong Island", "Information": "", "Scale_Minimum": 60000, "Source_Date": "20190201", "Source_Indication": "US,U3,OTHER,USGS_GNIS_Database", "Source_Dataset": "U37CR221.000", "Feature_ID": "U3 1392980854 00001"}}, {"type": "Feature", "id": 258, "geometry": {"type": "Point", "coordinates": [-86.04707769999999, 36.29078990000005]}, "properties": {"OBJECTID": 258, "Category_of_Land_Region": "", "Object_Name": "Blind Island", "Information": "", "Scale_Minimum": 60000, "Source_Date": "20050412", "Source_Indication": "US,U3,USACE,LRN_GIS", "Source_Dataset": "U37CR221.000", "Feature_ID": "U3 1392980868 00001"}}, {"type": "Feature", "id": 259, "geometry": {"type": "Point", "coordinates": [-86.07519489999999, 36.26846770000003]}, "properties": {"OBJECTID": 259, "Category_of_Land_Region": "", "Object_Name": "Beasleys Bend", "Information": "", "Scale_Minimum": 60000, "Source_Date": "20050412", "Source_Indication": "US,U3,USACE,LRN_GIS", "Source_Dataset": "U37CR221.000", "Feature_ID": "U3 1392980871 00001"}}, {"type": "Feature", "id": 260, "geometry": {"type": "Point", "coordinates": [-86.14267619999998, 36.34939080000004]}, "properties": {"OBJECTID": 260, "Category_of_Land_Region": "", "Object_Name": "Old Lock & Dam No. 6 (281.6)", "Information": "", "Scale_Minimum": 60000, "Source_Date": "20050412", "Source_Indication": "US,U3,USACE,LRN_GIS", "Source_Dataset": "U37CR221.000", "Feature_ID": "U3 1392980873 00001"}}, {"type": "Feature", "id": 261, "geometry": {"type": "Point", "coordinates": [-85.93508989999998, 36.29921920000004]}, "properties": {"OBJECTID": 261, "Category_of_Land_Region": "", "Object_Name": "Horseshoe Bend", "Information": "", "Scale_Minimum": 60000, "Source_Date": "20050414", "Source_Indication": "US,U3,USACE,LRN_GIS", "Source_Dataset": "U37CR307.000", "Feature_ID": "U3 1392989265 00001"}}, {"type": "Feature", "id": 264, "geometry": {"type": "Point", "coordinates": [-85.94527299999999, 36.29578330000004]}, "properties": {"OBJECTID": 264, "Category_of_Land_Region": "", "Object_Name": "Cordell Hull Lock Arrival Point", "Information": "", "Scale_Minimum": 60000, "Source_Date": "20050414", "Source_Indication": "US,U3,USACE,LRN_GIS", "Source_Dataset": "U37CR307.000", "Feature_ID": "U3 1392989322 00001"}}, {"type": "Feature", "id": 272, "geometry": {"type": "Point", "coordinates": [-85.93913709999998, 36.28773590000003]}, "properties": {"OBJECTID": 272, "Category_of_Land_Region": "", "Object_Name": "Cordell Hull Lock Arrival Point", "Information": "", "Scale_Minimum": 60000, "Source_Date": "20050414", "Source_Indication": "US,U3,USACE,LRN_GIS", "Source_Dataset": "U37CR307.000", "Feature_ID": "U3 1392989467 00001"}}, {"type": "Feature", "id": 290, "geometry": {"type": "Point", "coordinates": [-85.94920669999999, 36.30007520000004]}, "properties": {"OBJECTID": 290, "Category_of_Land_Region": "", "Object_Name": "Horseshoe Bend Lower RP (314.2)", "Information": "Historic Reference Point", "Scale_Minimum": 60000, "Source_Date": "20250314", "Source_Indication": "US,U3,LIGHT,USCG_Light_List_No_3415_LNM_09/12", "Source_Dataset": "U37CR307.000", "Feature_ID": "U3 1617897352 00001"}}, {"type": "Feature", "id": 291, "geometry": {"type": "Point", "coordinates": [-85.92495339999994, 36.27630440000007]}, "properties": {"OBJECTID": 291, "Category_of_Land_Region": "", "Object_Name": "Simpson Landing RP (312.0)", "Information": "Historic Reference Point", "Scale_Minimum": 60000, "Source_Date": "20250314", "Source_Indication": "US,U3,LIGHT,USCG_Light_List_No_3425_LNM_09/12", "Source_Dataset": "U37CR307.000", "Feature_ID": "U3 1617897353 00001"}}, {"type": "Feature", "id": 292, "geometry": {"type": "Point", "coordinates": [-85.92398789999999, 36.253164800000036]}, "properties": {"OBJECTID": 292, "Category_of_Land_Region": "", "Object_Name": "Farley RP (310.6)", "Information": "Historic Reference Point", "Scale_Minimum": 60000, "Source_Date": "20250314", "Source_Indication": "US,U3,LIGHT,USCG_Light_List_No_3430_LNM_09/12", "Source_Dataset": "U37CR307.000", "Feature_ID": "U3 1617897354 00001"}}]}