{"type": "FeatureCollection", "features": [{"type": "Feature", "id": 501, "geometry": {"type": "Point", "coordinates": [-86.475, 36.3199]}, "properties": {"OBJECTID": 501, "Category_of_Lateral_Mark": "Starboard-Hand Lateral Mark", "Beacon_Shape": "Stake_Pole_Perch_Post", "Color": "Red", "Color_Pattern": "", "Object_Name": "Spencer Creek Light (236.8)", "Direction_of_Impact": "", "Condition": "", "Information": "LDB", "Scale_Minimum": 60000, "Source_Date": "20100829", "Source_Indication": "US,U3,SURVY,Seaside_Engineering_&_Surveying_Inc.", "Source_Dataset": "U37CR221.000", "Feature_ID": "U3 1392980057 00001"}}, {"type": "Feature", "id": 502, "geometry": {"type": "Point", "coordinates": [-86.5868, 36.2463]}, "properties": {"OBJECTID": 502, "Category_of_Lateral_Mark": "Starboard-Hand Lateral Mark", "Beacon_Shape": "Stake_Pole_Perch_Post", "Color": "Red", "Color_Pattern": "", "Object_Name": "Drakes Creek Lt (222.7)", "Direction_of_Impact": "", "Condition": "", "Information": "LDB", "Scale_Minimum": 60000, "Source_Date": "20100829", "Source_Indication": "US,U3,SURVY,Seaside_Engineering_&_Surveying,_Inc.", "Source_Dataset": "U37CR221.000", "Feature_ID": "U3 1392980061 00001"}}, {"type": "Feature", "id": 504, "geometry": {"type": "Point", "coordinates": [-86.5223, 36.2773]}, "properties": {"OBJECTID": 504, "Category_of_Lateral_Mark": "Starboard-Hand Lateral Mark", "Beacon_Shape": "Stake_Pole_Perch_Post", "Color": "Red", "Color_Pattern": "", "Object_Name": "Cages Bend Lt (232.6)", "Direction_of_Impact": "", "Condition": "", "Information": "LDB", "Scale_Minimum": 60000, "Source_Date": "20100829", "Source_Indication": "US,U3,SURVY,Seaside_Engineering_&_Surveying,_Inc.", "Source_Dataset": "U37CR221.000", "Feature_ID": "U3 1392980069 00001"}}, {"type": "Feature", "id": 507, "geometry": {"type": "Point", "coordinates": [-86.5576, 36.2788]}, "properties": {"OBJECTID": 507, "Category_of_Lateral_Mark": "Starboard-Hand Lateral Mark", "Beacon_Shape": "Stake_Pole_Perch_Post", "Color": "Red", "Color_Pattern": "", "Object_Name": "Lindsley Island Lower Lt (225.6)", "Direction_of_Impact": "", "Condition": "", "Information": "LDB", "Scale_Minimum": 60000, "Source_Date": "20100829", "Source_Indication": "US,U3,SURVY,Seaside_Engineering_&_Surveying,_Inc.", "Source_Dataset": "U37CR221.000", "Feature_ID": "U3 1392980094 00001"}}, {"type": "Feature", "id": 508, "geometry": {"type": "Point", "coordinates": [-86.5651, 36.3073]}, "properties": {"OBJECTID": 508, "Category_of_Lateral_Mark": "Port-Hand Lateral Mark", "Beacon_Shape": "Stake_Pole_Perch_Post", "Color": "Green", "Color_Pattern": "", "Object_Name": "Blue Grass Light (227.6)", "Direction_of_Impact": "", "Condition": "", "Information": "RDB", "Scale_Minimum": 60000, "Source_Date": "20100829", "Source_Indication": "US,U3,SURVY,Seaside_Engineering_&_Surveying,_Inc.", "Source_Dataset": "U37CR221.000", "Feature_ID": "U3 1392980096 00001"}}, {"type": "Feature", "id": 509, "geometry": {"type": "Point", "coordinates": [-86.5537, 36.3195]}, "properties": {"OBJECTID": 509, "Category_of_Lateral_Mark": "Port-Hand Lateral Mark", "Beacon_Shape": "Stake_Pole_Perch_Post", "Color": "Green", "Color_Pattern": "", "Object_Name": "Saundersville Light (228.6)", "Direction_of_Impact": "", "Condition": "", "Information": "RDB", "Scale_Minimum": 60000, "Source_Date": "20100829", "Source_Indication": "US,U3,SURVY,Seaside_Engineering_&_Surveying,_Inc.", "Source_Dataset": "U37CR221.000", "Feature_ID": "U3 1392980100 00001"}}, {"type": "Feature", "id": 510, "geometry": {"type": "Point", "coordinates": [-86.5437, 36.3223]}, "properties": {"OBJECTID": 510, "Category_of_Lateral_Mark": "Port-Hand Lateral Mark", "Beacon_Shape": "Stake_Pole_Perch_Post", "Color": "Green", "Color_Pattern": "", "Object_Name": "Lindsley Bend Light (229.2)", "Direction_of_Impact": "", "Condition": "", "Information": "RDB", "Scale_Minimum": 60000, "Source_Date": "20100829", "Source_Indication": "US,U3,SURVY,Seaside_Engineering_&_Surveying,_Inc.", "Source_Dataset": "U37CR221.000", "Feature_ID": "U3 1392980101 00001"}}, {"type": "Feature", "id": 511, "geometry": {"type": "Point", "coordinates": [-86.6089, 36.2428]}, "properties": {"OBJECTID": 511, "Category_of_Lateral_Mark": "Starboard-Hand Lateral Mark", "Beacon_Shape": "Stake_Pole_Perch_Post", "Color": "Red", "Color_Pattern": "", "Object_Name": "Rock Quarry Light (221.4)", "Direction_of_Impact": "", "Condition": "", "Information": "LDB", "Scale_Minimum": 60000, "Source_Date": "20100828", "Source_Indication": "US,U3,SURVY,Seaside_Engineering_&_Surveying,_Inc.", "Source_Dataset": "U37CR221.000", "Feature_ID": "U3 1392980110 00001"}}, {"type": "Feature", "id": 512, "geometry": {"type": "Point", "coordinates": [-86.5676, 36.262]}, "properties": {"OBJECTID": 512, "Category_of_Lateral_Mark": "Starboard-Hand Lateral Mark", "Beacon_Shape": "Stake_Pole_Perch_Post", "Color": "Red", "Color_Pattern": "", "Object_Name": "Nokes Branch Light (224.3)", "Direction_of_Impact": "", "Condition": "", "Information": "LDB", "Scale_Minimum": 60000, "Source_Date": "20100829", "Source_Indication": "US,U3,SURVY,Seaside_Engineering_&_Surveying,_Inc.", "Source_Dataset": "U37CR221.000", "Feature_ID": "U3 1392980139 00001"}}, {"type": "Feature", "id": 513, "geometry": {"type": "Point", "coordinates": [-86.5046, 36.3064]}, "properties": {"OBJECTID": 513, "Category_of_Lateral_Mark": "Port-Hand Lateral Mark", "Beacon_Shape": "Stake_Pole_Perch_Post", "Color": "Green", "Color_Pattern": "", "Object_Name": "Abstons Bluff Light (235.0)", "Direction_of_Impact": "", "Condition": "", "Information": "RDB", "Scale_Minimum": 60000, "Source_Date": "20100829", "Source_Indication": "US,U3,SURVY,Seaside_Engineering_&_Surveying,_Inc.", "Source_Dataset": "U37CR221.000", "Feature_ID": "U3 1392980822 00001"}}]}