{"type": "FeatureCollection", "features": [{"type": "Feature", "id": 1301, "geometry": {"type": "Point", "coordinates": [-86.475, 36.3199]}, "properties": {"OBJECTID": 1301, "Category_of_Light": "Unknown", "Color": "Red", "Light_Characteristics": "Flashing", "Signal_Group": "(2)", "Signal_Period": "5 Seconds", "Multiplicity_of_Lights": "", "Condition": "", "Orientation": "", "Object_Name": "", "Information": "LDB", "Status": "Public", "Scale_Minimum": 60000, "Source_Date": "20251215", "Source_Indication": "US,U3,LIGHT,USCG_Light_List_No_3600", "Source_Dataset": "U37CR221.000", "Height": "", "Value_of_Nominal_Range": "", "Feature_ID": "U3 1392980054 00001", "Exhibition_Condition_of_Light": ""}}, {"type": "Feature", "id": 1302, "geometry": {"type": "Point", "coordinates": [-86.5868, 36.2463]}, "properties": {"OBJECTID": 1302, "Category_of_Light": "Unknown", "Color": "Red", "Light_Characteristics": "Flashing", "Signal_Group": "(2)", "Signal_Period": "5 Seconds", "Multiplicity_of_Lights": "", "Condition": "", "Orientation": "", "Object_Name": "", "Information": "LDB", "Status": "Public", "Scale_Minimum": 60000, "Source_Date": "20251215", "Source_Indication": "US,U3,LIGHT,USCG_Light_List_No_3695", "Source_Dataset": "U37CR221.000", "Height": "", "Value_of_Nominal_Range": "", "Feature_ID": "U3 1392980062 00001", "Exhibition_Condition_of_Light": ""}}, {"type": "Feature", "id": 1304, "geometry": {"type": "Point", "coordinates": [-86.5223, 36.2773]}, "properties": {"OBJECTID": 1304, "Category_of_Light": "Unknown", "Color": "White", "Light_Characteristics": "Flashing", "Signal_Group": "(2)", "Signal_Period": "5 Seconds", "Multiplicity_of_Lights": "", "Condition": "", "Orientation": "", "Object_Name": "", "Information": "LDB", "Status": "Public", "Scale_Minimum": 60000, "Source_Date": "20251215", "Source_Indication": "US,U3,LIGHT,USCG_Light_List_No_3655", "Source_Dataset": "U37CR221.000", "Height": "", "Value_of_Nominal_Range": "", "Feature_ID": "U3 1392980074 00001", "Exhibition_Condition_of_Light": ""}}, {"type": "Feature", "id": 1306, "geometry": {"type": "Point", "coordinates": [-86.5651, 36.3073]}, "properties": {"OBJECTID": 1306, "Category_of_Light": "Unknown", "Color": "White", "Light_Characteristics": "Flashing", "Signal_Group": "()", "Signal_Period": "4 Seconds", "Multiplicity_of_Lights": "", "Condition": "", "Orientation": "", "Object_Name": "", "Information": "RDB", "Status": "Public", "Scale_Minimum": 60000, "Source_Date": "20251215", "Source_Indication": "US,U3,LIGHT,USCG_Light_List_No_3670", "Source_Dataset": "U37CR221.000", "Height": "", "Value_of_Nominal_Range": "", "Feature_ID": "U3 1392980085 00001", "Exhibition_Condition_of_Light": ""}}, {"type": "Feature", "id": 1307, "geometry": {"type": "Point", "coordinates": [-86.5576, 36.2788]}, "properties": {"OBJECTID": 1307, "Category_of_Light": "Unknown", "Color": "Red", "Light_Characteristics": "Flashing", "Signal_Group": "(2)", "Signal_Period": "5 Seconds", "Multiplicity_of_Lights": "", "Condition": "", "Orientation": "", "Object_Name": "", "Information": "LDB", "Status": "Public", "Scale_Minimum": 60000, "Source_Date": "20251215", "Source_Indication": "US,U3,LIGHT,USCG_Light_List_No_3680", "Source_Dataset": "U37CR221.000", "Height": "", "Value_of_Nominal_Range": "", "Feature_ID": "U3 1392980089 00001", "Exhibition_Condition_of_Light": ""}}, {"type": "Feature", "id": 1308, "geometry": {"type": "Point", "coordinates": [-86.5537, 36.3195]}, "properties": {"OBJECTID": 1308, "Category_of_Light": "Unknown", "Color": "Green", "Light_Characteristics": "Flashing", "Signal_Group": "()", "Signal_Period": "4 Seconds", "Multiplicity_of_Lights": "", "Condition": "", "Orientation": "", "Object_Name": "", "Information": "RDB", "Status": "Public", "Scale_Minimum": 60000, "Source_Date": "20251215", "Source_Indication": "US,U3,LIGHT,USCG_Light_List_No_3665", "Source_Dataset": "U37CR221.000", "Height": "", "Value_of_Nominal_Range": "", "Feature_ID": "U3 1392980097 00001", "Exhibition_Condition_of_Light": ""}}, {"type": "Feature", "id": 1309, "geometry": {"type": "Point", "coordinates": [-86.5437, 36.3223]}, "properties": {"OBJECTID": 1309, "Category_of_Light": "Unknown", "Color": "Green", "Light_Characteristics": "Flashing", "Signal_Group": "()", "Signal_Period": "4 Seconds", "Multiplicity_of_Lights": "", "Condition": "", "Orientation": "", "Object_Name": "", "Information": "RDB", "Status": "Public", "Scale_Minimum": 60000, "Source_Date": "20251215", "Source_Indication": "US,U3,LIGHT,USCG_Light_List_No_3660", "Source_Dataset": "U37CR221.000", "Height": "", "Value_of_Nominal_Range": "", "Feature_ID": "U3 1392980098 00001", "Exhibition_Condition_of_Light": ""}}, {"type": "Feature", "id": 1310, "geometry": {"type": "Point", "coordinates": [-86.6089, 36.2428]}, "properties": {"OBJECTID": 1310, "Category_of_Light": "Unknown", "Color": "Red", "Light_Characteristics": "Flashing", "Signal_Group": "(2)", "Signal_Period": "5 Seconds", "Multiplicity_of_Lights": "", "Condition": "", "Orientation": "", "Object_Name": "", "Information": "LDB", "Status": "Public", "Scale_Minimum": 60000, "Source_Date": "20251215", "Source_Indication": "US,U3,LIGHT,USCG_Light_List_No_3720", "Source_Dataset": "U37CR221.000", "Height": "", "Value_of_Nominal_Range": "", "Feature_ID": "U3 1392980111 00001", "Exhibition_Condition_of_Light": ""}}, {"type": "Feature", "id": 1311, "geometry": {"type": "Point", "coordinates": [-86.5676, 36.262]}, "properties": {"OBJECTID": 1311, "Category_of_Light": "Unknown", "Color": "Red", "Light_Characteristics": "Flashing", "Signal_Group": "(2)", "Signal_Period": "5 Seconds", "Multiplicity_of_Lights": "", "Condition": "", "Orientation": "", "Object_Name": "", "Information": "LDB", "Status": "Public", "Scale_Minimum": 60000, "Source_Date": "20251215", "Source_Indication": "US,U3,LIGHT,USCG_Light_List_No_3690", "Source_Dataset": "U37CR221.000", "Height": "", "Value_of_Nominal_Range": "", "Feature_ID": "U3 1392980136 00001", "Exhibition_Condition_of_Light": ""}}, {"type": "Feature", "id": 1314, "geometry": {"type": "Point", "coordinates": [-86.5591, 36.2754]}, "properties": {"OBJECTID": 1314, "Category_of_Light": "Unknown", "Color": "Red", "Light_Characteristics": "Flashing", "Signal_Group": "(2)", "Signal_Period": "6 Seconds", "Multiplicity_of_Lights": "", "Condition": "", "Orientation": "", "Object_Name": "", "Information": "LDB", "Status": "Private", "Scale_Minimum": 60000, "Source_Date": "20251215", "Source_Indication": "US,U3,LIGHT,USCG_Light_List_No_3685", "Source_Dataset": "U37CR221.000", "Height": "", "Value_of_Nominal_Range": "", "Feature_ID": "U3 1392980179 00001", "Exhibition_Condition_of_Light": ""}}, {"type": "Feature", "id": 1324, "geometry": {"type": "Point", "coordinates": [-86.4901, 36.3112]}, "properties": {"OBJECTID": 1324, "Category_of_Light": "Unknown", "Color": "Red", "Light_Characteristics": "Flashing", "Signal_Group": "(2)", "Signal_Period": "6 Seconds", "Multiplicity_of_Lights": "", "Condition": "", "Orientation": "", "Object_Name": "", "Information": "LDB", "Status": "Private", "Scale_Minimum": 60000, "Source_Date": "20251215", "Source_Indication": "US,U3,LIGHT,USCG_Light_List_No_3640", "Source_Dataset": "U37CR221.000", "Height": "", "Value_of_Nominal_Range": "", "Feature_ID": "U3 1392980351 00001", "Exhibition_Condition_of_Light": ""}}, {"type": "Feature", "id": 1326, "geometry": {"type": "Point", "coordinates": [-86.4903, 36.3111]}, "properties": {"OBJECTID": 1326, "Category_of_Light": "Unknown", "Color": "Red", "Light_Characteristics": "Flashing", "Signal_Group": "(2)", "Signal_Period": "6 Seconds", "Multiplicity_of_Lights": "", "Condition": "", "Orientation": "", "Object_Name": "", "Information": "LDB", "Status": "Private", "Scale_Minimum": 60000, "Source_Date": "20251215", "Source_Indication": "US,U3,LIGHT,USCG_Light_List_No_3640", "Source_Dataset": "U37CR221.000", "Height": "", "Value_of_Nominal_Range": "", "Feature_ID": "U3 1392980357 00001", "Exhibition_Condition_of_Light": ""}}, {"type": "Feature", "id": 1329, "geometry": {"type": "Point", "coordinates": [-86.4917, 36.3135]}, "properties": {"OBJECTID": 1329, "Category_of_Light": "Unknown", "Color": "Green", "Light_Characteristics": "Flashing", "Signal_Group": "()", "Signal_Period": "6 Seconds", "Multiplicity_of_Lights": "", "Condition": "", "Orientation": "", "Object_Name": "", "Information": "RDB", "Status": "Private", "Scale_Minimum": 60000, "Source_Date": "20251215", "Source_Indication": "US,U3,LIGHT,USCG_Light_List_No_3635", "Source_Dataset": "U37CR221.000", "Height": "", "Value_of_Nominal_Range": "", "Feature_ID": "U3 1392980825 00001", "Exhibition_Condition_of_Light": ""}}, {"type": "Feature", "id": 1331, "geometry": {"type": "Point", "coordinates": [-86.5046, 36.3064]}, "properties": {"OBJECTID": 1331, "Category_of_Light": "Unknown", "Color": "Green", "Light_Characteristics": "Flashing", "Signal_Group": "()", "Signal_Period": "4 Seconds", "Multiplicity_of_Lights": "", "Condition": "", "Orientation": "", "Object_Name": "", "Information": "RDB", "Status": "Public", "Scale_Minimum": 60000, "Source_Date": "20251215", "Source_Indication": "US,U3,LIGHT,USCG_Light_List_No_3645", "Source_Dataset": "U37CR221.000", "Height": "", "Value_of_Nominal_Range": "", "Feature_ID": "U3 1392980829 00001", "Exhibition_Condition_of_Light": ""}}, {"type": "Feature", "id": 1333, "geometry": {"type": "Point", "coordinates": [-86.4919, 36.3134]}, "properties": {"OBJECTID": 1333, "Category_of_Light": "Unknown", "Color": "Green", "Light_Characteristics": "Flashing", "Signal_Group": "()", "Signal_Period": "6 Seconds", "Multiplicity_of_Lights": "", "Condition": "", "Orientation": "", "Object_Name": "", "Information": "RDB", "Status": "Private", "Scale_Minimum": 60000, "Source_Date": "20251215", "Source_Indication": "US,U3,LIGHT,USCG_Light_List_No_3635", "Source_Dataset": "U37CR221.000", "Height": "", "Value_of_Nominal_Range": "", "Feature_ID": "U3 1392980847 00001", "Exhibition_Condition_of_Light": ""}}]}