{"type": "FeatureCollection", "features": [{"type": "Feature", "id": 36, "geometry": {"type": "LineString", "coordinates": [[-86.6565, 36.2957], [-86.6563, 36.2959]]}, "properties": {"OBJECTID": 36, "Category_of_Gate": "Lock Gate", "Horizontal_Clearance": "26.6", "Vertical_Clearance": "", "Object_Name": "", "Information": "", "Scale_Minimum": 22000, "Source_Date": "20131113", "Source_Indication": "US,U3,SURVY,2013_SEAS_LIDAR_Mapping_Survey", "Source_Dataset": "U37CR149.000", "Feature_ID": "U3 1392978377 00001"}}, {"type": "Feature", "id": 38, "geometry": {"type": "LineString", "coordinates": [[-86.6576, 36.2966], [-86.6578, 36.2964]]}, "properties": {"OBJECTID": 38, "Category_of_Gate": "Lock Gate", "Horizontal_Clearance": "25.6", "Vertical_Clearance": "", "Object_Name": "", "Information": "", "Scale_Minimum": 22000, "Source_Date": "20131113", "Source_Indication": "US,U3,SURVY,2013_SEAS_LIDAR_Mapping_Survey", "Source_Dataset": "U37CR149.000", "Feature_ID": "U3 1392978374 00001"}}, {"type": "Feature", "id": 39, "geometry": {"type": "LineString", "coordinates": [[-85.9431, 36.2907], [-85.9428, 36.2908]]}, "properties": {"OBJECTID": 39, "Category_of_Gate": "Lock Gate", "Horizontal_Clearance": "25.6", "Vertical_Clearance": "", "Object_Name": "", "Information": "", "Scale_Minimum": 22000, "Source_Date": "20140604", "Source_Indication": "US,U3,SURVY,2014_SEAS_LIDAR_Mapping_Survey", "Source_Dataset": "U37CR307.000", "Feature_ID": "U3 1392989201 00001"}}, {"type": "Feature", "id": 40, "geometry": {"type": "LineString", "coordinates": [[-85.9421, 36.2897], [-85.9418, 36.2899]]}, "properties": {"OBJECTID": 40, "Category_of_Gate": "Lock Gate", "Horizontal_Clearance": "25.6", "Vertical_Clearance": "", "Object_Name": "", "Information": "", "Scale_Minimum": 22000, "Source_Date": "20140604", "Source_Indication": "US,U3,SURVY,2014_SEAS_LIDAR_Mapping_Survey", "Source_Dataset": "U37CR307.000", "Feature_ID": "U3 1392989204 00001"}}]}