{"type": "FeatureCollection", "features": [{"type": "Feature", "id": 580, "geometry": {"type": "Polygon", "coordinates": [[[-86.6666, 36.3], [-86.6667, 36.3], [-86.6666, 36.2999], [-86.6666, 36.3]]]}, "properties": {"OBJECTID": 580, "Category_of_Mooring_Facility": "Post/Pile", "Nature_of_Construction": "Concreted/Metal", "Object_Name": "Federal Mooring Cell (215.6)", "Water_Level": "Always Dry", "Condition": "", "Information": "", "Scale_Minimum": 30000, "Source_Date": "20151021", "Source_Indication": "US,U3,SURVY,2015_Seaside_Engineering_And_Surveying_SEAS_LIDAR_Mapping_Survey", "Source_Dataset": "U37CR149.000", "Feature_ID": "U3 1392977090 00001"}}, {"type": "Feature", "id": 583, "geometry": {"type": "Polygon", "coordinates": [[[-86.6656, 36.2998], [-86.6657, 36.2998], [-86.6657, 36.2997], [-86.6656, 36.2998]]]}, "properties": {"OBJECTID": 583, "Category_of_Mooring_Facility": "Post/Pile", "Nature_of_Construction": "Concreted/Metal", "Object_Name": "Federal Mooring Cell (215.6)", "Water_Level": "Always Dry", "Condition": "", "Information": "", "Scale_Minimum": 30000, "Source_Date": "20151021", "Source_Indication": "US,U3,SURVY,2015_Seaside_Engineering_And_Surveying_SEAS_LIDAR_Mapping_Survey", "Source_Dataset": "U37CR149.000", "Feature_ID": "U3 1392977098 00001"}}, {"type": "Feature", "id": 594, "geometry": {"type": "Polygon", "coordinates": [[[-86.6541, 36.2915], [-86.6542, 36.2916], [-86.6542, 36.2915], [-86.6541, 36.2915]]]}, "properties": {"OBJECTID": 594, "Category_of_Mooring_Facility": "Post/Pile", "Nature_of_Construction": "Concreted/Metal", "Object_Name": "Federal Mooring Cell (216.5)", "Water_Level": "Always Dry", "Condition": "", "Information": "", "Scale_Minimum": 30000, "Source_Date": "20151021", "Source_Indication": "US,U3,SURVY,2015_Seaside_Engineering_And_Surveying_SEAS_LIDAR_Mapping_Survey", "Source_Dataset": "U37CR149.000", "Feature_ID": "U3 1392977103 00001"}}, {"type": "Feature", "id": 602, "geometry": {"type": "Polygon", "coordinates": [[[-86.6545, 36.2923], [-86.6546, 36.2923], [-86.6546, 36.2922], [-86.6545, 36.2923]]]}, "properties": {"OBJECTID": 602, "Category_of_Mooring_Facility": "Post/Pile", "Nature_of_Construction": "Concreted/Metal", "Object_Name": "Federal Mooring Cell (216.5)", "Water_Level": "Always Dry", "Condition": "", "Information": "", "Scale_Minimum": 30000, "Source_Date": "20151021", "Source_Indication": "US,U3,SURVY,2015_Seaside_Engineering_And_Surveying_SEAS_LIDAR_Mapping_Survey", "Source_Dataset": "U37CR149.000", "Feature_ID": "U3 1392977105 00001"}}, {"type": "Feature", "id": 618, "geometry": {"type": "Polygon", "coordinates": [[[-86.3899, 36.3156], [-86.39, 36.3156], [-86.39, 36.3156], [-86.3899, 36.3156]]]}, "properties": {"OBJECTID": 618, "Category_of_Mooring_Facility": "Post/Pile", "Nature_of_Construction": "", "Object_Name": "", "Water_Level": "", "Condition": "", "Information": "", "Scale_Minimum": 30000, "Source_Date": "20040930", "Source_Indication": "US,U3,USACE,LRN_GIS", "Source_Dataset": "U37CR221.000", "Feature_ID": "U3 1392981101 00001"}}, {"type": "Feature", "id": 619, "geometry": {"type": "Polygon", "coordinates": [[[-86.4163, 36.3264], [-86.4164, 36.3264], [-86.4164, 36.3264], [-86.4163, 36.3264]]]}, "properties": {"OBJECTID": 619, "Category_of_Mooring_Facility": "Post/Pile", "Nature_of_Construction": "", "Object_Name": "", "Water_Level": "", "Condition": "", "Information": "", "Scale_Minimum": 30000, "Source_Date": "20040930", "Source_Indication": "US,U3,USACE,LRN_GIS", "Source_Dataset": "U37CR221.000", "Feature_ID": "U3 1392981172 00001"}}, {"type": "Feature", "id": 620, "geometry": {"type": "Polygon", "coordinates": [[[-86.1761, 36.3742], [-86.1761, 36.3742], [-86.1762, 36.3742], [-86.1761, 36.3742]]]}, "properties": {"OBJECTID": 620, "Category_of_Mooring_Facility": "Post/Pile", "Nature_of_Construction": "", "Object_Name": "", "Water_Level": "", "Condition": "", "Information": "", "Scale_Minimum": 30000, "Source_Date": "20040930", "Source_Indication": "US,U3,USACE,LRN_GIS", "Source_Dataset": "U37CR221.000", "Feature_ID": "U3 1392981179 00001"}}, {"type": "Feature", "id": 621, "geometry": {"type": "Polygon", "coordinates": [[[-86.4164, 36.3269], [-86.4165, 36.3269], [-86.4165, 36.3269], [-86.4164, 36.3269]]]}, "properties": {"OBJECTID": 621, "Category_of_Mooring_Facility": "Post/Pile", "Nature_of_Construction": "", "Object_Name": "", "Water_Level": "", "Condition": "", "Information": "", "Scale_Minimum": 30000, "Source_Date": "20040930", "Source_Indication": "US,U3,USACE,LRN_GIS", "Source_Dataset": "U37CR221.000", "Feature_ID": "U3 1392981183 00001"}}, {"type": "Feature", "id": 622, "geometry": {"type": "Polygon", "coordinates": [[[-86.4161, 36.3253], [-86.4161, 36.3253], [-86.4161, 36.3253], [-86.4161, 36.3253]]]}, "properties": {"OBJECTID": 622, "Category_of_Mooring_Facility": "Post/Pile", "Nature_of_Construction": "", "Object_Name": "", "Water_Level": "", "Condition": "", "Information": "", "Scale_Minimum": 30000, "Source_Date": "20040930", "Source_Indication": "US,U3,USACE,LRN_GIS", "Source_Dataset": "U37CR221.000", "Feature_ID": "U3 1392981187 00001"}}, {"type": "Feature", "id": 623, "geometry": {"type": "Polygon", "coordinates": [[[-86.4156, 36.3232], [-86.4157, 36.3232], [-86.4156, 36.3232], [-86.4156, 36.3232]]]}, "properties": {"OBJECTID": 623, "Category_of_Mooring_Facility": "Post/Pile", "Nature_of_Construction": "", "Object_Name": "", "Water_Level": "", "Condition": "", "Information": "", "Scale_Minimum": 30000, "Source_Date": "20040930", "Source_Indication": "US,U3,USACE,LRN_GIS", "Source_Dataset": "U37CR221.000", "Feature_ID": "U3 1392981189 00001"}}, {"type": "Feature", "id": 624, "geometry": {"type": "Polygon", "coordinates": [[[-86.4153, 36.3222], [-86.4154, 36.3222], [-86.4154, 36.3222], [-86.4153, 36.3222]]]}, "properties": {"OBJECTID": 624, "Category_of_Mooring_Facility": "Post/Pile", "Nature_of_Construction": "", "Object_Name": "", "Water_Level": "", "Condition": "", "Information": "", "Scale_Minimum": 30000, "Source_Date": "20040930", "Source_Indication": "US,U3,USACE,LRN_GIS", "Source_Dataset": "U37CR221.000", "Feature_ID": "U3 1392981192 00001"}}, {"type": "Feature", "id": 625, "geometry": {"type": "Polygon", "coordinates": [[[-86.4159, 36.3248], [-86.416, 36.3248], [-86.416, 36.3248], [-86.4159, 36.3248]]]}, "properties": {"OBJECTID": 625, "Category_of_Mooring_Facility": "Post/Pile", "Nature_of_Construction": "", "Object_Name": "", "Water_Level": "", "Condition": "", "Information": "", "Scale_Minimum": 30000, "Source_Date": "20040930", "Source_Indication": "US,U3,USACE,LRN_GIS", "Source_Dataset": "U37CR221.000", "Feature_ID": "U3 1392981193 00001"}}, {"type": "Feature", "id": 626, "geometry": {"type": "Polygon", "coordinates": [[[-86.4158, 36.3243], [-86.4159, 36.3243], [-86.4159, 36.3243], [-86.4158, 36.3243]]]}, "properties": {"OBJECTID": 626, "Category_of_Mooring_Facility": "Post/Pile", "Nature_of_Construction": "", "Object_Name": "", "Water_Level": "", "Condition": "", "Information": "", "Scale_Minimum": 30000, "Source_Date": "20040930", "Source_Indication": "US,U3,USACE,LRN_GIS", "Source_Dataset": "U37CR221.000", "Feature_ID": "U3 1392981194 00001"}}, {"type": "Feature", "id": 627, "geometry": {"type": "Polygon", "coordinates": [[[-86.4152, 36.3216], [-86.4153, 36.3216], [-86.4152, 36.3216], [-86.4152, 36.3216]]]}, "properties": {"OBJECTID": 627, "Category_of_Mooring_Facility": "Post/Pile", "Nature_of_Construction": "", "Object_Name": "", "Water_Level": "", "Condition": "", "Information": "", "Scale_Minimum": 30000, "Source_Date": "20040930", "Source_Indication": "US,U3,USACE,LRN_GIS", "Source_Dataset": "U37CR221.000", "Feature_ID": "U3 1392981195 00001"}}, {"type": "Feature", "id": 628, "geometry": {"type": "Polygon", "coordinates": [[[-86.4155, 36.3227], [-86.4155, 36.3227], [-86.4155, 36.3227], [-86.4155, 36.3227]]]}, "properties": {"OBJECTID": 628, "Category_of_Mooring_Facility": "Post/Pile", "Nature_of_Construction": "", "Object_Name": "", "Water_Level": "", "Condition": "", "Information": "", "Scale_Minimum": 30000, "Source_Date": "20040930", "Source_Indication": "US,U3,USACE,LRN_GIS", "Source_Dataset": "U37CR221.000", "Feature_ID": "U3 1392981198 00001"}}, {"type": "Feature", "id": 629, "geometry": {"type": "Polygon", "coordinates": [[[-86.4149, 36.3206], [-86.415, 36.3206], [-86.415, 36.3205], [-86.4149, 36.3206]]]}, "properties": {"OBJECTID": 629, "Category_of_Mooring_Facility": "Post/Pile", "Nature_of_Construction": "", "Object_Name": "", "Water_Level": "", "Condition": "", "Information": "", "Scale_Minimum": 30000, "Source_Date": "20040930", "Source_Indication": "US,U3,USACE,LRN_GIS", "Source_Dataset": "U37CR221.000", "Feature_ID": "U3 1392981199 00001"}}, {"type": "Feature", "id": 630, "geometry": {"type": "Polygon", "coordinates": [[[-86.4162, 36.3259], [-86.4163, 36.3259], [-86.4162, 36.3258], [-86.4162, 36.3259]]]}, "properties": {"OBJECTID": 630, "Category_of_Mooring_Facility": "Post/Pile", "Nature_of_Construction": "", "Object_Name": "", "Water_Level": "", "Condition": "", "Information": "", "Scale_Minimum": 30000, "Source_Date": "20040930", "Source_Indication": "US,U3,USACE,LRN_GIS", "Source_Dataset": "U37CR221.000", "Feature_ID": "U3 1392981204 00001"}}, {"type": "Feature", "id": 631, "geometry": {"type": "Polygon", "coordinates": [[[-86.4157, 36.3238], [-86.4157, 36.3238], [-86.4158, 36.3237], [-86.4157, 36.3238]]]}, "properties": {"OBJECTID": 631, "Category_of_Mooring_Facility": "Post/Pile", "Nature_of_Construction": "", "Object_Name": "", "Water_Level": "", "Condition": "", "Information": "", "Scale_Minimum": 30000, "Source_Date": "20040930", "Source_Indication": "US,U3,USACE,LRN_GIS", "Source_Dataset": "U37CR221.000", "Feature_ID": "U3 1392981205 00001"}}, {"type": "Feature", "id": 632, "geometry": {"type": "Polygon", "coordinates": [[[-86.39, 36.3163], [-86.39, 36.3163], [-86.3899, 36.3163], [-86.39, 36.3163]]]}, "properties": {"OBJECTID": 632, "Category_of_Mooring_Facility": "Post/Pile", "Nature_of_Construction": "", "Object_Name": "", "Water_Level": "", "Condition": "", "Information": "", "Scale_Minimum": 30000, "Source_Date": "20040930", "Source_Indication": "US,U3,USACE,LRN_GIS", "Source_Dataset": "U37CR221.000", "Feature_ID": "U3 1392981216 00001"}}, {"type": "Feature", "id": 633, "geometry": {"type": "Polygon", "coordinates": [[[-86.39, 36.3167], [-86.39, 36.3166], [-86.39, 36.3166], [-86.39, 36.3167]]]}, "properties": {"OBJECTID": 633, "Category_of_Mooring_Facility": "Post/Pile", "Nature_of_Construction": "", "Object_Name": "", "Water_Level": "", "Condition": "", "Information": "", "Scale_Minimum": 30000, "Source_Date": "20040930", "Source_Indication": "US,U3,USACE,LRN_GIS", "Source_Dataset": "U37CR221.000", "Feature_ID": "U3 1392981217 00001"}}]}