{"type": "FeatureCollection", "features": [{"type": "Feature", "id": 876, "geometry": {"type": "Point", "coordinates": [-86.64714009999994, 36.27632380000006]}, "properties": {"OBJECTID": 876, "Category_of_Mooring_Facility": "Post/Pile", "Nature_of_Construction": "", "Object_Name": "", "Water_Level": "", "Condition": "", "Information": "", "Scale_Minimum": 30000, "Source_Date": "20040930", "Source_Indication": "US,U3,USACE,LRN_GIS_Data", "Source_Dataset": "U37CR149.000", "Feature_ID": "U3 1392978721 00001"}}, {"type": "Feature", "id": 877, "geometry": {"type": "Point", "coordinates": [-86.64768729999997, 36.27609970000003]}, "properties": {"OBJECTID": 877, "Category_of_Mooring_Facility": "Post/Pile", "Nature_of_Construction": "", "Object_Name": "", "Water_Level": "", "Condition": "", "Information": "", "Scale_Minimum": 30000, "Source_Date": "20040930", "Source_Indication": "US,U3,USACE,LRN_GIS_Data", "Source_Dataset": "U37CR149.000", "Feature_ID": "U3 1392978717 00001"}}, {"type": "Feature", "id": 878, "geometry": {"type": "Point", "coordinates": [-86.64725009999995, 36.276445900000056]}, "properties": {"OBJECTID": 878, "Category_of_Mooring_Facility": "Post/Pile", "Nature_of_Construction": "", "Object_Name": "", "Water_Level": "", "Condition": "", "Information": "", "Scale_Minimum": 30000, "Source_Date": "20040930", "Source_Indication": "US,U3,USACE,LRN_GIS_Data", "Source_Dataset": "U37CR149.000", "Feature_ID": "U3 1392978727 00001"}}, {"type": "Feature", "id": 881, "geometry": {"type": "Point", "coordinates": [-86.64786489999995, 36.27644390000006]}, "properties": {"OBJECTID": 881, "Category_of_Mooring_Facility": "Post/Pile", "Nature_of_Construction": "", "Object_Name": "", "Water_Level": "", "Condition": "", "Information": "", "Scale_Minimum": 30000, "Source_Date": "20040930", "Source_Indication": "US,U3,USACE,LRN_GIS_Data", "Source_Dataset": "U37CR149.000", "Feature_ID": "U3 1392978479 00001"}}, {"type": "Feature", "id": 886, "geometry": {"type": "Point", "coordinates": [-86.64760049999995, 36.276656600000024]}, "properties": {"OBJECTID": 886, "Category_of_Mooring_Facility": "Post/Pile", "Nature_of_Construction": "", "Object_Name": "", "Water_Level": "", "Condition": "", "Information": "", "Scale_Minimum": 30000, "Source_Date": "20040930", "Source_Indication": "US,U3,USACE,LRN_GIS_Data", "Source_Dataset": "U37CR149.000", "Feature_ID": "U3 1392978497 00001"}}, {"type": "Feature", "id": 892, "geometry": {"type": "Point", "coordinates": [-86.64761469999996, 36.276167000000044]}, "properties": {"OBJECTID": 892, "Category_of_Mooring_Facility": "Post/Pile", "Nature_of_Construction": "", "Object_Name": "", "Water_Level": "", "Condition": "", "Information": "", "Scale_Minimum": 30000, "Source_Date": "20040930", "Source_Indication": "US,U3,USACE,LRN_GIS_Data", "Source_Dataset": "U37CR149.000", "Feature_ID": "U3 1392978510 00001"}}, {"type": "Feature", "id": 893, "geometry": {"type": "Point", "coordinates": [-86.67801279999998, 36.21504200000004]}, "properties": {"OBJECTID": 893, "Category_of_Mooring_Facility": "Mooring Buoy", "Nature_of_Construction": "", "Object_Name": "Federal Mooring Buoy (204.1)", "Water_Level": "", "Condition": "", "Information": "", "Scale_Minimum": 30000, "Source_Date": "20050408", "Source_Indication": "US,U3,USACE,LRN_GIS_Data", "Source_Dataset": "U37CR149.000", "Feature_ID": "U3 1392978517 00001"}}, {"type": "Feature", "id": 897, "geometry": {"type": "Point", "coordinates": [-86.64788419999996, 36.27645740000003]}, "properties": {"OBJECTID": 897, "Category_of_Mooring_Facility": "Post/Pile", "Nature_of_Construction": "", "Object_Name": "", "Water_Level": "", "Condition": "", "Information": "", "Scale_Minimum": 30000, "Source_Date": "20040930", "Source_Indication": "US,U3,USACE,LRN_GIS_Data", "Source_Dataset": "U37CR149.000", "Feature_ID": "U3 1392978706 00001"}}, {"type": "Feature", "id": 905, "geometry": {"type": "Point", "coordinates": [-86.64748969999994, 36.27604310000004]}, "properties": {"OBJECTID": 905, "Category_of_Mooring_Facility": "Post/Pile", "Nature_of_Construction": "", "Object_Name": "", "Water_Level": "", "Condition": "", "Information": "", "Scale_Minimum": 30000, "Source_Date": "20040930", "Source_Indication": "US,U3,USACE,LRN_GIS_Data", "Source_Dataset": "U37CR149.000", "Feature_ID": "U3 1392978901 00001"}}, {"type": "Feature", "id": 906, "geometry": {"type": "Point", "coordinates": [-86.64751739999997, 36.27623650000004]}, "properties": {"OBJECTID": 906, "Category_of_Mooring_Facility": "Post/Pile", "Nature_of_Construction": "", "Object_Name": "", "Water_Level": "", "Condition": "", "Information": "", "Scale_Minimum": 30000, "Source_Date": "20040930", "Source_Indication": "US,U3,USACE,LRN_GIS_Data", "Source_Dataset": "U37CR149.000", "Feature_ID": "U3 1392978904 00001"}}, {"type": "Feature", "id": 908, "geometry": {"type": "Point", "coordinates": [-86.64729289999997, 36.27619190000007]}, "properties": {"OBJECTID": 908, "Category_of_Mooring_Facility": "Post/Pile", "Nature_of_Construction": "", "Object_Name": "", "Water_Level": "", "Condition": "", "Information": "", "Scale_Minimum": 30000, "Source_Date": "20040930", "Source_Indication": "US,U3,USACE,LRN_GIS_Data", "Source_Dataset": "U37CR149.000", "Feature_ID": "U3 1392978913 00001"}}, {"type": "Feature", "id": 914, "geometry": {"type": "Point", "coordinates": [-86.67814779999998, 36.21698250000003]}, "properties": {"OBJECTID": 914, "Category_of_Mooring_Facility": "Mooring Buoy", "Nature_of_Construction": "", "Object_Name": "Federal Mooring Buoy (204.1)", "Water_Level": "", "Condition": "", "Information": "", "Scale_Minimum": 30000, "Source_Date": "20050408", "Source_Indication": "US,U3,USACE,LRN_GIS_Data", "Source_Dataset": "U37CR149.000", "Feature_ID": "U3 1392978942 00001"}}, {"type": "Feature", "id": 923, "geometry": {"type": "Point", "coordinates": [-86.64742649999994, 36.276305000000036]}, "properties": {"OBJECTID": 923, "Category_of_Mooring_Facility": "Post/Pile", "Nature_of_Construction": "", "Object_Name": "", "Water_Level": "", "Condition": "", "Information": "", "Scale_Minimum": 30000, "Source_Date": "20040930", "Source_Indication": "US,U3,USACE,LRN_GIS_Data", "Source_Dataset": "U37CR149.000", "Feature_ID": "U3 1392978819 00001"}}, {"type": "Feature", "id": 924, "geometry": {"type": "Point", "coordinates": [-86.64770599999997, 36.276087000000075]}, "properties": {"OBJECTID": 924, "Category_of_Mooring_Facility": "Post/Pile", "Nature_of_Construction": "", "Object_Name": "", "Water_Level": "", "Condition": "", "Information": "", "Scale_Minimum": 30000, "Source_Date": "20040930", "Source_Indication": "US,U3,USACE,LRN_GIS_Data", "Source_Dataset": "U37CR149.000", "Feature_ID": "U3 1392978814 00001"}}, {"type": "Feature", "id": 925, "geometry": {"type": "Point", "coordinates": [-86.64740059999997, 36.276107600000046]}, "properties": {"OBJECTID": 925, "Category_of_Mooring_Facility": "Post/Pile", "Nature_of_Construction": "", "Object_Name": "", "Water_Level": "", "Condition": "", "Information": "", "Scale_Minimum": 30000, "Source_Date": "20040930", "Source_Indication": "US,U3,USACE,LRN_GIS_Data", "Source_Dataset": "U37CR149.000", "Feature_ID": "U3 1392978817 00001"}}, {"type": "Feature", "id": 935, "geometry": {"type": "Point", "coordinates": [-86.64687019999997, 36.27605660000006]}, "properties": {"OBJECTID": 935, "Category_of_Mooring_Facility": "Post/Pile", "Nature_of_Construction": "", "Object_Name": "DuPont Dock Lt (218.0)", "Water_Level": "", "Condition": "", "Information": "", "Scale_Minimum": 30000, "Source_Date": "20100828", "Source_Indication": "US,U3,SURVY,Seaside_Engineering_&_Surveying,_Inc.", "Source_Dataset": "U37CR149.000", "Feature_ID": "U3 1392978676 00001"}}, {"type": "Feature", "id": 937, "geometry": {"type": "Point", "coordinates": [-85.94340499999998, 36.29151420000005]}, "properties": {"OBJECTID": 937, "Category_of_Mooring_Facility": "Mooring Buoy", "Nature_of_Construction": "", "Object_Name": "Federal Mooring Buoy (313.6)", "Water_Level": "", "Condition": "", "Information": "", "Scale_Minimum": 30000, "Source_Date": "20050414", "Source_Indication": "US,U3,USACE,LRN_GIS", "Source_Dataset": "U37CR307.000", "Feature_ID": "U3 1392989435 00001"}}, {"type": "Feature", "id": 938, "geometry": {"type": "Point", "coordinates": [-85.94418629999996, 36.29244100000005]}, "properties": {"OBJECTID": 938, "Category_of_Mooring_Facility": "Mooring Buoy", "Nature_of_Construction": "", "Object_Name": "Federal Mooring Buoy (313.6)", "Water_Level": "", "Condition": "", "Information": "", "Scale_Minimum": 30000, "Source_Date": "20050414", "Source_Indication": "US,U3,USACE,LRN_GIS", "Source_Dataset": "U37CR307.000", "Feature_ID": "U3 1392989487 00001"}}]}