{"type": "FeatureCollection", "features": [{"type": "Feature", "id": 313, "geometry": {"type": "LineString", "coordinates": [[-86.675, 36.2641], [-86.6765, 36.263]]}, "properties": {"OBJECTID": 313, "Vertical_Clearance": "29.9", "Vertical_Datum": "", "Waterway_Distance": "212.1", "Horizontal_Units": "Statute Miles", "Object_Name": "", "Condition": "", "Information": "", "Scale_Minimum": 90000, "Source_Date": "20050408", "Source_Indication": "US,U3,USACE,LRN_GIS_Data", "Source_Dataset": "U37CR149.000", "Feature_ID": "U3 1392977952 00001"}}, {"type": "Feature", "id": 316, "geometry": {"type": "LineString", "coordinates": [[-86.679, 36.2275], [-86.6769, 36.2278]]}, "properties": {"OBJECTID": 316, "Vertical_Clearance": "29.9", "Vertical_Datum": "", "Waterway_Distance": "203.1", "Horizontal_Units": "Statute Miles", "Object_Name": "", "Condition": "", "Information": "", "Scale_Minimum": 90000, "Source_Date": "20050408", "Source_Indication": "US,U3,USACE,LRN_GIS_Data", "Source_Dataset": "U37CR149.000", "Feature_ID": "U3 1392977970 00001"}}, {"type": "Feature", "id": 317, "geometry": {"type": "LineString", "coordinates": [[-86.6771, 36.266], [-86.6797, 36.2658]]}, "properties": {"OBJECTID": 317, "Vertical_Clearance": "34.4", "Vertical_Datum": "", "Waterway_Distance": "212.5", "Horizontal_Units": "Statute Miles", "Object_Name": "", "Condition": "", "Information": "", "Scale_Minimum": 90000, "Source_Date": "20050408", "Source_Indication": "US,U3,USACE,LRN_GIS_Data", "Source_Dataset": "U37CR149.000", "Feature_ID": "U3 1392977969 00001"}}, {"type": "Feature", "id": 318, "geometry": {"type": "LineString", "coordinates": [[-86.6611, 36.2973], [-86.659, 36.2995]]}, "properties": {"OBJECTID": 318, "Vertical_Clearance": "33.5", "Vertical_Datum": "", "Waterway_Distance": "215.8", "Horizontal_Units": "Statute Miles", "Object_Name": "", "Condition": "", "Information": "", "Scale_Minimum": 90000, "Source_Date": "20050408", "Source_Indication": "US,U3,USACE,LRN_GIS_Data", "Source_Dataset": "U37CR149.000", "Feature_ID": "U3 1392977967 00001"}}, {"type": "Feature", "id": 330, "geometry": {"type": "LineString", "coordinates": [[-86.3936, 36.3121], [-86.3849, 36.3064]]}, "properties": {"OBJECTID": 330, "Vertical_Clearance": "26.2", "Vertical_Datum": "", "Waterway_Distance": "243.7", "Horizontal_Units": "Statute Miles", "Object_Name": "", "Condition": "", "Information": "", "Scale_Minimum": 90000, "Source_Date": "20050412", "Source_Indication": "US,U3,USACE,LRN_GIS", "Source_Dataset": "U37CR221.000", "Feature_ID": "U3 1392979523 00001"}}, {"type": "Feature", "id": 331, "geometry": {"type": "LineString", "coordinates": [[-86.3986, 36.3146], [-86.3945, 36.3119]]}, "properties": {"OBJECTID": 331, "Vertical_Clearance": "Unknown", "Vertical_Datum": "", "Waterway_Distance": "243.7", "Horizontal_Units": "Statute Miles", "Object_Name": "", "Condition": "", "Information": "", "Scale_Minimum": 90000, "Source_Date": "20050412", "Source_Indication": "US,U3,USACE,LRN_GIS", "Source_Dataset": "U37CR221.000", "Feature_ID": "U3 1392979529 00001"}}, {"type": "Feature", "id": 332, "geometry": {"type": "LineString", "coordinates": [[-86.3981, 36.3131], [-86.395, 36.3106]]}, "properties": {"OBJECTID": 332, "Vertical_Clearance": "Unknown", "Vertical_Datum": "", "Waterway_Distance": "243.6", "Horizontal_Units": "Statute Miles", "Object_Name": "", "Condition": "", "Information": "", "Scale_Minimum": 90000, "Source_Date": "20050412", "Source_Indication": "US,U3,USACE,LRN_GIS", "Source_Dataset": "U37CR221.000", "Feature_ID": "U3 1392979531 00001"}}, {"type": "Feature", "id": 333, "geometry": {"type": "LineString", "coordinates": [[-86.3853, 36.3062], [-86.3941, 36.312]]}, "properties": {"OBJECTID": 333, "Vertical_Clearance": "26.2", "Vertical_Datum": "", "Waterway_Distance": "243.7", "Horizontal_Units": "Statute Miles", "Object_Name": "", "Condition": "", "Information": "", "Scale_Minimum": 90000, "Source_Date": "20050412", "Source_Indication": "US,U3,USACE,LRN_GIS", "Source_Dataset": "U37CR221.000", "Feature_ID": "U3 1392979533 00001"}}, {"type": "Feature", "id": 334, "geometry": {"type": "LineString", "coordinates": [[-86.3982, 36.315], [-86.3936, 36.3121]]}, "properties": {"OBJECTID": 334, "Vertical_Clearance": "Unknown", "Vertical_Datum": "", "Waterway_Distance": "243.7", "Horizontal_Units": "Statute Miles", "Object_Name": "", "Condition": "", "Information": "", "Scale_Minimum": 90000, "Source_Date": "20050412", "Source_Indication": "US,U3,USACE,LRN_GIS", "Source_Dataset": "U37CR221.000", "Feature_ID": "U3 1392979534 00001"}}, {"type": "Feature", "id": 335, "geometry": {"type": "LineString", "coordinates": [[-86.3941, 36.312], [-86.3985, 36.3147]]}, "properties": {"OBJECTID": 335, "Vertical_Clearance": "Unknown", "Vertical_Datum": "", "Waterway_Distance": "243.7", "Horizontal_Units": "Statute Miles", "Object_Name": "", "Condition": "", "Information": "", "Scale_Minimum": 90000, "Source_Date": "20050412", "Source_Indication": "US,U3,USACE,LRN_GIS", "Source_Dataset": "U37CR221.000", "Feature_ID": "U3 1392979537 00001"}}, {"type": "Feature", "id": 336, "geometry": {"type": "LineString", "coordinates": [[-86.3873, 36.3046], [-86.395, 36.3106]]}, "properties": {"OBJECTID": 336, "Vertical_Clearance": "26.2", "Vertical_Datum": "", "Waterway_Distance": "243.6", "Horizontal_Units": "Statute Miles", "Object_Name": "", "Condition": "", "Information": "", "Scale_Minimum": 90000, "Source_Date": "20050412", "Source_Indication": "US,U3,USACE,LRN_GIS", "Source_Dataset": "U37CR221.000", "Feature_ID": "U3 1392979538 00001"}}, {"type": "Feature", "id": 337, "geometry": {"type": "LineString", "coordinates": [[-86.3945, 36.3108], [-86.399, 36.3142]]}, "properties": {"OBJECTID": 337, "Vertical_Clearance": "Unknown", "Vertical_Datum": "", "Waterway_Distance": "243.6", "Horizontal_Units": "Statute Miles", "Object_Name": "", "Condition": "", "Information": "", "Scale_Minimum": 90000, "Source_Date": "20050412", "Source_Indication": "US,U3,USACE,LRN_GIS", "Source_Dataset": "U37CR221.000", "Feature_ID": "U3 1392979540 00001"}}, {"type": "Feature", "id": 338, "geometry": {"type": "LineString", "coordinates": [[-86.4919, 36.3135], [-86.495, 36.318], [-86.4977, 36.3183]]}, "properties": {"OBJECTID": 338, "Vertical_Clearance": "16.5", "Vertical_Datum": "", "Waterway_Distance": "235.9", "Horizontal_Units": "Statute Miles", "Object_Name": "", "Condition": "", "Information": "", "Scale_Minimum": 90000, "Source_Date": "20050412", "Source_Indication": "US,U3,USACE,LRN_GIS", "Source_Dataset": "U37CR221.000", "Feature_ID": "U3 1392979902 00001"}}, {"type": "Feature", "id": 339, "geometry": {"type": "LineString", "coordinates": [[-86.3945, 36.3119], [-86.3857, 36.3059]]}, "properties": {"OBJECTID": 339, "Vertical_Clearance": "26.2", "Vertical_Datum": "", "Waterway_Distance": "243.7", "Horizontal_Units": "Statute Miles", "Object_Name": "", "Condition": "", "Information": "", "Scale_Minimum": 90000, "Source_Date": "20050412", "Source_Indication": "US,U3,USACE,LRN_GIS", "Source_Dataset": "U37CR221.000", "Feature_ID": "U3 1392979904 00001"}}, {"type": "Feature", "id": 340, "geometry": {"type": "LineString", "coordinates": [[-86.5159, 36.2553], [-86.5183, 36.2553]]}, "properties": {"OBJECTID": 340, "Vertical_Clearance": "Unknown", "Vertical_Datum": "", "Waterway_Distance": "Unknown", "Horizontal_Units": "Statute Miles", "Object_Name": "", "Condition": "", "Information": "", "Scale_Minimum": 90000, "Source_Date": "20040930", "Source_Indication": "US,U3,USACE,LRN_GIS", "Source_Dataset": "U37CR221.000", "Feature_ID": "U3 1392979906 00001"}}, {"type": "Feature", "id": 341, "geometry": {"type": "LineString", "coordinates": [[-86.3869, 36.3048], [-86.3945, 36.3108]]}, "properties": {"OBJECTID": 341, "Vertical_Clearance": "26.2", "Vertical_Datum": "", "Waterway_Distance": "243.6", "Horizontal_Units": "Statute Miles", "Object_Name": "", "Condition": "", "Information": "", "Scale_Minimum": 90000, "Source_Date": "20050412", "Source_Indication": "US,U3,USACE,LRN_GIS", "Source_Dataset": "U37CR221.000", "Feature_ID": "U3 1392979911 00001"}}, {"type": "Feature", "id": 342, "geometry": {"type": "LineString", "coordinates": [[-86.4954, 36.2647], [-86.4956, 36.2668]]}, "properties": {"OBJECTID": 342, "Vertical_Clearance": "Unknown", "Vertical_Datum": "", "Waterway_Distance": "Unknown", "Horizontal_Units": "Statute Miles", "Object_Name": "", "Condition": "", "Information": "", "Scale_Minimum": 90000, "Source_Date": "20040930", "Source_Indication": "US,U3,USACE,LRN_GIS", "Source_Dataset": "U37CR221.000", "Feature_ID": "U3 1392979913 00001"}}, {"type": "Feature", "id": 343, "geometry": {"type": "LineString", "coordinates": [[-86.3571, 36.2718], [-86.3591, 36.2748]]}, "properties": {"OBJECTID": 343, "Vertical_Clearance": "12.2", "Vertical_Datum": "", "Waterway_Distance": "Unknown", "Horizontal_Units": "Statute Miles", "Object_Name": "", "Condition": "", "Information": "", "Scale_Minimum": 90000, "Source_Date": "20050412", "Source_Indication": "US,U3,USACE,LRN_GIS", "Source_Dataset": "U37CR221.000", "Feature_ID": "U3 1392979915 00001"}}, {"type": "Feature", "id": 344, "geometry": {"type": "LineString", "coordinates": [[-86.4891, 36.3076], [-86.4901, 36.311]]}, "properties": {"OBJECTID": 344, "Vertical_Clearance": "16.5", "Vertical_Datum": "", "Waterway_Distance": "235.9", "Horizontal_Units": "Statute Miles", "Object_Name": "", "Condition": "", "Information": "", "Scale_Minimum": 90000, "Source_Date": "20050412", "Source_Indication": "US,U3,USACE,LRN_GIS", "Source_Dataset": "U37CR221.000", "Feature_ID": "U3 1392979916 00001"}}, {"type": "Feature", "id": 345, "geometry": {"type": "LineString", "coordinates": [[-86.4901, 36.311], [-86.4919, 36.3135]]}, "properties": {"OBJECTID": 345, "Vertical_Clearance": "25", "Vertical_Datum": "", "Waterway_Distance": "235.9", "Horizontal_Units": "Statute Miles", "Object_Name": "", "Condition": "", "Information": "", "Scale_Minimum": 90000, "Source_Date": "20050412", "Source_Indication": "US,U3,USACE,LRN_GIS", "Source_Dataset": "U37CR221.000", "Feature_ID": "U3 1392979917 00001"}}, {"type": "Feature", "id": 346, "geometry": {"type": "LineString", "coordinates": [[-86.5183, 36.2554], [-86.5158, 36.2553]]}, "properties": {"OBJECTID": 346, "Vertical_Clearance": "Unknown", "Vertical_Datum": "", "Waterway_Distance": "Unknown", "Horizontal_Units": "Statute Miles", "Object_Name": "", "Condition": "", "Information": "", "Scale_Minimum": 90000, "Source_Date": "20040930", "Source_Indication": "US,U3,USACE,LRN_GIS", "Source_Dataset": "U37CR221.000", "Feature_ID": "U3 1392979918 00001"}}, {"type": "Feature", "id": 347, "geometry": {"type": "LineString", "coordinates": [[-86.6143, 36.3056], [-86.6136, 36.3057], [-86.6143, 36.3059]]}, "properties": {"OBJECTID": 347, "Vertical_Clearance": "Unknown", "Vertical_Datum": "", "Waterway_Distance": "Unknown", "Horizontal_Units": "Statute Miles", "Object_Name": "", "Condition": "", "Information": "", "Scale_Minimum": 90000, "Source_Date": "20040930", "Source_Indication": "US,U3,USACE,LRN_GIS", "Source_Dataset": "U37CR221.000", "Feature_ID": "U3 1392979919 00001"}}, {"type": "Feature", "id": 348, "geometry": {"type": "LineString", "coordinates": [[-86.0934, 36.2874], [-86.0975, 36.287]]}, "properties": {"OBJECTID": 348, "Vertical_Clearance": "27.7", "Vertical_Datum": "", "Waterway_Distance": "289.9", "Horizontal_Units": "Statute Miles", "Object_Name": "", "Condition": "", "Information": "", "Scale_Minimum": 90000, "Source_Date": "20050412", "Source_Indication": "US,U3,USACE,LRN_GIS", "Source_Dataset": "U37CR221.000", "Feature_ID": "U3 1392979920 00001"}}, {"type": "Feature", "id": 349, "geometry": {"type": "LineString", "coordinates": [[-86.0563, 36.2828], [-86.0599, 36.2836]]}, "properties": {"OBJECTID": 349, "Vertical_Clearance": "28.3", "Vertical_Datum": "", "Waterway_Distance": "293.9", "Horizontal_Units": "Statute Miles", "Object_Name": "", "Condition": "", "Information": "", "Scale_Minimum": 90000, "Source_Date": "20050412", "Source_Indication": "US,U3,USACE,LRN_GIS", "Source_Dataset": "U37CR221.000", "Feature_ID": "U3 1392979921 00001"}}, {"type": "Feature", "id": 350, "geometry": {"type": "LineString", "coordinates": [[-86.4726, 36.3566], [-86.4768, 36.3571]]}, "properties": {"OBJECTID": 350, "Vertical_Clearance": "Unknown", "Vertical_Datum": "", "Waterway_Distance": "Unknown", "Horizontal_Units": "Statute Miles", "Object_Name": "", "Condition": "", "Information": "", "Scale_Minimum": 90000, "Source_Date": "20040930", "Source_Indication": "US,U3,USACE,LRN_GIS", "Source_Dataset": "U37CR221.000", "Feature_ID": "U3 1392979922 00001"}}, {"type": "Feature", "id": 351, "geometry": {"type": "LineString", "coordinates": [[-86.3534, 36.316], [-86.3643, 36.3069]]}, "properties": {"OBJECTID": 351, "Vertical_Clearance": "25.9", "Vertical_Datum": "", "Waterway_Distance": "251.9", "Horizontal_Units": "Statute Miles", "Object_Name": "", "Condition": "", "Information": "", "Scale_Minimum": 90000, "Source_Date": "20050412", "Source_Indication": "US,U3,USACE,LRN_GIS", "Source_Dataset": "U37CR221.000", "Feature_ID": "U3 1392979923 00001"}}, {"type": "Feature", "id": 352, "geometry": {"type": "LineString", "coordinates": [[-86.4768, 36.357], [-86.4726, 36.3565]]}, "properties": {"OBJECTID": 352, "Vertical_Clearance": "Unknown", "Vertical_Datum": "", "Waterway_Distance": "Unknown", "Horizontal_Units": "Statute Miles", "Object_Name": "", "Condition": "", "Information": "", "Scale_Minimum": 90000, "Source_Date": "20040930", "Source_Indication": "US,U3,USACE,LRN_GIS", "Source_Dataset": "U37CR221.000", "Feature_ID": "U3 1392979924 00001"}}, {"type": "Feature", "id": 353, "geometry": {"type": "LineString", "coordinates": [[-86.4767, 36.3634], [-86.4787, 36.3626]]}, "properties": {"OBJECTID": 353, "Vertical_Clearance": "Unknown", "Vertical_Datum": "", "Waterway_Distance": "Unknown", "Horizontal_Units": "Statute Miles", "Object_Name": "", "Condition": "", "Information": "", "Scale_Minimum": 90000, "Source_Date": "20040930", "Source_Indication": "US,U3,USACE,LRN_GIS", "Source_Dataset": "U37CR221.000", "Feature_ID": "U3 1392979925 00001"}}, {"type": "Feature", "id": 354, "geometry": {"type": "LineString", "coordinates": [[-86.4787, 36.3626], [-86.4767, 36.3634]]}, "properties": {"OBJECTID": 354, "Vertical_Clearance": "Unknown", "Vertical_Datum": "", "Waterway_Distance": "Unknown", "Horizontal_Units": "Statute Miles", "Object_Name": "", "Condition": "", "Information": "", "Scale_Minimum": 90000, "Source_Date": "20040930", "Source_Indication": "US,U3,USACE,LRN_GIS", "Source_Dataset": "U37CR221.000", "Feature_ID": "U3 1392979926 00001"}}, {"type": "Feature", "id": 355, "geometry": {"type": "LineString", "coordinates": [[-86.0012, 36.2916], [-85.9953, 36.2926]]}, "properties": {"OBJECTID": 355, "Vertical_Clearance": "32.9", "Vertical_Datum": "", "Waterway_Distance": "302.3", "Horizontal_Units": "Statute Miles", "Object_Name": "", "Condition": "", "Information": "", "Scale_Minimum": 90000, "Source_Date": "20050412", "Source_Indication": "US,U3,USACE,LRN_GIS", "Source_Dataset": "U37CR221.000", "Feature_ID": "U3 1392979927 00001"}}, {"type": "Feature", "id": 356, "geometry": {"type": "LineString", "coordinates": [[-86.0704, 36.2628], [-86.0682, 36.26]]}, "properties": {"OBJECTID": 356, "Vertical_Clearance": "11.6", "Vertical_Datum": "", "Waterway_Distance": "Unknown", "Horizontal_Units": "Statute Miles", "Object_Name": "", "Condition": "", "Information": "", "Scale_Minimum": 90000, "Source_Date": "20040930", "Source_Indication": "US,U3,USACE,LRN_GIS", "Source_Dataset": "U37CR221.000", "Feature_ID": "U3 1392979928 00001"}}, {"type": "Feature", "id": 357, "geometry": {"type": "LineString", "coordinates": [[-86.4822, 36.366], [-86.4813, 36.3651]]}, "properties": {"OBJECTID": 357, "Vertical_Clearance": "Unknown", "Vertical_Datum": "", "Waterway_Distance": "Unknown", "Horizontal_Units": "Statute Miles", "Object_Name": "", "Condition": "", "Information": "", "Scale_Minimum": 90000, "Source_Date": "20040930", "Source_Indication": "US,U3,USACE,LRN_GIS", "Source_Dataset": "U37CR221.000", "Feature_ID": "U3 1392979929 00001"}}, {"type": "Feature", "id": 358, "geometry": {"type": "LineString", "coordinates": [[-86.4767, 36.3634], [-86.4787, 36.3626]]}, "properties": {"OBJECTID": 358, "Vertical_Clearance": "Unknown", "Vertical_Datum": "", "Waterway_Distance": "Unknown", "Horizontal_Units": "Statute Miles", "Object_Name": "", "Condition": "", "Information": "", "Scale_Minimum": 90000, "Source_Date": "20040930", "Source_Indication": "US,U3,USACE,LRN_GIS", "Source_Dataset": "U37CR221.000", "Feature_ID": "U3 1392979930 00001"}}, {"type": "Feature", "id": 359, "geometry": {"type": "LineString", "coordinates": [[-86.4724, 36.3615], [-86.4713, 36.3605]]}, "properties": {"OBJECTID": 359, "Vertical_Clearance": "Unknown", "Vertical_Datum": "", "Waterway_Distance": "Unknown", "Horizontal_Units": "Statute Miles", "Object_Name": "", "Condition": "", "Information": "", "Scale_Minimum": 90000, "Source_Date": "20040930", "Source_Indication": "US,U3,USACE,LRN_GIS", "Source_Dataset": "U37CR221.000", "Feature_ID": "U3 1392979931 00001"}}, {"type": "Feature", "id": 360, "geometry": {"type": "LineString", "coordinates": [[-86.3213, 36.2919], [-86.3264, 36.2918]]}, "properties": {"OBJECTID": 360, "Vertical_Clearance": "13.1", "Vertical_Datum": "", "Waterway_Distance": "Unknown", "Horizontal_Units": "Statute Miles", "Object_Name": "", "Condition": "", "Information": "", "Scale_Minimum": 90000, "Source_Date": "20050412", "Source_Indication": "US,U3,USACE,LRN_GIS", "Source_Dataset": "U37CR221.000", "Feature_ID": "U3 1392979932 00001"}}, {"type": "Feature", "id": 361, "geometry": {"type": "LineString", "coordinates": [[-86.0704, 36.2628], [-86.0677, 36.2641]]}, "properties": {"OBJECTID": 361, "Vertical_Clearance": "14.9", "Vertical_Datum": "", "Waterway_Distance": "Unknown", "Horizontal_Units": "Statute Miles", "Object_Name": "", "Condition": "", "Information": "", "Scale_Minimum": 90000, "Source_Date": "20040930", "Source_Indication": "US,U3,USACE,LRN_GIS", "Source_Dataset": "U37CR221.000", "Feature_ID": "U3 1392979933 00001"}}, {"type": "Feature", "id": 362, "geometry": {"type": "LineString", "coordinates": [[-86.3745, 36.2893], [-86.3765, 36.2918]]}, "properties": {"OBJECTID": 362, "Vertical_Clearance": "11.6", "Vertical_Datum": "", "Waterway_Distance": "Unknown", "Horizontal_Units": "Statute Miles", "Object_Name": "", "Condition": "", "Information": "", "Scale_Minimum": 90000, "Source_Date": "20050412", "Source_Indication": "US,U3,USACE,LRN_GIS", "Source_Dataset": "U37CR221.000", "Feature_ID": "U3 1392979934 00001"}}, {"type": "Feature", "id": 363, "geometry": {"type": "LineString", "coordinates": [[-86.3594, 36.2746], [-86.3575, 36.2718]]}, "properties": {"OBJECTID": 363, "Vertical_Clearance": "11.6", "Vertical_Datum": "", "Waterway_Distance": "Unknown", "Horizontal_Units": "Statute Miles", "Object_Name": "", "Condition": "", "Information": "", "Scale_Minimum": 90000, "Source_Date": "20050412", "Source_Indication": "US,U3,USACE,LRN_GIS", "Source_Dataset": "U37CR221.000", "Feature_ID": "U3 1392979935 00001"}}, {"type": "Feature", "id": 364, "geometry": {"type": "LineString", "coordinates": [[-86.3982, 36.3125], [-86.4028, 36.3088], [-86.4061, 36.3101], [-86.4114, 36.314], [-86.4136, 36.3166], [-86.4175, 36.3363]]}, "properties": {"OBJECTID": 364, "Vertical_Clearance": "Unknown", "Vertical_Datum": "", "Waterway_Distance": "Unknown", "Horizontal_Units": "Statute Miles", "Object_Name": "", "Condition": "", "Information": "", "Scale_Minimum": 90000, "Source_Date": "20050412", "Source_Indication": "US,U3,USACE,LRN_GIS", "Source_Dataset": "U37CR221.000", "Feature_ID": "U3 1392979936 00001"}}, {"type": "Feature", "id": 365, "geometry": {"type": "LineString", "coordinates": [[-86.3865, 36.3668], [-86.3894, 36.3658]]}, "properties": {"OBJECTID": 365, "Vertical_Clearance": "Unknown", "Vertical_Datum": "", "Waterway_Distance": "Unknown", "Horizontal_Units": "Statute Miles", "Object_Name": "", "Condition": "", "Information": "", "Scale_Minimum": 90000, "Source_Date": "20040930", "Source_Indication": "US,U3,USACE,LRN_GIS", "Source_Dataset": "U37CR221.000", "Feature_ID": "U3 1392979937 00001"}}, {"type": "Feature", "id": 366, "geometry": {"type": "LineString", "coordinates": [[-86.5206, 36.351], [-86.5182, 36.3466]]}, "properties": {"OBJECTID": 366, "Vertical_Clearance": "Unknown", "Vertical_Datum": "", "Waterway_Distance": "Unknown", "Horizontal_Units": "Statute Miles", "Object_Name": "", "Condition": "", "Information": "", "Scale_Minimum": 90000, "Source_Date": "20050412", "Source_Indication": "US,U3,USACE,LRN_GIS", "Source_Dataset": "U37CR221.000", "Feature_ID": "U3 1392979938 00001"}}, {"type": "Feature", "id": 367, "geometry": {"type": "LineString", "coordinates": [[-86.3757, 36.2889], [-86.3779, 36.2897]]}, "properties": {"OBJECTID": 367, "Vertical_Clearance": "11.6", "Vertical_Datum": "", "Waterway_Distance": "Unknown", "Horizontal_Units": "Statute Miles", "Object_Name": "", "Condition": "", "Information": "", "Scale_Minimum": 90000, "Source_Date": "20050412", "Source_Indication": "US,U3,USACE,LRN_GIS", "Source_Dataset": "U37CR221.000", "Feature_ID": "U3 1392979939 00001"}}, {"type": "Feature", "id": 368, "geometry": {"type": "LineString", "coordinates": [[-86.3999, 36.3108], [-86.3983, 36.3135], [-86.3991, 36.3141]]}, "properties": {"OBJECTID": 368, "Vertical_Clearance": "Unknown", "Vertical_Datum": "", "Waterway_Distance": "Unknown", "Horizontal_Units": "Statute Miles", "Object_Name": "", "Condition": "", "Information": "", "Scale_Minimum": 90000, "Source_Date": "20050412", "Source_Indication": "US,U3,USACE,LRN_GIS", "Source_Dataset": "U37CR221.000", "Feature_ID": "U3 1392979940 00001"}}, {"type": "Feature", "id": 369, "geometry": {"type": "LineString", "coordinates": [[-86.3747, 36.2891], [-86.3772, 36.2911]]}, "properties": {"OBJECTID": 369, "Vertical_Clearance": "11.6", "Vertical_Datum": "", "Waterway_Distance": "Unknown", "Horizontal_Units": "Statute Miles", "Object_Name": "", "Condition": "", "Information": "", "Scale_Minimum": 90000, "Source_Date": "20050412", "Source_Indication": "US,U3,USACE,LRN_GIS", "Source_Dataset": "U37CR221.000", "Feature_ID": "U3 1392979941 00001"}}, {"type": "Feature", "id": 370, "geometry": {"type": "LineString", "coordinates": [[-86.3756, 36.2892], [-86.3788, 36.2903]]}, "properties": {"OBJECTID": 370, "Vertical_Clearance": "11.6", "Vertical_Datum": "", "Waterway_Distance": "Unknown", "Horizontal_Units": "Statute Miles", "Object_Name": "", "Condition": "", "Information": "", "Scale_Minimum": 90000, "Source_Date": "20050412", "Source_Indication": "US,U3,USACE,LRN_GIS", "Source_Dataset": "U37CR221.000", "Feature_ID": "U3 1392979942 00001"}}, {"type": "Feature", "id": 371, "geometry": {"type": "LineString", "coordinates": [[-86.3895, 36.3659], [-86.3865, 36.3668]]}, "properties": {"OBJECTID": 371, "Vertical_Clearance": "Unknown", "Vertical_Datum": "", "Waterway_Distance": "Unknown", "Horizontal_Units": "Statute Miles", "Object_Name": "", "Condition": "", "Information": "", "Scale_Minimum": 90000, "Source_Date": "20040930", "Source_Indication": "US,U3,USACE,LRN_GIS", "Source_Dataset": "U37CR221.000", "Feature_ID": "U3 1392979943 00001"}}, {"type": "Feature", "id": 372, "geometry": {"type": "LineString", "coordinates": [[-85.9544, 36.2501], [-85.9567, 36.2482]]}, "properties": {"OBJECTID": 372, "Vertical_Clearance": "30.5", "Vertical_Datum": "", "Waterway_Distance": "308.2", "Horizontal_Units": "Statute Miles", "Object_Name": "", "Condition": "", "Information": "", "Scale_Minimum": 90000, "Source_Date": "20050414", "Source_Indication": "US,U3,USACE,LRN_GIS", "Source_Dataset": "U37CR307.000", "Feature_ID": "U3 1392989947 00001"}}, {"type": "Feature", "id": 373, "geometry": {"type": "LineString", "coordinates": [[-85.9602, 36.2666], [-85.9628, 36.2646], [-85.9608, 36.2604], [-85.961, 36.256]]}, "properties": {"OBJECTID": 373, "Vertical_Clearance": "30.2", "Vertical_Datum": "", "Waterway_Distance": "307", "Horizontal_Units": "Statute Miles", "Object_Name": "", "Condition": "", "Information": "", "Scale_Minimum": 90000, "Source_Date": "20050414", "Source_Indication": "US,U3,USACE,LRN_GIS", "Source_Dataset": "U37CR307.000", "Feature_ID": "U3 1392990022 00001"}}, {"type": "Feature", "id": 382, "geometry": {"type": "LineString", "coordinates": [[-85.9471, 36.2904], [-85.9425, 36.2934]]}, "properties": {"OBJECTID": 382, "Vertical_Clearance": "30.2", "Vertical_Datum": "", "Waterway_Distance": "313.6", "Horizontal_Units": "Statute Miles", "Object_Name": "", "Condition": "", "Information": "", "Scale_Minimum": 90000, "Source_Date": "20050414", "Source_Indication": "US,U3,USACE,LRN_GIS", "Source_Dataset": "U37CR307.000", "Feature_ID": "U3 1392990153 00001"}}, {"type": "Feature", "id": 383, "geometry": {"type": "LineString", "coordinates": [[-85.942, 36.244], [-85.9431, 36.2388]]}, "properties": {"OBJECTID": 383, "Vertical_Clearance": "34.7", "Vertical_Datum": "", "Waterway_Distance": "309.2", "Horizontal_Units": "Statute Miles", "Object_Name": "", "Condition": "", "Information": "", "Scale_Minimum": 90000, "Source_Date": "20050414", "Source_Indication": "US,U3,USACE,LRN_GIS", "Source_Dataset": "U37CR307.000", "Feature_ID": "U3 1392990204 00001"}}, {"type": "Feature", "id": 385, "geometry": {"type": "LineString", "coordinates": [[-85.9468, 36.2836], [-85.9432, 36.2823], [-85.9309, 36.2864], [-85.9184, 36.275], [-85.9058, 36.2607], [-85.8859, 36.2467], [-85.8763, 36.2447]]}, "properties": {"OBJECTID": 385, "Vertical_Clearance": "32.9", "Vertical_Datum": "", "Waterway_Distance": "312.9", "Horizontal_Units": "Statute Miles", "Object_Name": "", "Condition": "", "Information": "", "Scale_Minimum": 90000, "Source_Date": "20050414", "Source_Indication": "US,U3,USACE,LRN_GIS", "Source_Dataset": "U37CR307.000", "Feature_ID": "U3 1392990374 00001"}}]}