{"type": "FeatureCollection", "features": [{"type": "Feature", "id": 436, "geometry": {"type": "Point", "coordinates": [-86.5591, 36.2754]}, "properties": {"OBJECTID": 436, "Object_Name": "Utility Intake Lt (225.2)", "Information": "", "Condition": "", "Scale_Minimum": 60000, "Source_Date": "20100829", "Source_Indication": "US,U3,SURVY,Seaside_Engineering_&_Surveying,_Inc.", "Source_Dataset": "U37CR221.000", "Festure_ID": null}}, {"type": "Feature", "id": 439, "geometry": {"type": "Point", "coordinates": [-86.4901, 36.3112]}, "properties": {"OBJECTID": 439, "Object_Name": "TVA Transmission Tower Lt (235.7)", "Information": "", "Condition": "", "Scale_Minimum": 60000, "Source_Date": "20100829", "Source_Indication": "US,U3,SURVY,Seaside_Engineering_&_Surveying,_Inc.", "Source_Dataset": "U37CR221.000", "Festure_ID": null}}, {"type": "Feature", "id": 441, "geometry": {"type": "Point", "coordinates": [-86.4903, 36.3111]}, "properties": {"OBJECTID": 441, "Object_Name": "TVA Transmission Tower Lt (235.7)", "Information": "", "Condition": "", "Scale_Minimum": 60000, "Source_Date": "20100829", "Source_Indication": "US,U3,SURVY,Seaside_Engineering_&_Surveying,_Inc.", "Source_Dataset": "U37CR221.000", "Festure_ID": null}}, {"type": "Feature", "id": 443, "geometry": {"type": "Point", "coordinates": [-86.4917, 36.3135]}, "properties": {"OBJECTID": 443, "Object_Name": "TVA Transmission Tower Lt (235.7)", "Information": "", "Condition": "", "Scale_Minimum": 60000, "Source_Date": "20100829", "Source_Indication": "US,U3,SURVY,Seaside_Engineering_&_Surveying,_Inc.", "Source_Dataset": "U37CR221.000", "Festure_ID": null}}, {"type": "Feature", "id": 445, "geometry": {"type": "Point", "coordinates": [-86.4919, 36.3134]}, "properties": {"OBJECTID": 445, "Object_Name": "TVA Transmission Tower Lt (235.7)", "Information": "", "Condition": "", "Scale_Minimum": 60000, "Source_Date": "20100829", "Source_Indication": "US,U3,SURVY,Seaside_Engineering_&_Surveying,_Inc.", "Source_Dataset": "U37CR221.000", "Festure_ID": null}}]}