{"type": "FeatureCollection", "features": [{"type": "Feature", "id": 1143, "geometry": {"type": "Polygon", "coordinates": [[[-86.6756, 36.2629], [-86.6758, 36.263], [-86.6757, 36.2629], [-86.6756, 36.2629]]]}, "properties": {"OBJECTID": 1143, "Category_of_Pylon": "Bridge Pier", "Water_Level": "Always Dry", "Condition": "", "Scale_Minimum": 30000, "Source_Date": "20131113", "Source_Indication": "US,U3,SURVY,2013_SEAS_LIDAR_Mapping_Survey", "Information": "", "Source_Dataset": "U37CR149.000", "Feature_ID": "U3 1392977424 00001"}}, {"type": "Feature", "id": 1149, "geometry": {"type": "Polygon", "coordinates": [[[-86.6747, 36.264], [-86.6747, 36.2641], [-86.6747, 36.2641], [-86.6747, 36.264]]]}, "properties": {"OBJECTID": 1149, "Category_of_Pylon": "Bridge Pier", "Water_Level": "Always Dry", "Condition": "", "Scale_Minimum": 30000, "Source_Date": "20131113", "Source_Indication": "US,U3,SURVY,2013_SEAS_LIDAR_Mapping_Survey", "Information": "", "Source_Dataset": "U37CR149.000", "Feature_ID": "U3 1392977414 00001"}}, {"type": "Feature", "id": 1166, "geometry": {"type": "Polygon", "coordinates": [[[-86.6745, 36.2638], [-86.6744, 36.2637], [-86.6745, 36.2638], [-86.6745, 36.2638]]]}, "properties": {"OBJECTID": 1166, "Category_of_Pylon": "Bridge Pier", "Water_Level": "Always Dry", "Condition": "", "Scale_Minimum": 30000, "Source_Date": "20131113", "Source_Indication": "US,U3,SURVY,2013_SEAS_LIDAR_Mapping_Survey", "Information": "", "Source_Dataset": "U37CR149.000", "Feature_ID": "U3 1392977418 00001"}}, {"type": "Feature", "id": 1172, "geometry": {"type": "Polygon", "coordinates": [[[-86.6752, 36.2638], [-86.675, 36.2636], [-86.675, 36.2637], [-86.6752, 36.2638]]]}, "properties": {"OBJECTID": 1172, "Category_of_Pylon": "Bridge Pier", "Water_Level": "Always Dry", "Condition": "", "Scale_Minimum": 30000, "Source_Date": "20131113", "Source_Indication": "US,U3,SURVY,2013_SEAS_LIDAR_Mapping_Survey", "Information": "", "Source_Dataset": "U37CR149.000", "Feature_ID": "U3 1392977433 00001"}}, {"type": "Feature", "id": 1181, "geometry": {"type": "Polygon", "coordinates": [[[-86.6765, 36.2628], [-86.6764, 36.2629], [-86.6765, 36.2629], [-86.6765, 36.2628]]]}, "properties": {"OBJECTID": 1181, "Category_of_Pylon": "Bridge Pier", "Water_Level": "Always Dry", "Condition": "", "Scale_Minimum": 30000, "Source_Date": "20131113", "Source_Indication": "US,U3,SURVY,2013_SEAS_LIDAR_Mapping_Survey", "Information": "", "Source_Dataset": "U37CR149.000", "Feature_ID": "U3 1392977434 00001"}}, {"type": "Feature", "id": 1219, "geometry": {"type": "Polygon", "coordinates": [[[-86.6759, 36.2631], [-86.6758, 36.2631], [-86.676, 36.2632], [-86.6759, 36.2631]]]}, "properties": {"OBJECTID": 1219, "Category_of_Pylon": "Bridge Pier", "Water_Level": "Always Dry", "Condition": "", "Scale_Minimum": 30000, "Source_Date": "20131113", "Source_Indication": "US,U3,SURVY,2013_SEAS_LIDAR_Mapping_Survey", "Information": "", "Source_Dataset": "U37CR149.000", "Feature_ID": "U3 1392977435 00001"}}, {"type": "Feature", "id": 1222, "geometry": {"type": "Polygon", "coordinates": [[[-86.6749, 36.2635], [-86.6749, 36.2635], [-86.6748, 36.2634], [-86.6749, 36.2635]]]}, "properties": {"OBJECTID": 1222, "Category_of_Pylon": "Bridge Pier", "Water_Level": "Always Dry", "Condition": "", "Scale_Minimum": 30000, "Source_Date": "20131113", "Source_Indication": "US,U3,SURVY,2013_SEAS_LIDAR_Mapping_Survey", "Information": "", "Source_Dataset": "U37CR149.000", "Feature_ID": "U3 1392977407 00001"}}, {"type": "Feature", "id": 1224, "geometry": {"type": "Polygon", "coordinates": [[[-86.6761, 36.2626], [-86.6761, 36.2626], [-86.6762, 36.2627], [-86.6761, 36.2626]]]}, "properties": {"OBJECTID": 1224, "Category_of_Pylon": "Bridge Pier", "Water_Level": "Always Dry", "Condition": "", "Scale_Minimum": 30000, "Source_Date": "20131113", "Source_Indication": "US,U3,SURVY,2013_SEAS_LIDAR_Mapping_Survey", "Information": "", "Source_Dataset": "U37CR149.000", "Feature_ID": "U3 1392977421 00001"}}, {"type": "Feature", "id": 1227, "geometry": {"type": "Polygon", "coordinates": [[[-86.6746, 36.2639], [-86.6745, 36.2639], [-86.6746, 36.264], [-86.6746, 36.2639]]]}, "properties": {"OBJECTID": 1227, "Category_of_Pylon": "Bridge Pier", "Water_Level": "Always Dry", "Condition": "", "Scale_Minimum": 30000, "Source_Date": "20131113", "Source_Indication": "US,U3,SURVY,2013_SEAS_LIDAR_Mapping_Survey", "Information": "", "Source_Dataset": "U37CR149.000", "Feature_ID": "U3 1392977413 00001"}}, {"type": "Feature", "id": 1229, "geometry": {"type": "Polygon", "coordinates": [[[-86.6763, 36.2628], [-86.6763, 36.2628], [-86.6764, 36.2628], [-86.6763, 36.2628]]]}, "properties": {"OBJECTID": 1229, "Category_of_Pylon": "Bridge Pier", "Water_Level": "Always Dry", "Condition": "", "Scale_Minimum": 30000, "Source_Date": "20131113", "Source_Indication": "US,U3,SURVY,2013_SEAS_LIDAR_Mapping_Survey", "Information": "", "Source_Dataset": "U37CR149.000", "Feature_ID": "U3 1392977417 00001"}}, {"type": "Feature", "id": 1232, "geometry": {"type": "Polygon", "coordinates": [[[-86.4372, 36.3393], [-86.4371, 36.3394], [-86.4372, 36.3394], [-86.4372, 36.3393]]]}, "properties": {"OBJECTID": 1232, "Category_of_Pylon": "Bridge Pier", "Water_Level": "Always Dry", "Condition": "", "Scale_Minimum": 30000, "Source_Date": "20140603", "Source_Indication": "US,U3,SURVY,2014_SEAS_LIDAR_Mapping_Survey", "Information": "", "Source_Dataset": "U37CR221.000", "Feature_ID": "U3 1392979841 00001"}}, {"type": "Feature", "id": 1233, "geometry": {"type": "Polygon", "coordinates": [[[-86.4367, 36.3388], [-86.4368, 36.3388], [-86.4367, 36.3388], [-86.4367, 36.3388]]]}, "properties": {"OBJECTID": 1233, "Category_of_Pylon": "Bridge Pier", "Water_Level": "Always Dry", "Condition": "", "Scale_Minimum": 30000, "Source_Date": "20140603", "Source_Indication": "US,U3,SURVY,2014_SEAS_LIDAR_Mapping_Survey", "Information": "", "Source_Dataset": "U37CR221.000", "Feature_ID": "U3 1392979851 00001"}}, {"type": "Feature", "id": 1234, "geometry": {"type": "Polygon", "coordinates": [[[-86.4373, 36.3402], [-86.4374, 36.3402], [-86.4374, 36.3402], [-86.4373, 36.3402]]]}, "properties": {"OBJECTID": 1234, "Category_of_Pylon": "Bridge Pier", "Water_Level": "Always Dry", "Condition": "", "Scale_Minimum": 30000, "Source_Date": "20140603", "Source_Indication": "US,U3,SURVY,2014_SEAS_LIDAR_Mapping_Survey", "Information": "", "Source_Dataset": "U37CR221.000", "Feature_ID": "U3 1392979855 00001"}}, {"type": "Feature", "id": 1235, "geometry": {"type": "Polygon", "coordinates": [[[-86.4901, 36.3112], [-86.4903, 36.3111], [-86.4901, 36.3109], [-86.4901, 36.3112]]]}, "properties": {"OBJECTID": 1235, "Category_of_Pylon": "Power Transmission Pylon/Pole", "Water_Level": "Always Dry", "Condition": "", "Scale_Minimum": 30000, "Source_Date": "20040930", "Source_Indication": "US,U3,USACE,LRN_GIS", "Information": "", "Source_Dataset": "U37CR221.000", "Feature_ID": "U3 1392981112 00001"}}, {"type": "Feature", "id": 1236, "geometry": {"type": "Polygon", "coordinates": [[[-86.4917, 36.3135], [-86.492, 36.3136], [-86.4919, 36.3134], [-86.4917, 36.3135]]]}, "properties": {"OBJECTID": 1236, "Category_of_Pylon": "Power Transmission Pylon/Pole", "Water_Level": "Always Dry", "Condition": "", "Scale_Minimum": 30000, "Source_Date": "20040930", "Source_Indication": "US,U3,USACE,LRN_GIS", "Information": "", "Source_Dataset": "U37CR221.000", "Feature_ID": "U3 1392981129 00001"}}, {"type": "Feature", "id": 1237, "geometry": {"type": "Polygon", "coordinates": [[[-86.2634, 36.299], [-86.2634, 36.299], [-86.2636, 36.299], [-86.2634, 36.299]]]}, "properties": {"OBJECTID": 1237, "Category_of_Pylon": "Bridge Pier", "Water_Level": "Always Dry", "Condition": "", "Scale_Minimum": 30000, "Source_Date": "20140603", "Source_Indication": "US,U3,SURVY,2014_SEAS_LIDAR_Mapping_Survey", "Information": "", "Source_Dataset": "U37CR221.000", "Feature_ID": "U3 1392984432 00001"}}, {"type": "Feature", "id": 1238, "geometry": {"type": "Polygon", "coordinates": [[[-86.1751, 36.373], [-86.1752, 36.373], [-86.1752, 36.373], [-86.1751, 36.373]]]}, "properties": {"OBJECTID": 1238, "Category_of_Pylon": "Bridge Pier", "Water_Level": "Always Dry", "Condition": "", "Scale_Minimum": 30000, "Source_Date": "20140603", "Source_Indication": "US,U3,SURVY,2014_SEAS_LIDAR_Mapping_Survey", "Information": "", "Source_Dataset": "U37CR221.000", "Feature_ID": "U3 1392984436 00001"}}, {"type": "Feature", "id": 1239, "geometry": {"type": "Polygon", "coordinates": [[[-86.1755, 36.3722], [-86.1755, 36.3722], [-86.1753, 36.3722], [-86.1755, 36.3722]]]}, "properties": {"OBJECTID": 1239, "Category_of_Pylon": "Bridge Pier", "Water_Level": "Always Dry", "Condition": "", "Scale_Minimum": 30000, "Source_Date": "20140603", "Source_Indication": "US,U3,SURVY,2014_SEAS_LIDAR_Mapping_Survey", "Information": "", "Source_Dataset": "U37CR221.000", "Feature_ID": "U3 1392984438 00001"}}, {"type": "Feature", "id": 1240, "geometry": {"type": "Polygon", "coordinates": [[[-86.2633, 36.3011], [-86.2632, 36.3011], [-86.2632, 36.3011], [-86.2633, 36.3011]]]}, "properties": {"OBJECTID": 1240, "Category_of_Pylon": "Bridge Pier", "Water_Level": "Always Dry", "Condition": "", "Scale_Minimum": 30000, "Source_Date": "20140603", "Source_Indication": "US,U3,SURVY,2014_SEAS_LIDAR_Mapping_Survey", "Information": "", "Source_Dataset": "U37CR221.000", "Feature_ID": "U3 1392984443 00001"}}, {"type": "Feature", "id": 1241, "geometry": {"type": "Polygon", "coordinates": [[[-86.2632, 36.3002], [-86.2632, 36.3002], [-86.2635, 36.3002], [-86.2632, 36.3002]]]}, "properties": {"OBJECTID": 1241, "Category_of_Pylon": "Bridge Pier", "Water_Level": "Always Dry", "Condition": "", "Scale_Minimum": 30000, "Source_Date": "20140603", "Source_Indication": "US,U3,SURVY,2014_SEAS_LIDAR_Mapping_Survey", "Information": "", "Source_Dataset": "U37CR221.000", "Feature_ID": "U3 1392984444 00001"}}, {"type": "Feature", "id": 1242, "geometry": {"type": "Polygon", "coordinates": [[[-86.1748, 36.374], [-86.175, 36.374], [-86.1748, 36.3739], [-86.1748, 36.374]]]}, "properties": {"OBJECTID": 1242, "Category_of_Pylon": "Bridge Pier", "Water_Level": "Always Dry", "Condition": "", "Scale_Minimum": 30000, "Source_Date": "20140603", "Source_Indication": "US,U3,SURVY,2014_SEAS_LIDAR_Mapping_Survey", "Information": "", "Source_Dataset": "U37CR221.000", "Feature_ID": "U3 1392984445 00001"}}, {"type": "Feature", "id": 1243, "geometry": {"type": "Polygon", "coordinates": [[[-86.1752, 36.373], [-86.1752, 36.373], [-86.1753, 36.373], [-86.1752, 36.373]]]}, "properties": {"OBJECTID": 1243, "Category_of_Pylon": "Bridge Pier", "Water_Level": "Always Dry", "Condition": "", "Scale_Minimum": 30000, "Source_Date": "20140603", "Source_Indication": "US,U3,SURVY,2014_SEAS_LIDAR_Mapping_Survey", "Information": "", "Source_Dataset": "U37CR221.000", "Feature_ID": "U3 1392984447 00001"}}, {"type": "Feature", "id": 1244, "geometry": {"type": "Polygon", "coordinates": [[[-86.4365, 36.3372], [-86.4365, 36.3372], [-86.4365, 36.3372], [-86.4365, 36.3372]]]}, "properties": {"OBJECTID": 1244, "Category_of_Pylon": "Bridge Pier", "Water_Level": "Always Dry", "Condition": "", "Scale_Minimum": 30000, "Source_Date": "20140603", "Source_Indication": "US,U3,SURVY,2014_SEAS_LIDAR_Mapping_Survey", "Information": "", "Source_Dataset": "U37CR221.000", "Feature_ID": "U3 1392984448 00001"}}, {"type": "Feature", "id": 1245, "geometry": {"type": "Polygon", "coordinates": [[[-86.4364, 36.3367], [-86.4364, 36.3366], [-86.4361, 36.3367], [-86.4364, 36.3367]]]}, "properties": {"OBJECTID": 1245, "Category_of_Pylon": "Bridge Pier", "Water_Level": "Always Dry", "Condition": "", "Scale_Minimum": 30000, "Source_Date": "20140603", "Source_Indication": "US,U3,SURVY,2014_SEAS_LIDAR_Mapping_Survey", "Information": "", "Source_Dataset": "U37CR221.000", "Feature_ID": "U3 1392984449 00001"}}, {"type": "Feature", "id": 1246, "geometry": {"type": "Polygon", "coordinates": [[[-86.4366, 36.3371], [-86.4366, 36.3371], [-86.4366, 36.3371], [-86.4366, 36.3371]]]}, "properties": {"OBJECTID": 1246, "Category_of_Pylon": "Bridge Pier", "Water_Level": "Always Dry", "Condition": "", "Scale_Minimum": 30000, "Source_Date": "20140603", "Source_Indication": "US,U3,SURVY,2014_SEAS_LIDAR_Mapping_Survey", "Information": "", "Source_Dataset": "U37CR221.000", "Feature_ID": "U3 1392984450 00001"}}, {"type": "Feature", "id": 1247, "geometry": {"type": "Polygon", "coordinates": [[[-86.4366, 36.3374], [-86.4366, 36.3374], [-86.4366, 36.3374], [-86.4366, 36.3374]]]}, "properties": {"OBJECTID": 1247, "Category_of_Pylon": "Bridge Pier", "Water_Level": "Always Dry", "Condition": "", "Scale_Minimum": 30000, "Source_Date": "20140603", "Source_Indication": "US,U3,SURVY,2014_SEAS_LIDAR_Mapping_Survey", "Information": "", "Source_Dataset": "U37CR221.000", "Feature_ID": "U3 1392984451 00001"}}, {"type": "Feature", "id": 1248, "geometry": {"type": "Polygon", "coordinates": [[[-86.4366, 36.3373], [-86.4366, 36.3373], [-86.4366, 36.3373], [-86.4366, 36.3373]]]}, "properties": {"OBJECTID": 1248, "Category_of_Pylon": "Bridge Pier", "Water_Level": "Always Dry", "Condition": "", "Scale_Minimum": 30000, "Source_Date": "20140603", "Source_Indication": "US,U3,SURVY,2014_SEAS_LIDAR_Mapping_Survey", "Information": "", "Source_Dataset": "U37CR221.000", "Feature_ID": "U3 1392984452 00001"}}, {"type": "Feature", "id": 1249, "geometry": {"type": "Polygon", "coordinates": [[[-86.4365, 36.3372], [-86.4365, 36.3372], [-86.4365, 36.3372], [-86.4365, 36.3372]]]}, "properties": {"OBJECTID": 1249, "Category_of_Pylon": "Bridge Pier", "Water_Level": "Always Dry", "Condition": "", "Scale_Minimum": 30000, "Source_Date": "20140603", "Source_Indication": "US,U3,SURVY,2014_SEAS_LIDAR_Mapping_Survey", "Information": "", "Source_Dataset": "U37CR221.000", "Feature_ID": "U3 1392984453 00001"}}, {"type": "Feature", "id": 1250, "geometry": {"type": "Polygon", "coordinates": [[[-86.4366, 36.3375], [-86.4366, 36.3375], [-86.4366, 36.3375], [-86.4366, 36.3375]]]}, "properties": {"OBJECTID": 1250, "Category_of_Pylon": "Bridge Pier", "Water_Level": "Always Dry", "Condition": "", "Scale_Minimum": 30000, "Source_Date": "20140603", "Source_Indication": "US,U3,SURVY,2014_SEAS_LIDAR_Mapping_Survey", "Information": "", "Source_Dataset": "U37CR221.000", "Feature_ID": "U3 1392984454 00001"}}, {"type": "Feature", "id": 1251, "geometry": {"type": "Polygon", "coordinates": [[[-86.4366, 36.3372], [-86.4366, 36.3372], [-86.4366, 36.3372], [-86.4366, 36.3372]]]}, "properties": {"OBJECTID": 1251, "Category_of_Pylon": "Bridge Pier", "Water_Level": "Always Dry", "Condition": "", "Scale_Minimum": 30000, "Source_Date": "20140603", "Source_Indication": "US,U3,SURVY,2014_SEAS_LIDAR_Mapping_Survey", "Information": "", "Source_Dataset": "U37CR221.000", "Feature_ID": "U3 1392984455 00001"}}, {"type": "Feature", "id": 1252, "geometry": {"type": "Polygon", "coordinates": [[[-86.4371, 36.3404], [-86.4371, 36.3404], [-86.4371, 36.3404], [-86.4371, 36.3404]]]}, "properties": {"OBJECTID": 1252, "Category_of_Pylon": "Bridge Pier", "Water_Level": "Always Dry", "Condition": "", "Scale_Minimum": 30000, "Source_Date": "20140603", "Source_Indication": "US,U3,SURVY,2014_SEAS_LIDAR_Mapping_Survey", "Information": "", "Source_Dataset": "U37CR221.000", "Feature_ID": "U3 1392984456 00001"}}, {"type": "Feature", "id": 1253, "geometry": {"type": "Polygon", "coordinates": [[[-86.4367, 36.3375], [-86.4366, 36.3374], [-86.4366, 36.3375], [-86.4367, 36.3375]]]}, "properties": {"OBJECTID": 1253, "Category_of_Pylon": "Bridge Pier", "Water_Level": "Always Dry", "Condition": "", "Scale_Minimum": 30000, "Source_Date": "20140603", "Source_Indication": "US,U3,SURVY,2014_SEAS_LIDAR_Mapping_Survey", "Information": "", "Source_Dataset": "U37CR221.000", "Feature_ID": "U3 1392984457 00001"}}, {"type": "Feature", "id": 1254, "geometry": {"type": "Polygon", "coordinates": [[[-86.4366, 36.3376], [-86.4366, 36.3376], [-86.4366, 36.3376], [-86.4366, 36.3376]]]}, "properties": {"OBJECTID": 1254, "Category_of_Pylon": "Bridge Pier", "Water_Level": "Always Dry", "Condition": "", "Scale_Minimum": 30000, "Source_Date": "20140603", "Source_Indication": "US,U3,SURVY,2014_SEAS_LIDAR_Mapping_Survey", "Information": "", "Source_Dataset": "U37CR221.000", "Feature_ID": "U3 1392984458 00001"}}, {"type": "Feature", "id": 1255, "geometry": {"type": "Polygon", "coordinates": [[[-86.4366, 36.3373], [-86.4366, 36.3373], [-86.4365, 36.3373], [-86.4366, 36.3373]]]}, "properties": {"OBJECTID": 1255, "Category_of_Pylon": "Bridge Pier", "Water_Level": "Always Dry", "Condition": "", "Scale_Minimum": 30000, "Source_Date": "20140603", "Source_Indication": "US,U3,SURVY,2014_SEAS_LIDAR_Mapping_Survey", "Information": "", "Source_Dataset": "U37CR221.000", "Feature_ID": "U3 1392984459 00001"}}, {"type": "Feature", "id": 1256, "geometry": {"type": "Polygon", "coordinates": [[[-86.4363, 36.337], [-86.4364, 36.337], [-86.4364, 36.337], [-86.4363, 36.337]]]}, "properties": {"OBJECTID": 1256, "Category_of_Pylon": "Bridge Pier", "Water_Level": "Always Dry", "Condition": "", "Scale_Minimum": 30000, "Source_Date": "20140603", "Source_Indication": "US,U3,SURVY,2014_SEAS_LIDAR_Mapping_Survey", "Information": "", "Source_Dataset": "U37CR221.000", "Feature_ID": "U3 1392984460 00001"}}, {"type": "Feature", "id": 1257, "geometry": {"type": "Polygon", "coordinates": [[[-86.4362, 36.3371], [-86.4362, 36.3371], [-86.4362, 36.337], [-86.4362, 36.3371]]]}, "properties": {"OBJECTID": 1257, "Category_of_Pylon": "Bridge Pier", "Water_Level": "Always Dry", "Condition": "", "Scale_Minimum": 30000, "Source_Date": "20140603", "Source_Indication": "US,U3,SURVY,2014_SEAS_LIDAR_Mapping_Survey", "Information": "", "Source_Dataset": "U37CR221.000", "Feature_ID": "U3 1392984461 00001"}}, {"type": "Feature", "id": 1258, "geometry": {"type": "Polygon", "coordinates": [[[-86.4368, 36.338], [-86.4368, 36.338], [-86.4368, 36.338], [-86.4368, 36.338]]]}, "properties": {"OBJECTID": 1258, "Category_of_Pylon": "Bridge Pier", "Water_Level": "Always Dry", "Condition": "", "Scale_Minimum": 30000, "Source_Date": "20140603", "Source_Indication": "US,U3,SURVY,2014_SEAS_LIDAR_Mapping_Survey", "Information": "", "Source_Dataset": "U37CR221.000", "Feature_ID": "U3 1392984462 00001"}}, {"type": "Feature", "id": 1259, "geometry": {"type": "Polygon", "coordinates": [[[-86.4365, 36.3381], [-86.4366, 36.3381], [-86.4365, 36.3381], [-86.4365, 36.3381]]]}, "properties": {"OBJECTID": 1259, "Category_of_Pylon": "Bridge Pier", "Water_Level": "Always Dry", "Condition": "", "Scale_Minimum": 30000, "Source_Date": "20140603", "Source_Indication": "US,U3,SURVY,2014_SEAS_LIDAR_Mapping_Survey", "Information": "", "Source_Dataset": "U37CR221.000", "Feature_ID": "U3 1392984463 00001"}}, {"type": "Feature", "id": 1260, "geometry": {"type": "Polygon", "coordinates": [[[-86.4372, 36.3404], [-86.4373, 36.3404], [-86.4372, 36.3404], [-86.4372, 36.3404]]]}, "properties": {"OBJECTID": 1260, "Category_of_Pylon": "Bridge Pier", "Water_Level": "Always Dry", "Condition": "", "Scale_Minimum": 30000, "Source_Date": "20140603", "Source_Indication": "US,U3,SURVY,2014_SEAS_LIDAR_Mapping_Survey", "Information": "", "Source_Dataset": "U37CR221.000", "Feature_ID": "U3 1392984464 00001"}}, {"type": "Feature", "id": 1261, "geometry": {"type": "Polygon", "coordinates": [[[-86.4366, 36.3374], [-86.4366, 36.3374], [-86.4366, 36.3374], [-86.4366, 36.3374]]]}, "properties": {"OBJECTID": 1261, "Category_of_Pylon": "Bridge Pier", "Water_Level": "Always Dry", "Condition": "", "Scale_Minimum": 30000, "Source_Date": "20140603", "Source_Indication": "US,U3,SURVY,2014_SEAS_LIDAR_Mapping_Survey", "Information": "", "Source_Dataset": "U37CR221.000", "Feature_ID": "U3 1392984465 00001"}}, {"type": "Feature", "id": 1262, "geometry": {"type": "Polygon", "coordinates": [[[-86.4367, 36.338], [-86.4367, 36.338], [-86.4367, 36.338], [-86.4367, 36.338]]]}, "properties": {"OBJECTID": 1262, "Category_of_Pylon": "Bridge Pier", "Water_Level": "Always Dry", "Condition": "", "Scale_Minimum": 30000, "Source_Date": "20140603", "Source_Indication": "US,U3,SURVY,2014_SEAS_LIDAR_Mapping_Survey", "Information": "", "Source_Dataset": "U37CR221.000", "Feature_ID": "U3 1392984466 00001"}}, {"type": "Feature", "id": 1263, "geometry": {"type": "Polygon", "coordinates": [[[-86.4364, 36.3378], [-86.4365, 36.3377], [-86.4364, 36.3378], [-86.4364, 36.3378]]]}, "properties": {"OBJECTID": 1263, "Category_of_Pylon": "Bridge Pier", "Water_Level": "Always Dry", "Condition": "", "Scale_Minimum": 30000, "Source_Date": "20140603", "Source_Indication": "US,U3,SURVY,2014_SEAS_LIDAR_Mapping_Survey", "Information": "", "Source_Dataset": "U37CR221.000", "Feature_ID": "U3 1392984467 00001"}}, {"type": "Feature", "id": 1264, "geometry": {"type": "Polygon", "coordinates": [[[-86.437, 36.3388], [-86.437, 36.3388], [-86.4369, 36.3388], [-86.437, 36.3388]]]}, "properties": {"OBJECTID": 1264, "Category_of_Pylon": "Bridge Pier", "Water_Level": "Always Dry", "Condition": "", "Scale_Minimum": 30000, "Source_Date": "20140603", "Source_Indication": "US,U3,SURVY,2014_SEAS_LIDAR_Mapping_Survey", "Information": "", "Source_Dataset": "U37CR221.000", "Feature_ID": "U3 1392984468 00001"}}, {"type": "Feature", "id": 1265, "geometry": {"type": "Polygon", "coordinates": [[[-86.4369, 36.3385], [-86.4369, 36.3385], [-86.4369, 36.3385], [-86.4369, 36.3385]]]}, "properties": {"OBJECTID": 1265, "Category_of_Pylon": "Bridge Pier", "Water_Level": "Always Dry", "Condition": "", "Scale_Minimum": 30000, "Source_Date": "20140603", "Source_Indication": "US,U3,SURVY,2014_SEAS_LIDAR_Mapping_Survey", "Information": "", "Source_Dataset": "U37CR221.000", "Feature_ID": "U3 1392984469 00001"}}, {"type": "Feature", "id": 1266, "geometry": {"type": "Polygon", "coordinates": [[[-86.4369, 36.3385], [-86.4369, 36.3385], [-86.4369, 36.3385], [-86.4369, 36.3385]]]}, "properties": {"OBJECTID": 1266, "Category_of_Pylon": "Bridge Pier", "Water_Level": "Always Dry", "Condition": "", "Scale_Minimum": 30000, "Source_Date": "20140603", "Source_Indication": "US,U3,SURVY,2014_SEAS_LIDAR_Mapping_Survey", "Information": "", "Source_Dataset": "U37CR221.000", "Feature_ID": "U3 1392984470 00001"}}, {"type": "Feature", "id": 1267, "geometry": {"type": "Polygon", "coordinates": [[[-86.4369, 36.3386], [-86.4369, 36.3386], [-86.4369, 36.3387], [-86.4369, 36.3386]]]}, "properties": {"OBJECTID": 1267, "Category_of_Pylon": "Bridge Pier", "Water_Level": "Always Dry", "Condition": "", "Scale_Minimum": 30000, "Source_Date": "20140603", "Source_Indication": "US,U3,SURVY,2014_SEAS_LIDAR_Mapping_Survey", "Information": "", "Source_Dataset": "U37CR221.000", "Feature_ID": "U3 1392984471 00001"}}, {"type": "Feature", "id": 1268, "geometry": {"type": "Polygon", "coordinates": [[[-86.437, 36.3386], [-86.437, 36.3386], [-86.437, 36.3386], [-86.437, 36.3386]]]}, "properties": {"OBJECTID": 1268, "Category_of_Pylon": "Bridge Pier", "Water_Level": "Always Dry", "Condition": "", "Scale_Minimum": 30000, "Source_Date": "20140603", "Source_Indication": "US,U3,SURVY,2014_SEAS_LIDAR_Mapping_Survey", "Information": "", "Source_Dataset": "U37CR221.000", "Feature_ID": "U3 1392984472 00001"}}, {"type": "Feature", "id": 1269, "geometry": {"type": "Polygon", "coordinates": [[[-86.4363, 36.3374], [-86.4364, 36.3374], [-86.4363, 36.3374], [-86.4363, 36.3374]]]}, "properties": {"OBJECTID": 1269, "Category_of_Pylon": "Bridge Pier", "Water_Level": "Always Dry", "Condition": "", "Scale_Minimum": 30000, "Source_Date": "20140603", "Source_Indication": "US,U3,SURVY,2014_SEAS_LIDAR_Mapping_Survey", "Information": "", "Source_Dataset": "U37CR221.000", "Feature_ID": "U3 1392984473 00001"}}, {"type": "Feature", "id": 1270, "geometry": {"type": "Polygon", "coordinates": [[[-86.4368, 36.3381], [-86.4368, 36.3381], [-86.4368, 36.3381], [-86.4368, 36.3381]]]}, "properties": {"OBJECTID": 1270, "Category_of_Pylon": "Bridge Pier", "Water_Level": "Always Dry", "Condition": "", "Scale_Minimum": 30000, "Source_Date": "20140603", "Source_Indication": "US,U3,SURVY,2014_SEAS_LIDAR_Mapping_Survey", "Information": "", "Source_Dataset": "U37CR221.000", "Feature_ID": "U3 1392984474 00001"}}, {"type": "Feature", "id": 1271, "geometry": {"type": "Polygon", "coordinates": [[[-86.4368, 36.3383], [-86.4368, 36.3383], [-86.4368, 36.3383], [-86.4368, 36.3383]]]}, "properties": {"OBJECTID": 1271, "Category_of_Pylon": "Bridge Pier", "Water_Level": "Always Dry", "Condition": "", "Scale_Minimum": 30000, "Source_Date": "20140603", "Source_Indication": "US,U3,SURVY,2014_SEAS_LIDAR_Mapping_Survey", "Information": "", "Source_Dataset": "U37CR221.000", "Feature_ID": "U3 1392984475 00001"}}, {"type": "Feature", "id": 1272, "geometry": {"type": "Polygon", "coordinates": [[[-86.4367, 36.3384], [-86.4367, 36.3384], [-86.4366, 36.3385], [-86.4367, 36.3384]]]}, "properties": {"OBJECTID": 1272, "Category_of_Pylon": "Bridge Pier", "Water_Level": "Always Dry", "Condition": "", "Scale_Minimum": 30000, "Source_Date": "20140603", "Source_Indication": "US,U3,SURVY,2014_SEAS_LIDAR_Mapping_Survey", "Information": "", "Source_Dataset": "U37CR221.000", "Feature_ID": "U3 1392984476 00001"}}, {"type": "Feature", "id": 1273, "geometry": {"type": "Polygon", "coordinates": [[[-86.437, 36.3388], [-86.437, 36.3388], [-86.437, 36.3388], [-86.437, 36.3388]]]}, "properties": {"OBJECTID": 1273, "Category_of_Pylon": "Bridge Pier", "Water_Level": "Always Dry", "Condition": "", "Scale_Minimum": 30000, "Source_Date": "20140603", "Source_Indication": "US,U3,SURVY,2014_SEAS_LIDAR_Mapping_Survey", "Information": "", "Source_Dataset": "U37CR221.000", "Feature_ID": "U3 1392984477 00001"}}, {"type": "Feature", "id": 1274, "geometry": {"type": "Polygon", "coordinates": [[[-86.4369, 36.3394], [-86.437, 36.3394], [-86.4369, 36.3394], [-86.4369, 36.3394]]]}, "properties": {"OBJECTID": 1274, "Category_of_Pylon": "Bridge Pier", "Water_Level": "Always Dry", "Condition": "", "Scale_Minimum": 30000, "Source_Date": "20140603", "Source_Indication": "US,U3,SURVY,2014_SEAS_LIDAR_Mapping_Survey", "Information": "", "Source_Dataset": "U37CR221.000", "Feature_ID": "U3 1392984478 00001"}}, {"type": "Feature", "id": 1275, "geometry": {"type": "Polygon", "coordinates": [[[-86.4368, 36.3381], [-86.4368, 36.3381], [-86.4368, 36.3381], [-86.4368, 36.3381]]]}, "properties": {"OBJECTID": 1275, "Category_of_Pylon": "Bridge Pier", "Water_Level": "Always Dry", "Condition": "", "Scale_Minimum": 30000, "Source_Date": "20140603", "Source_Indication": "US,U3,SURVY,2014_SEAS_LIDAR_Mapping_Survey", "Information": "", "Source_Dataset": "U37CR221.000", "Feature_ID": "U3 1392984479 00001"}}, {"type": "Feature", "id": 1276, "geometry": {"type": "Polygon", "coordinates": [[[-86.4367, 36.3378], [-86.4367, 36.3378], [-86.4367, 36.3378], [-86.4367, 36.3378]]]}, "properties": {"OBJECTID": 1276, "Category_of_Pylon": "Bridge Pier", "Water_Level": "Always Dry", "Condition": "", "Scale_Minimum": 30000, "Source_Date": "20140603", "Source_Indication": "US,U3,SURVY,2014_SEAS_LIDAR_Mapping_Survey", "Information": "", "Source_Dataset": "U37CR221.000", "Feature_ID": "U3 1392984480 00001"}}, {"type": "Feature", "id": 1277, "geometry": {"type": "Polygon", "coordinates": [[[-86.4367, 36.3376], [-86.4367, 36.3376], [-86.4367, 36.3376], [-86.4367, 36.3376]]]}, "properties": {"OBJECTID": 1277, "Category_of_Pylon": "Bridge Pier", "Water_Level": "Always Dry", "Condition": "", "Scale_Minimum": 30000, "Source_Date": "20140603", "Source_Indication": "US,U3,SURVY,2014_SEAS_LIDAR_Mapping_Survey", "Information": "", "Source_Dataset": "U37CR221.000", "Feature_ID": "U3 1392984481 00001"}}, {"type": "Feature", "id": 1278, "geometry": {"type": "Polygon", "coordinates": [[[-86.4371, 36.339], [-86.437, 36.339], [-86.437, 36.339], [-86.4371, 36.339]]]}, "properties": {"OBJECTID": 1278, "Category_of_Pylon": "Bridge Pier", "Water_Level": "Always Dry", "Condition": "", "Scale_Minimum": 30000, "Source_Date": "20140603", "Source_Indication": "US,U3,SURVY,2014_SEAS_LIDAR_Mapping_Survey", "Information": "", "Source_Dataset": "U37CR221.000", "Feature_ID": "U3 1392984482 00001"}}, {"type": "Feature", "id": 1279, "geometry": {"type": "Polygon", "coordinates": [[[-86.4369, 36.3383], [-86.4369, 36.3383], [-86.4369, 36.3383], [-86.4369, 36.3383]]]}, "properties": {"OBJECTID": 1279, "Category_of_Pylon": "Bridge Pier", "Water_Level": "Always Dry", "Condition": "", "Scale_Minimum": 30000, "Source_Date": "20140603", "Source_Indication": "US,U3,SURVY,2014_SEAS_LIDAR_Mapping_Survey", "Information": "", "Source_Dataset": "U37CR221.000", "Feature_ID": "U3 1392984483 00001"}}, {"type": "Feature", "id": 1280, "geometry": {"type": "Polygon", "coordinates": [[[-86.4367, 36.3378], [-86.4367, 36.3378], [-86.4367, 36.3378], [-86.4367, 36.3378]]]}, "properties": {"OBJECTID": 1280, "Category_of_Pylon": "Bridge Pier", "Water_Level": "Always Dry", "Condition": "", "Scale_Minimum": 30000, "Source_Date": "20140603", "Source_Indication": "US,U3,SURVY,2014_SEAS_LIDAR_Mapping_Survey", "Information": "", "Source_Dataset": "U37CR221.000", "Feature_ID": "U3 1392984484 00001"}}, {"type": "Feature", "id": 1281, "geometry": {"type": "Polygon", "coordinates": [[[-85.9438, 36.2414], [-85.9437, 36.2413], [-85.9438, 36.2414], [-85.9438, 36.2414]]]}, "properties": {"OBJECTID": 1281, "Category_of_Pylon": "Bridge Pier", "Water_Level": "Always Dry", "Condition": "", "Scale_Minimum": 30000, "Source_Date": "20140603", "Source_Indication": "US,U3,SURVY,2014_SEAS_LIDAR_Mapping_Survey", "Information": "", "Source_Dataset": "U37CR307.000", "Feature_ID": "U3 1392990208 00001"}}, {"type": "Feature", "id": 1282, "geometry": {"type": "Polygon", "coordinates": [[[-85.9434, 36.2419], [-85.9434, 36.2419], [-85.9434, 36.2419], [-85.9434, 36.2419]]]}, "properties": {"OBJECTID": 1282, "Category_of_Pylon": "Bridge Pier", "Water_Level": "Always Dry", "Condition": "", "Scale_Minimum": 30000, "Source_Date": "20140603", "Source_Indication": "US,U3,SURVY,2014_SEAS_LIDAR_Mapping_Survey", "Information": "", "Source_Dataset": "U37CR307.000", "Feature_ID": "U3 1392990209 00001"}}, {"type": "Feature", "id": 1283, "geometry": {"type": "Polygon", "coordinates": [[[-85.9442, 36.2399], [-85.9445, 36.2401], [-85.9442, 36.2399], [-85.9442, 36.2399]]]}, "properties": {"OBJECTID": 1283, "Category_of_Pylon": "Bridge Pier", "Water_Level": "Always Dry", "Condition": "", "Scale_Minimum": 30000, "Source_Date": "20140603", "Source_Indication": "US,U3,SURVY,2014_SEAS_LIDAR_Mapping_Survey", "Information": "", "Source_Dataset": "U37CR307.000", "Feature_ID": "U3 1392990212 00001"}}, {"type": "Feature", "id": 1284, "geometry": {"type": "Polygon", "coordinates": [[[-85.9436, 36.242], [-85.9436, 36.242], [-85.9436, 36.242], [-85.9436, 36.242]]]}, "properties": {"OBJECTID": 1284, "Category_of_Pylon": "Bridge Pier", "Water_Level": "Always Dry", "Condition": "", "Scale_Minimum": 30000, "Source_Date": "20140603", "Source_Indication": "US,U3,SURVY,2014_SEAS_LIDAR_Mapping_Survey", "Information": "", "Source_Dataset": "U37CR307.000", "Feature_ID": "U3 1392990213 00001"}}, {"type": "Feature", "id": 1285, "geometry": {"type": "Polygon", "coordinates": [[[-85.954, 36.2489], [-85.954, 36.2489], [-85.954, 36.2489], [-85.954, 36.2489]]]}, "properties": {"OBJECTID": 1285, "Category_of_Pylon": "Bridge Pier", "Water_Level": "Always Dry", "Condition": "", "Scale_Minimum": 30000, "Source_Date": "20140603", "Source_Indication": "US,U3,SURVY,2014_SEAS_LIDAR_Mapping_Survey", "Information": "", "Source_Dataset": "U37CR307.000", "Feature_ID": "U3 1392990214 00001"}}, {"type": "Feature", "id": 1286, "geometry": {"type": "Polygon", "coordinates": [[[-85.954, 36.2489], [-85.954, 36.2489], [-85.954, 36.249], [-85.954, 36.2489]]]}, "properties": {"OBJECTID": 1286, "Category_of_Pylon": "Bridge Pier", "Water_Level": "Always Dry", "Condition": "", "Scale_Minimum": 30000, "Source_Date": "20140603", "Source_Indication": "US,U3,SURVY,2014_SEAS_LIDAR_Mapping_Survey", "Information": "", "Source_Dataset": "U37CR307.000", "Feature_ID": "U3 1392990215 00001"}}, {"type": "Feature", "id": 1287, "geometry": {"type": "Polygon", "coordinates": [[[-85.9556, 36.2478], [-85.9556, 36.2478], [-85.9556, 36.2479], [-85.9556, 36.2478]]]}, "properties": {"OBJECTID": 1287, "Category_of_Pylon": "Bridge Pier", "Water_Level": "Always Dry", "Condition": "", "Scale_Minimum": 30000, "Source_Date": "20140603", "Source_Indication": "US,U3,SURVY,2014_SEAS_LIDAR_Mapping_Survey", "Information": "", "Source_Dataset": "U37CR307.000", "Feature_ID": "U3 1392990220 00001"}}, {"type": "Feature", "id": 1288, "geometry": {"type": "Polygon", "coordinates": [[[-85.944, 36.2405], [-85.944, 36.2406], [-85.9442, 36.2406], [-85.944, 36.2405]]]}, "properties": {"OBJECTID": 1288, "Category_of_Pylon": "Bridge Pier", "Water_Level": "Always Dry", "Condition": "", "Scale_Minimum": 30000, "Source_Date": "20140603", "Source_Indication": "US,U3,SURVY,2014_SEAS_LIDAR_Mapping_Survey", "Information": "", "Source_Dataset": "U37CR307.000", "Feature_ID": "U3 1392990221 00001"}}, {"type": "Feature", "id": 1289, "geometry": {"type": "Polygon", "coordinates": [[[-85.9553, 36.2481], [-85.9552, 36.2481], [-85.9552, 36.2482], [-85.9553, 36.2481]]]}, "properties": {"OBJECTID": 1289, "Category_of_Pylon": "Bridge Pier", "Water_Level": "Always Dry", "Condition": "", "Scale_Minimum": 30000, "Source_Date": "20140603", "Source_Indication": "US,U3,SURVY,2014_SEAS_LIDAR_Mapping_Survey", "Information": "", "Source_Dataset": "U37CR307.000", "Feature_ID": "U3 1392990223 00001"}}, {"type": "Feature", "id": 1290, "geometry": {"type": "Polygon", "coordinates": [[[-85.9556, 36.2479], [-85.9556, 36.2479], [-85.9556, 36.2479], [-85.9556, 36.2479]]]}, "properties": {"OBJECTID": 1290, "Category_of_Pylon": "Bridge Pier", "Water_Level": "Always Dry", "Condition": "", "Scale_Minimum": 30000, "Source_Date": "20140603", "Source_Indication": "US,U3,SURVY,2014_SEAS_LIDAR_Mapping_Survey", "Information": "", "Source_Dataset": "U37CR307.000", "Feature_ID": "U3 1392990228 00001"}}, {"type": "Feature", "id": 1291, "geometry": {"type": "Polygon", "coordinates": [[[-85.9544, 36.2487], [-85.9544, 36.2487], [-85.9543, 36.2486], [-85.9544, 36.2487]]]}, "properties": {"OBJECTID": 1291, "Category_of_Pylon": "Bridge Pier", "Water_Level": "Always Dry", "Condition": "", "Scale_Minimum": 30000, "Source_Date": "20140603", "Source_Indication": "US,U3,SURVY,2014_SEAS_LIDAR_Mapping_Survey", "Information": "", "Source_Dataset": "U37CR307.000", "Feature_ID": "U3 1392990231 00001"}}]}