{"type": "FeatureCollection", "features": [{"type": "Feature", "id": 902, "geometry": {"type": "Point", "coordinates": [-86.4919, 36.3135]}, "properties": {"OBJECTID": 902, "Category_of_Pylon": "Power Transmission Pylon/Pole", "Water_Level": "Always Dry", "Condition": "", "Information": "", "Scale_Minimum": 30000, "Source_Date": "20040930", "Source_Indication": "US,U3,USACE,LRN_GIS", "Source_Dataset": "U37CR221.000", "Feature_ID": "U3 1392979405 00001"}}, {"type": "Feature", "id": 904, "geometry": {"type": "Point", "coordinates": [-86.4412, 36.3485]}, "properties": {"OBJECTID": 904, "Category_of_Pylon": "Power Transmission Pylon/Pole", "Water_Level": "Always Dry", "Condition": "", "Information": "", "Scale_Minimum": 30000, "Source_Date": "20040930", "Source_Indication": "US,U3,USACE,LRN_GIS", "Source_Dataset": "U37CR221.000", "Feature_ID": "U3 1392979407 00001"}}, {"type": "Feature", "id": 906, "geometry": {"type": "Point", "coordinates": [-86.4889, 36.3052]}, "properties": {"OBJECTID": 906, "Category_of_Pylon": "Power Transmission Pylon/Pole", "Water_Level": "Always Dry", "Condition": "", "Information": "", "Scale_Minimum": 30000, "Source_Date": "20040930", "Source_Indication": "US,U3,USACE,LRN_GIS", "Source_Dataset": "U37CR221.000", "Feature_ID": "U3 1392979409 00001"}}, {"type": "Feature", "id": 908, "geometry": {"type": "Point", "coordinates": [-86.4768, 36.357]}, "properties": {"OBJECTID": 908, "Category_of_Pylon": "Power Transmission Pylon/Pole", "Water_Level": "Always Dry", "Condition": "", "Information": "", "Scale_Minimum": 30000, "Source_Date": "20040930", "Source_Indication": "US,U3,USACE,LRN_GIS", "Source_Dataset": "U37CR221.000", "Feature_ID": "U3 1392979411 00001"}}, {"type": "Feature", "id": 912, "geometry": {"type": "Point", "coordinates": [-86.495, 36.318]}, "properties": {"OBJECTID": 912, "Category_of_Pylon": "Power Transmission Pylon/Pole", "Water_Level": "Always Dry", "Condition": "", "Information": "", "Scale_Minimum": 30000, "Source_Date": "20040930", "Source_Indication": "US,U3,USACE,LRN_GIS", "Source_Dataset": "U37CR221.000", "Feature_ID": "U3 1392979415 00001"}}, {"type": "Feature", "id": 919, "geometry": {"type": "Point", "coordinates": [-86.5201, 36.3502]}, "properties": {"OBJECTID": 919, "Category_of_Pylon": "Power Transmission Pylon/Pole", "Water_Level": "Always Dry", "Condition": "", "Information": "", "Scale_Minimum": 30000, "Source_Date": "20040930", "Source_Indication": "US,U3,USACE,LRN_GIS", "Source_Dataset": "U37CR221.000", "Feature_ID": "U3 1392979422 00001"}}, {"type": "Feature", "id": 921, "geometry": {"type": "Point", "coordinates": [-86.449, 36.35]}, "properties": {"OBJECTID": 921, "Category_of_Pylon": "Power Transmission Pylon/Pole", "Water_Level": "Always Dry", "Condition": "", "Information": "", "Scale_Minimum": 30000, "Source_Date": "20040930", "Source_Indication": "US,U3,USACE,LRN_GIS", "Source_Dataset": "U37CR221.000", "Feature_ID": "U3 1392979424 00001"}}, {"type": "Feature", "id": 928, "geometry": {"type": "Point", "coordinates": [-86.4768, 36.3571]}, "properties": {"OBJECTID": 928, "Category_of_Pylon": "Power Transmission Pylon/Pole", "Water_Level": "Always Dry", "Condition": "", "Information": "", "Scale_Minimum": 30000, "Source_Date": "20040930", "Source_Indication": "US,U3,USACE,LRN_GIS", "Source_Dataset": "U37CR221.000", "Feature_ID": "U3 1392979431 00001"}}, {"type": "Feature", "id": 931, "geometry": {"type": "Point", "coordinates": [-86.5175, 36.3398]}, "properties": {"OBJECTID": 931, "Category_of_Pylon": "Power Transmission Pylon/Pole", "Water_Level": "Always Dry", "Condition": "", "Information": "", "Scale_Minimum": 30000, "Source_Date": "20040930", "Source_Indication": "US,U3,USACE,LRN_GIS", "Source_Dataset": "U37CR221.000", "Feature_ID": "U3 1392979434 00001"}}, {"type": "Feature", "id": 932, "geometry": {"type": "Point", "coordinates": [-86.4956, 36.2668]}, "properties": {"OBJECTID": 932, "Category_of_Pylon": "Power Transmission Pylon/Pole", "Water_Level": "Always Dry", "Condition": "", "Information": "", "Scale_Minimum": 30000, "Source_Date": "20040930", "Source_Indication": "US,U3,USACE,LRN_GIS", "Source_Dataset": "U37CR221.000", "Feature_ID": "U3 1392979435 00001"}}, {"type": "Feature", "id": 943, "geometry": {"type": "Point", "coordinates": [-86.5158, 36.2553]}, "properties": {"OBJECTID": 943, "Category_of_Pylon": "Power Transmission Pylon/Pole", "Water_Level": "Always Dry", "Condition": "", "Information": "", "Scale_Minimum": 30000, "Source_Date": "20040930", "Source_Indication": "US,U3,USACE,LRN_GIS", "Source_Dataset": "U37CR221.000", "Feature_ID": "U3 1392979446 00001"}}, {"type": "Feature", "id": 963, "geometry": {"type": "Point", "coordinates": [-86.6143, 36.3056]}, "properties": {"OBJECTID": 963, "Category_of_Pylon": "Power Transmission Pylon/Pole", "Water_Level": "Always Dry", "Condition": "", "Information": "", "Scale_Minimum": 30000, "Source_Date": "20040930", "Source_Indication": "US,U3,USACE,LRN_GIS", "Source_Dataset": "U37CR221.000", "Feature_ID": "U3 1392979466 00001"}}, {"type": "Feature", "id": 971, "geometry": {"type": "Point", "coordinates": [-86.4891, 36.3076]}, "properties": {"OBJECTID": 971, "Category_of_Pylon": "Power Transmission Pylon/Pole", "Water_Level": "Always Dry", "Condition": "", "Information": "", "Scale_Minimum": 30000, "Source_Date": "20040930", "Source_Indication": "US,U3,USACE,LRN_GIS", "Source_Dataset": "U37CR221.000", "Feature_ID": "U3 1392979474 00001"}}, {"type": "Feature", "id": 973, "geometry": {"type": "Point", "coordinates": [-86.4943, 36.317]}, "properties": {"OBJECTID": 973, "Category_of_Pylon": "Power Transmission Pylon/Pole", "Water_Level": "Always Dry", "Condition": "", "Information": "", "Scale_Minimum": 30000, "Source_Date": "20040930", "Source_Indication": "US,U3,USACE,LRN_GIS", "Source_Dataset": "U37CR221.000", "Feature_ID": "U3 1392979478 00001"}}, {"type": "Feature", "id": 990, "geometry": {"type": "Point", "coordinates": [-86.4954, 36.2647]}, "properties": {"OBJECTID": 990, "Category_of_Pylon": "Power Transmission Pylon/Pole", "Water_Level": "Always Dry", "Condition": "", "Information": "", "Scale_Minimum": 30000, "Source_Date": "20040930", "Source_Indication": "US,U3,USACE,LRN_GIS", "Source_Dataset": "U37CR221.000", "Feature_ID": "U3 1392979501 00001"}}, {"type": "Feature", "id": 992, "geometry": {"type": "Point", "coordinates": [-86.5159, 36.2553]}, "properties": {"OBJECTID": 992, "Category_of_Pylon": "Power Transmission Pylon/Pole", "Water_Level": "Always Dry", "Condition": "", "Information": "", "Scale_Minimum": 30000, "Source_Date": "20040930", "Source_Indication": "US,U3,USACE,LRN_GIS", "Source_Dataset": "U37CR221.000", "Feature_ID": "U3 1392979503 00001"}}, {"type": "Feature", "id": 1011, "geometry": {"type": "Point", "coordinates": [-86.4486, 36.3511]}, "properties": {"OBJECTID": 1011, "Category_of_Pylon": "Power Transmission Pylon/Pole", "Water_Level": "Always Dry", "Condition": "", "Information": "", "Scale_Minimum": 30000, "Source_Date": "20040930", "Source_Indication": "US,U3,USACE,LRN_GIS", "Source_Dataset": "U37CR221.000", "Feature_ID": "U3 1392980177 00001"}}, {"type": "Feature", "id": 1020, "geometry": {"type": "Point", "coordinates": [-86.5171, 36.3423]}, "properties": {"OBJECTID": 1020, "Category_of_Pylon": "Power Transmission Pylon/Pole", "Water_Level": "Always Dry", "Condition": "", "Information": "", "Scale_Minimum": 30000, "Source_Date": "20040930", "Source_Indication": "US,U3,USACE,LRN_GIS", "Source_Dataset": "U37CR221.000", "Feature_ID": "U3 1392980201 00001"}}, {"type": "Feature", "id": 1022, "geometry": {"type": "Point", "coordinates": [-86.4849, 36.3575]}, "properties": {"OBJECTID": 1022, "Category_of_Pylon": "Power Transmission Pylon/Pole", "Water_Level": "Always Dry", "Condition": "", "Information": "", "Scale_Minimum": 30000, "Source_Date": "20040930", "Source_Indication": "US,U3,USACE,LRN_GIS", "Source_Dataset": "U37CR221.000", "Feature_ID": "U3 1392980203 00001"}}, {"type": "Feature", "id": 1023, "geometry": {"type": "Point", "coordinates": [-86.448, 36.3529]}, "properties": {"OBJECTID": 1023, "Category_of_Pylon": "Power Transmission Pylon/Pole", "Water_Level": "Always Dry", "Condition": "", "Information": "", "Scale_Minimum": 30000, "Source_Date": "20040930", "Source_Indication": "US,U3,USACE,LRN_GIS", "Source_Dataset": "U37CR221.000", "Feature_ID": "U3 1392980204 00001"}}, {"type": "Feature", "id": 1024, "geometry": {"type": "Point", "coordinates": [-86.4641, 36.3556]}, "properties": {"OBJECTID": 1024, "Category_of_Pylon": "Power Transmission Pylon/Pole", "Water_Level": "Always Dry", "Condition": "", "Information": "", "Scale_Minimum": 30000, "Source_Date": "20040930", "Source_Indication": "US,U3,USACE,LRN_GIS", "Source_Dataset": "U37CR221.000", "Feature_ID": "U3 1392980205 00001"}}, {"type": "Feature", "id": 1029, "geometry": {"type": "Point", "coordinates": [-86.5186, 36.3475]}, "properties": {"OBJECTID": 1029, "Category_of_Pylon": "Power Transmission Pylon/Pole", "Water_Level": "Always Dry", "Condition": "", "Information": "", "Scale_Minimum": 30000, "Source_Date": "20040930", "Source_Indication": "US,U3,USACE,LRN_GIS", "Source_Dataset": "U37CR221.000", "Feature_ID": "U3 1392980210 00001"}}, {"type": "Feature", "id": 1044, "geometry": {"type": "Point", "coordinates": [-86.5183, 36.2553]}, "properties": {"OBJECTID": 1044, "Category_of_Pylon": "Power Transmission Pylon/Pole", "Water_Level": "Always Dry", "Condition": "", "Information": "", "Scale_Minimum": 30000, "Source_Date": "20040930", "Source_Indication": "US,U3,USACE,LRN_GIS", "Source_Dataset": "U37CR221.000", "Feature_ID": "U3 1392980225 00001"}}, {"type": "Feature", "id": 1056, "geometry": {"type": "Point", "coordinates": [-86.6143, 36.3059]}, "properties": {"OBJECTID": 1056, "Category_of_Pylon": "Power Transmission Pylon/Pole", "Water_Level": "Always Dry", "Condition": "", "Information": "", "Scale_Minimum": 30000, "Source_Date": "20040930", "Source_Indication": "US,U3,USACE,LRN_GIS", "Source_Dataset": "U37CR221.000", "Feature_ID": "U3 1392980237 00001"}}, {"type": "Feature", "id": 1062, "geometry": {"type": "Point", "coordinates": [-86.5004, 36.3186]}, "properties": {"OBJECTID": 1062, "Category_of_Pylon": "Power Transmission Pylon/Pole", "Water_Level": "Always Dry", "Condition": "", "Information": "", "Scale_Minimum": 30000, "Source_Date": "20040930", "Source_Indication": "US,U3,USACE,LRN_GIS", "Source_Dataset": "U37CR221.000", "Feature_ID": "U3 1392980243 00001"}}, {"type": "Feature", "id": 1069, "geometry": {"type": "Point", "coordinates": [-86.4893, 36.3098]}, "properties": {"OBJECTID": 1069, "Category_of_Pylon": "Power Transmission Pylon/Pole", "Water_Level": "Always Dry", "Condition": "", "Information": "", "Scale_Minimum": 30000, "Source_Date": "20040930", "Source_Indication": "US,U3,USACE,LRN_GIS", "Source_Dataset": "U37CR221.000", "Feature_ID": "U3 1392980250 00001"}}, {"type": "Feature", "id": 1071, "geometry": {"type": "Point", "coordinates": [-86.5168, 36.3443]}, "properties": {"OBJECTID": 1071, "Category_of_Pylon": "Power Transmission Pylon/Pole", "Water_Level": "Always Dry", "Condition": "", "Information": "", "Scale_Minimum": 30000, "Source_Date": "20040930", "Source_Indication": "US,U3,USACE,LRN_GIS", "Source_Dataset": "U37CR221.000", "Feature_ID": "U3 1392980252 00001"}}, {"type": "Feature", "id": 1076, "geometry": {"type": "Point", "coordinates": [-86.4456, 36.3494]}, "properties": {"OBJECTID": 1076, "Category_of_Pylon": "Power Transmission Pylon/Pole", "Water_Level": "Always Dry", "Condition": "", "Information": "", "Scale_Minimum": 30000, "Source_Date": "20040930", "Source_Indication": "US,U3,USACE,LRN_GIS", "Source_Dataset": "U37CR221.000", "Feature_ID": "U3 1392980257 00001"}}, {"type": "Feature", "id": 1087, "geometry": {"type": "Point", "coordinates": [-86.4522, 36.3512]}, "properties": {"OBJECTID": 1087, "Category_of_Pylon": "Power Transmission Pylon/Pole", "Water_Level": "Always Dry", "Condition": "", "Information": "", "Scale_Minimum": 30000, "Source_Date": "20040930", "Source_Indication": "US,U3,USACE,LRN_GIS", "Source_Dataset": "U37CR221.000", "Feature_ID": "U3 1392980268 00001"}}, {"type": "Feature", "id": 1090, "geometry": {"type": "Point", "coordinates": [-86.4804, 36.3575]}, "properties": {"OBJECTID": 1090, "Category_of_Pylon": "Power Transmission Pylon/Pole", "Water_Level": "Always Dry", "Condition": "", "Information": "", "Scale_Minimum": 30000, "Source_Date": "20040930", "Source_Indication": "US,U3,USACE,LRN_GIS", "Source_Dataset": "U37CR221.000", "Feature_ID": "U3 1392980271 00001"}}, {"type": "Feature", "id": 1104, "geometry": {"type": "Point", "coordinates": [-86.4682, 36.356]}, "properties": {"OBJECTID": 1104, "Category_of_Pylon": "Power Transmission Pylon/Pole", "Water_Level": "Always Dry", "Condition": "", "Information": "", "Scale_Minimum": 30000, "Source_Date": "20040930", "Source_Indication": "US,U3,USACE,LRN_GIS", "Source_Dataset": "U37CR221.000", "Feature_ID": "U3 1392980285 00001"}}, {"type": "Feature", "id": 1121, "geometry": {"type": "Point", "coordinates": [-86.5183, 36.2554]}, "properties": {"OBJECTID": 1121, "Category_of_Pylon": "Power Transmission Pylon/Pole", "Water_Level": "Always Dry", "Condition": "", "Information": "", "Scale_Minimum": 30000, "Source_Date": "20040930", "Source_Indication": "US,U3,USACE,LRN_GIS", "Source_Dataset": "U37CR221.000", "Feature_ID": "U3 1392980302 00001"}}, {"type": "Feature", "id": 1123, "geometry": {"type": "Point", "coordinates": [-86.6136, 36.3057]}, "properties": {"OBJECTID": 1123, "Category_of_Pylon": "Power Transmission Pylon/Pole", "Water_Level": "Always Dry", "Condition": "", "Information": "", "Scale_Minimum": 30000, "Source_Date": "20040930", "Source_Indication": "US,U3,USACE,LRN_GIS", "Source_Dataset": "U37CR221.000", "Feature_ID": "U3 1392980304 00001"}}, {"type": "Feature", "id": 1127, "geometry": {"type": "Point", "coordinates": [-86.4977, 36.3183]}, "properties": {"OBJECTID": 1127, "Category_of_Pylon": "Power Transmission Pylon/Pole", "Water_Level": "Always Dry", "Condition": "", "Information": "", "Scale_Minimum": 30000, "Source_Date": "20040930", "Source_Indication": "US,U3,USACE,LRN_GIS", "Source_Dataset": "U37CR221.000", "Feature_ID": "U3 1392980308 00001"}}, {"type": "Feature", "id": 1128, "geometry": {"type": "Point", "coordinates": [-86.4888, 36.3033]}, "properties": {"OBJECTID": 1128, "Category_of_Pylon": "Power Transmission Pylon/Pole", "Water_Level": "Always Dry", "Condition": "", "Information": "", "Scale_Minimum": 30000, "Source_Date": "20040930", "Source_Indication": "US,U3,USACE,LRN_GIS", "Source_Dataset": "U37CR221.000", "Feature_ID": "U3 1392980309 00001"}}, {"type": "Feature", "id": 1130, "geometry": {"type": "Point", "coordinates": [-86.4495, 36.35]}, "properties": {"OBJECTID": 1130, "Category_of_Pylon": "Power Transmission Pylon/Pole", "Water_Level": "Always Dry", "Condition": "", "Information": "", "Scale_Minimum": 30000, "Source_Date": "20040930", "Source_Indication": "US,U3,USACE,LRN_GIS", "Source_Dataset": "U37CR221.000", "Feature_ID": "U3 1392980311 00001"}}, {"type": "Feature", "id": 1132, "geometry": {"type": "Point", "coordinates": [-86.4726, 36.3565]}, "properties": {"OBJECTID": 1132, "Category_of_Pylon": "Power Transmission Pylon/Pole", "Water_Level": "Always Dry", "Condition": "", "Information": "", "Scale_Minimum": 30000, "Source_Date": "20040930", "Source_Indication": "US,U3,USACE,LRN_GIS", "Source_Dataset": "U37CR221.000", "Feature_ID": "U3 1392980313 00001"}}, {"type": "Feature", "id": 1139, "geometry": {"type": "Point", "coordinates": [-86.4901, 36.311]}, "properties": {"OBJECTID": 1139, "Category_of_Pylon": "Power Transmission Pylon/Pole", "Water_Level": "Always Dry", "Condition": "", "Information": "", "Scale_Minimum": 30000, "Source_Date": "20040930", "Source_Indication": "US,U3,USACE,LRN_GIS", "Source_Dataset": "U37CR221.000", "Feature_ID": "U3 1392980320 00001"}}, {"type": "Feature", "id": 1149, "geometry": {"type": "Point", "coordinates": [-86.4726, 36.3566]}, "properties": {"OBJECTID": 1149, "Category_of_Pylon": "Power Transmission Pylon/Pole", "Water_Level": "Always Dry", "Condition": "", "Information": "", "Scale_Minimum": 30000, "Source_Date": "20040930", "Source_Indication": "US,U3,USACE,LRN_GIS", "Source_Dataset": "U37CR221.000", "Feature_ID": "U3 1392980330 00001"}}, {"type": "Feature", "id": 1150, "geometry": {"type": "Point", "coordinates": [-86.5212, 36.3521]}, "properties": {"OBJECTID": 1150, "Category_of_Pylon": "Power Transmission Pylon/Pole", "Water_Level": "Always Dry", "Condition": "", "Information": "", "Scale_Minimum": 30000, "Source_Date": "20040930", "Source_Indication": "US,U3,USACE,LRN_GIS", "Source_Dataset": "U37CR221.000", "Feature_ID": "U3 1392980331 00001"}}, {"type": "Feature", "id": 1153, "geometry": {"type": "Point", "coordinates": [-86.4487, 36.3499]}, "properties": {"OBJECTID": 1153, "Category_of_Pylon": "Power Transmission Pylon/Pole", "Water_Level": "Always Dry", "Condition": "", "Information": "", "Scale_Minimum": 30000, "Source_Date": "20040930", "Source_Indication": "US,U3,USACE,LRN_GIS", "Source_Dataset": "U37CR221.000", "Feature_ID": "U3 1392980334 00001"}}, {"type": "Feature", "id": 1157, "geometry": {"type": "Point", "coordinates": [-86.5177, 36.3459]}, "properties": {"OBJECTID": 1157, "Category_of_Pylon": "Power Transmission Pylon/Pole", "Water_Level": "Always Dry", "Condition": "", "Information": "", "Scale_Minimum": 30000, "Source_Date": "20040930", "Source_Indication": "US,U3,USACE,LRN_GIS", "Source_Dataset": "U37CR221.000", "Feature_ID": "U3 1392980338 00001"}}]}