{"type": "FeatureCollection", "features": [{"type": "Feature", "id": 304, "geometry": {"type": "LineString", "coordinates": [[-86.6872, 36.2906], [-86.6836, 36.2923], [-86.677, 36.2996]]}, "properties": {"OBJECTID": 304, "Object_Name": "L & N Railroad", "Information": "", "Scale_Minimum": 15000, "Source_Date": "20040930", "Source_Indication": "US,U3,USACE,LRN_GIS_Data", "Source_Dataset": "U37CR149.000", "Feature_ID": "U3 1392977086 00001"}}, {"type": "Feature", "id": 311, "geometry": {"type": "LineString", "coordinates": [[-86.677, 36.2996], [-86.6684, 36.3029]]}, "properties": {"OBJECTID": 311, "Object_Name": "L & N Railroad", "Information": "", "Scale_Minimum": 15000, "Source_Date": "20040930", "Source_Indication": "US,U3,USACE,LRN_GIS_Data", "Source_Dataset": "U37CR149.000", "Feature_ID": "U3 1392977092 00001"}}, {"type": "Feature", "id": 316, "geometry": {"type": "LineString", "coordinates": [[-86.3939, 36.3233], [-86.394, 36.323]]}, "properties": {"OBJECTID": 316, "Object_Name": "Seaboard System Railroad", "Information": "", "Scale_Minimum": 15000, "Source_Date": "20040930", "Source_Indication": "US,U3,USACE,LRN_GIS", "Source_Dataset": "U37CR221.000", "Feature_ID": "U3 1392979878 00001"}}, {"type": "Feature", "id": 317, "geometry": {"type": "LineString", "coordinates": [[-86.3938, 36.3235], [-86.3937, 36.3238]]}, "properties": {"OBJECTID": 317, "Object_Name": "Seaboard System Railroad", "Information": "", "Scale_Minimum": 15000, "Source_Date": "20040930", "Source_Indication": "US,U3,USACE,LRN_GIS", "Source_Dataset": "U37CR221.000", "Feature_ID": "U3 1392979880 00001"}}, {"type": "Feature", "id": 318, "geometry": {"type": "LineString", "coordinates": [[-86.3939, 36.3229], [-86.3938, 36.3232]]}, "properties": {"OBJECTID": 318, "Object_Name": "Seaboard System Railroad", "Information": "", "Scale_Minimum": 15000, "Source_Date": "20040930", "Source_Indication": "US,U3,USACE,LRN_GIS", "Source_Dataset": "U37CR221.000", "Feature_ID": "U3 1392979884 00001"}}, {"type": "Feature", "id": 319, "geometry": {"type": "LineString", "coordinates": [[-86.4182, 36.3338], [-86.4158, 36.3356]]}, "properties": {"OBJECTID": 319, "Object_Name": "", "Information": "", "Scale_Minimum": 15000, "Source_Date": "20040930", "Source_Indication": "US,U3,USACE,LRN_GIS", "Source_Dataset": "U37CR221.000", "Feature_ID": "U3 1392979887 00001"}}, {"type": "Feature", "id": 320, "geometry": {"type": "LineString", "coordinates": [[-86.394, 36.3229], [-86.3931, 36.3279], [-86.3944, 36.3321]]}, "properties": {"OBJECTID": 320, "Object_Name": "Seaboard System Railroad", "Information": "", "Scale_Minimum": 15000, "Source_Date": "20040930", "Source_Indication": "US,U3,USACE,LRN_GIS", "Source_Dataset": "U37CR221.000", "Feature_ID": "U3 1392979890 00001"}}, {"type": "Feature", "id": 321, "geometry": {"type": "LineString", "coordinates": [[-86.3938, 36.3232], [-86.3938, 36.3229]]}, "properties": {"OBJECTID": 321, "Object_Name": "Seaboard System Railroad", "Information": "", "Scale_Minimum": 15000, "Source_Date": "20040930", "Source_Indication": "US,U3,USACE,LRN_GIS", "Source_Dataset": "U37CR221.000", "Feature_ID": "U3 1392979891 00001"}}, {"type": "Feature", "id": 322, "geometry": {"type": "LineString", "coordinates": [[-86.3938, 36.3235], [-86.3941, 36.323]]}, "properties": {"OBJECTID": 322, "Object_Name": "Seaboard System Railroad", "Information": "", "Scale_Minimum": 15000, "Source_Date": "20040930", "Source_Indication": "US,U3,USACE,LRN_GIS", "Source_Dataset": "U37CR221.000", "Feature_ID": "U3 1392979892 00001"}}, {"type": "Feature", "id": 323, "geometry": {"type": "LineString", "coordinates": [[-86.394, 36.3229], [-86.3939, 36.3229]]}, "properties": {"OBJECTID": 323, "Object_Name": "Seaboard System Railroad", "Information": "", "Scale_Minimum": 15000, "Source_Date": "20040930", "Source_Indication": "US,U3,USACE,LRN_GIS", "Source_Dataset": "U37CR221.000", "Feature_ID": "U3 1392979899 00001"}}]}