{"type": "FeatureCollection", "features": [{"type": "Feature", "id": 82, "geometry": {"type": "LineString", "coordinates": [[-87.0623, 36.2501], [-87.0396, 36.2395], [-87.0357, 36.2368], [-87.0301, 36.2305], [-87.0245, 36.2258], [-87.0086, 36.2165], [-86.9898, 36.2107], [-86.9774, 36.2087], [-86.9638, 36.2077], [-86.9501, 36.2047], [-86.947, 36.2028], [-86.943, 36.1989], [-86.9413, 36.1953], [-86.9423, 36.1818], [-86.9414, 36.1647], [-86.9398, 36.1544], [-86.9255, 36.1396], [-86.9201, 36.1376], [-86.9063, 36.1356], [-86.8984, 36.1375], [-86.8927, 36.1424], [-86.889, 36.1522], [-86.8881, 36.1581], [-86.8886, 36.1623], [-86.8906, 36.1658], [-86.8957, 36.1712], [-86.904, 36.1778], [-86.9111, 36.1859], [-86.9126, 36.1887], [-86.9127, 36.1934], [-86.9099, 36.1991], [-86.9064, 36.2037], [-86.901, 36.2067], [-86.8958, 36.207], [-86.8913, 36.2059], [-86.8845, 36.2029], [-86.8795, 36.1996], [-86.8725, 36.1933], [-86.8601, 36.1759], [-86.8539, 36.1704], [-86.8476, 36.1673], [-86.8412, 36.1668], [-86.8379, 36.1689], [-86.8337, 36.1758], [-86.8296, 36.1885], [-86.8227, 36.1963], [-86.8144, 36.201], [-86.8047, 36.2023], [-86.7922, 36.2005], [-86.7853, 36.196], [-86.7824, 36.1912], [-86.7809, 36.1769], [-86.774, 36.1642], [-86.7724, 36.1623], [-86.769, 36.1604], [-86.7652, 36.159], [-86.7595, 36.159], [-86.7361, 36.1638], [-86.7196, 36.1652], [-86.714, 36.167], [-86.7086, 36.1707], [-86.7007, 36.1797], [-86.6945, 36.1851], [-86.6904, 36.1907], [-86.6902, 36.1923], [-86.6913, 36.1948], [-86.6999, 36.2088], [-86.7063, 36.2173], [-86.709, 36.2264], [-86.7129, 36.2346], [-86.7129, 36.2373], [-86.7118, 36.2395], [-86.7066, 36.244], [-86.703, 36.2455], [-86.6947, 36.2464], [-86.6896, 36.2455], [-86.6857, 36.2433], [-86.6841, 36.2413], [-86.6782, 36.2282], [-86.6761, 36.2058], [-86.6695, 36.1945], [-86.6661, 36.193], [-86.6589, 36.1939], [-86.6543, 36.1956], [-86.647, 36.1998], [-86.6428, 36.2034], [-86.6399, 36.2069], [-86.639, 36.2093], [-86.6466, 36.2312], [-86.6496, 36.2362], [-86.6572, 36.2436], [-86.6614, 36.2501], [-86.6699, 36.2562], [-86.6748, 36.2626], [-86.6795, 36.2665], [-86.6824, 36.2707], [-86.6865, 36.2791], [-86.687, 36.2851], [-86.6856, 36.2887], [-86.6791, 36.2969], [-86.6737, 36.3006], [-86.6694, 36.301], [-86.6638, 36.2997], [-86.6522, 36.293], [-86.6465, 36.2851], [-86.6436, 36.2792], [-86.6422, 36.2623], [-86.6401, 36.2561], [-86.6352, 36.2533], [-86.6208, 36.2475]]}, "properties": {"OBJECTID": 82, "Category_of_Recommended_Track": "Not Based on a System of Fixed Marks", "Traffic_Flow": "Two-Way", "Information": "", "Scale_Minimum": 45000, "Source_Date": "20131231", "Source_Indication": "US,U3,OTHER,2013_USCG_AIS", "Source_Dataset": "U37CR149.000", "Feature_ID": "U3 1392991977 00001"}}, {"type": "Feature", "id": 83, "geometry": {"type": "LineString", "coordinates": [[-86.6208, 36.2475], [-86.6106, 36.2443], [-86.5948, 36.2454], [-86.5807, 36.2507], [-86.5732, 36.2568], [-86.5631, 36.2711], [-86.558, 36.2801], [-86.5585, 36.2838], [-86.5638, 36.2997], [-86.5642, 36.306], [-86.5578, 36.3145], [-86.5539, 36.3185], [-86.5507, 36.3204], [-86.5456, 36.3214], [-86.5438, 36.3207], [-86.542, 36.3187], [-86.5397, 36.3108], [-86.5396, 36.297], [-86.5379, 36.2911], [-86.5332, 36.2838], [-86.5279, 36.2796], [-86.5225, 36.2778], [-86.5198, 36.2796], [-86.5179, 36.2823], [-86.5126, 36.2989], [-86.5103, 36.302], [-86.498, 36.3096], [-86.491, 36.3122], [-86.4835, 36.3162], [-86.4558, 36.3338], [-86.44, 36.3393], [-86.4355, 36.34], [-86.4318, 36.3396], [-86.424, 36.3364], [-86.4196, 36.3337], [-86.4176, 36.3284], [-86.4181, 36.3243]]}, "properties": {"OBJECTID": 83, "Category_of_Recommended_Track": "Not Based on a System of Fixed Marks", "Traffic_Flow": "Two-Way", "Information": "", "Scale_Minimum": 45000, "Source_Date": "20131231", "Source_Indication": "US,U3,OTHER,2013_USCG_AIS", "Source_Dataset": "U37CR221.000", "Feature_ID": "U3 1392991977 00001"}}, {"type": "Feature", "id": 84, "geometry": {"type": "LineString", "coordinates": [[-85.9667, 36.2683], [-85.9759, 36.2696], [-85.9888, 36.2686], [-85.9946, 36.2671], [-86.0022, 36.2662], [-86.0086, 36.267], [-86.0098, 36.2702], [-86.0088, 36.2739], [-86.0055, 36.2815], [-85.9998, 36.2884], [-85.9977, 36.2923], [-86.0011, 36.2971], [-86.0098, 36.3015], [-86.0149, 36.3019], [-86.0186, 36.3002], [-86.0297, 36.2887], [-86.0344, 36.2858], [-86.0365, 36.2858], [-86.0429, 36.2889], [-86.0471, 36.2929], [-86.0499, 36.2997], [-86.05, 36.3065], [-86.0509, 36.3087], [-86.055, 36.3121], [-86.0595, 36.3129], [-86.0642, 36.3117], [-86.0674, 36.31], [-86.0688, 36.3082], [-86.0697, 36.3046], [-86.0662, 36.3012], [-86.0576, 36.2968], [-86.0541, 36.2942], [-86.0527, 36.2907], [-86.0529, 36.2872], [-86.0578, 36.2821], [-86.0602, 36.2777], [-86.0619, 36.2714], [-86.0664, 36.2668], [-86.0702, 36.2641], [-86.0732, 36.2631], [-86.0798, 36.265], [-86.088, 36.273], [-86.0947, 36.2852], [-86.0965, 36.29], [-86.0969, 36.2941], [-86.0955, 36.2977], [-86.0905, 36.3042], [-86.0798, 36.3126], [-86.0698, 36.3245], [-86.0672, 36.3309], [-86.0677, 36.3346], [-86.0693, 36.3379], [-86.0721, 36.3399], [-86.0789, 36.3417], [-86.0991, 36.3418], [-86.1061, 36.3441], [-86.1253, 36.3468], [-86.1331, 36.3488], [-86.1485, 36.3482], [-86.1558, 36.3494], [-86.1582, 36.3514], [-86.1605, 36.3572], [-86.1655, 36.3649], [-86.1684, 36.3714], [-86.1756, 36.3736], [-86.1793, 36.3735], [-86.1823, 36.372], [-86.184, 36.3667], [-86.1833, 36.3503], [-86.177, 36.3338], [-86.1762, 36.3286], [-86.1762, 36.3272], [-86.1806, 36.3218], [-86.1846, 36.3195], [-86.189, 36.3202], [-86.192, 36.3218], [-86.201, 36.3292], [-86.2049, 36.3334], [-86.2066, 36.3371], [-86.2059, 36.3516], [-86.2089, 36.362], [-86.2089, 36.3723], [-86.2119, 36.3756], [-86.2145, 36.3766], [-86.2163, 36.3765], [-86.222, 36.3741], [-86.2237, 36.3722], [-86.2221, 36.3596], [-86.2251, 36.3549], [-86.2351, 36.3444], [-86.2438, 36.3373], [-86.2464, 36.3335], [-86.2483, 36.328], [-86.2474, 36.3154], [-86.2491, 36.3069], [-86.2534, 36.3027], [-86.2606, 36.3], [-86.2634, 36.2998], [-86.2654, 36.3006], [-86.2715, 36.3072], [-86.2733, 36.3103], [-86.2731, 36.3148], [-86.268, 36.3218], [-86.2646, 36.3298], [-86.2661, 36.3382], [-86.269, 36.3444], [-86.2726, 36.3479], [-86.2764, 36.3489], [-86.2841, 36.3479], [-86.288, 36.3465], [-86.2955, 36.3389], [-86.297, 36.3341], [-86.2969, 36.3221], [-86.2978, 36.3166], [-86.2994, 36.3139], [-86.3017, 36.3128], [-86.3097, 36.3137], [-86.3219, 36.3178], [-86.3317, 36.3193], [-86.3426, 36.3157], [-86.3554, 36.3094], [-86.3582, 36.3089], [-86.3612, 36.3095], [-86.3624, 36.3126], [-86.3606, 36.3161], [-86.3569, 36.3198], [-86.3528, 36.3213], [-86.3462, 36.3263], [-86.3456, 36.3292], [-86.3461, 36.3405], [-86.3478, 36.3467], [-86.3504, 36.35], [-86.3576, 36.3553], [-86.3646, 36.3587], [-86.3672, 36.358], [-86.3768, 36.3515], [-86.3807, 36.3452], [-86.3867, 36.3376], [-86.3904, 36.3264], [-86.3894, 36.3129], [-86.3903, 36.3104], [-86.3917, 36.3088], [-86.4001, 36.306], [-86.4043, 36.306], [-86.4073, 36.3074], [-86.4152, 36.3137], [-86.418, 36.3206], [-86.4181, 36.3243]]}, "properties": {"OBJECTID": 84, "Category_of_Recommended_Track": "Not Based on a System of Fixed Marks", "Traffic_Flow": "Two-Way", "Information": "", "Scale_Minimum": 45000, "Source_Date": "20040930", "Source_Indication": "US,U3,USACE,LRN_GIS", "Source_Dataset": "U37CR221.000", "Feature_ID": "U3 1392991983 00001"}}, {"type": "Feature", "id": 85, "geometry": {"type": "LineString", "coordinates": [[-85.5139, 36.5539], [-85.5176, 36.5481], [-85.5176, 36.5449], [-85.5193, 36.5385], [-85.5216, 36.5342], [-85.524, 36.5323], [-85.5348, 36.5283], [-85.5395, 36.525], [-85.5414, 36.5219], [-85.5448, 36.5129], [-85.5471, 36.5095], [-85.5515, 36.5082], [-85.5654, 36.5102], [-85.5735, 36.5103], [-85.5782, 36.5097], [-85.5805, 36.5083], [-85.5818, 36.5048], [-85.5801, 36.5013], [-85.5778, 36.4989], [-85.5704, 36.4939], [-85.5656, 36.4881], [-85.5655, 36.4856], [-85.5668, 36.4835], [-85.5701, 36.4818], [-85.575, 36.4809], [-85.5822, 36.4819], [-85.586, 36.4841], [-85.5894, 36.4885], [-85.5976, 36.4966], [-85.6024, 36.497], [-85.6066, 36.4945], [-85.6083, 36.4901], [-85.6087, 36.4856], [-85.6052, 36.4782], [-85.5971, 36.4692], [-85.5875, 36.4667], [-85.578, 36.4616], [-85.577, 36.4589], [-85.5778, 36.4545], [-85.5837, 36.4454], [-85.588, 36.4418], [-85.5939, 36.4402], [-85.6086, 36.4407], [-85.6196, 36.4402], [-85.6267, 36.4391], [-85.638, 36.4363], [-85.6467, 36.4304], [-85.6488, 36.4272], [-85.6489, 36.4217], [-85.6406, 36.4048], [-85.6389, 36.3979], [-85.6394, 36.3937], [-85.6421, 36.3839], [-85.6441, 36.3792], [-85.6474, 36.375], [-85.6508, 36.3739], [-85.6571, 36.3737], [-85.6636, 36.376], [-85.6696, 36.3807], [-85.6713, 36.3866], [-85.6707, 36.3985], [-85.6725, 36.4078], [-85.6764, 36.4091], [-85.685, 36.4083], [-85.6889, 36.407], [-85.6959, 36.4042], [-85.7004, 36.3982], [-85.7029, 36.392], [-85.7041, 36.3823], [-85.702, 36.377], [-85.699, 36.3737], [-85.6915, 36.3714], [-85.6842, 36.3672], [-85.6811, 36.3618], [-85.6824, 36.3589], [-85.6982, 36.3529], [-85.7074, 36.3472], [-85.7182, 36.3444], [-85.7212, 36.3452], [-85.7391, 36.3563], [-85.7514, 36.3591], [-85.7581, 36.3584], [-85.7671, 36.3548], [-85.7689, 36.3538], [-85.7716, 36.3504], [-85.7736, 36.3466], [-85.7745, 36.3421], [-85.7744, 36.3377], [-85.7734, 36.335], [-85.7711, 36.3324], [-85.7668, 36.3297], [-85.7553, 36.3256], [-85.746, 36.3199], [-85.7449, 36.3185], [-85.7446, 36.3164], [-85.7467, 36.3119], [-85.7593, 36.3064], [-85.7649, 36.3056], [-85.7815, 36.3107], [-85.7923, 36.3178], [-85.8045, 36.3204], [-85.8105, 36.3195], [-85.8138, 36.3054], [-85.8067, 36.2865], [-85.8031, 36.2685], [-85.8035, 36.2571], [-85.8051, 36.2523], [-85.8068, 36.2502], [-85.8104, 36.2491], [-85.8144, 36.2491], [-85.8192, 36.2498], [-85.8243, 36.2517], [-85.8273, 36.2548], [-85.8336, 36.2652], [-85.8345, 36.2761], [-85.8369, 36.281], [-85.8481, 36.2892], [-85.8567, 36.2969], [-85.8693, 36.3038], [-85.873, 36.305], [-85.8789, 36.3035], [-85.8858, 36.2981], [-85.8896, 36.2933], [-85.8904, 36.29], [-85.8893, 36.2853], [-85.8836, 36.2773], [-85.8807, 36.2697], [-85.8748, 36.26], [-85.8734, 36.2544], [-85.8756, 36.2528], [-85.8809, 36.2521], [-85.8886, 36.253], [-85.9033, 36.2622], [-85.905, 36.2652], [-85.9067, 36.2744], [-85.9121, 36.2805], [-85.9137, 36.2842], [-85.9144, 36.2947], [-85.918, 36.3042], [-85.9197, 36.3064], [-85.9229, 36.3078], [-85.9289, 36.3077], [-85.9411, 36.3048], [-85.9463, 36.3019], [-85.9491, 36.2975], [-85.948, 36.2947], [-85.9413, 36.2893], [-85.935, 36.2818], [-85.9251, 36.2759], [-85.9238, 36.266], [-85.9244, 36.2539], [-85.9285, 36.2471], [-85.9393, 36.24], [-85.9414, 36.2399], [-85.9444, 36.2412], [-85.9551, 36.2487], [-85.9586, 36.255], [-85.9613, 36.2639], [-85.9633, 36.2669], [-85.9667, 36.2683]]}, "properties": {"OBJECTID": 85, "Category_of_Recommended_Track": "Not Based on a System of Fixed Marks", "Traffic_Flow": "Two-Way", "Information": "", "Scale_Minimum": 45000, "Source_Date": "20040930", "Source_Indication": "US,U3,USACE,LRN_GIS", "Source_Dataset": "U37CR307.000", "Feature_ID": "U3 1392991983 00001"}}]}