{"type": "FeatureCollection", "features": [{"type": "Feature", "id": 109, "geometry": {"type": "Polygon", "coordinates": [[[-86.6577, 36.2984], [-86.6587, 36.2973], [-86.6563, 36.296], [-86.6556, 36.2977], [-86.6577, 36.2984]]]}, "properties": {"OBJECTID": 109, "Category_of_Restricted_Area": "Navigational Aid Safety Zone", "Object_Name": "", "Restriction": "Entry Restricted", "Information": "All waters immediately above and below each dam are designated as restricted areas.", "Scale_Minimum": 75000, "Source_Date": "20131113", "Source_Indication": "US,U3,SURVY,2013_SEAS_LIDAR_Mapping_Survey", "Source_Dataset": "U37CR149.000", "Feature_ID": "U3 1617887497 00001"}}, {"type": "Feature", "id": 111, "geometry": {"type": "Polygon", "coordinates": [[[-86.6533, 36.297], [-86.655, 36.2976], [-86.6562, 36.2959], [-86.6549, 36.2951], [-86.6533, 36.297]]]}, "properties": {"OBJECTID": 111, "Category_of_Restricted_Area": "Navigational Aid Safety Zone", "Object_Name": "", "Restriction": "Entry Restricted", "Information": "All waters immediately above and below each dam are designated as restricted areas.", "Scale_Minimum": 75000, "Source_Date": "20131113", "Source_Indication": "US,U3,SURVY,2013_SEAS_LIDAR_Mapping_Survey", "Source_Dataset": "U37CR149.000", "Feature_ID": "U3 1617887500 00001"}}, {"type": "Feature", "id": 113, "geometry": {"type": "Polygon", "coordinates": [[[-85.9412, 36.2888], [-85.9431, 36.2905], [-85.9442, 36.2893], [-85.9423, 36.2879], [-85.9412, 36.2888]]]}, "properties": {"OBJECTID": 113, "Category_of_Restricted_Area": "Navigational Aid Safety Zone", "Object_Name": "", "Restriction": "Entry Restricted", "Information": "All waters immediately above and below the dam are designated as restricted areas.", "Scale_Minimum": 75000, "Source_Date": "20140604", "Source_Indication": "US,U3,SURVY,2014_SEAS_LIDAR_Mapping_Survey", "Source_Dataset": "U37CR307.000", "Feature_ID": "U3 1392990211 00001"}}, {"type": "Feature", "id": 114, "geometry": {"type": "Polygon", "coordinates": [[[-85.9432, 36.2907], [-85.9443, 36.2918], [-85.9459, 36.2905], [-85.9448, 36.2894], [-85.9432, 36.2907]]]}, "properties": {"OBJECTID": 114, "Category_of_Restricted_Area": "Navigational Aid Safety Zone", "Object_Name": "", "Restriction": "Entry Restricted", "Information": "All waters immediately above and below the dam are designated as restricted areas.", "Scale_Minimum": 75000, "Source_Date": "20140604", "Source_Indication": "US,U3,SURVY,2014_SEAS_LIDAR_Mapping_Survey", "Source_Dataset": "U37CR307.000", "Feature_ID": "U3 1392990219 00001"}}]}