{"type": "FeatureCollection", "features": [{"type": "Feature", "id": 665, "geometry": {"type": "Polygon", "coordinates": [[[-86.4542, 36.2811], [-86.4565, 36.2817], [-86.4582, 36.2805], [-86.4552, 36.2789], [-86.4546, 36.2762], [-86.4537, 36.2755], [-86.4525, 36.2766], [-86.4515, 36.2746], [-86.4493, 36.2742], [-86.4507, 36.2783], [-86.4542, 36.2811]], [[-86.4493, 36.2746], [-86.4494, 36.2744], [-86.4495, 36.2749], [-86.4493, 36.2746]], [[-86.4498, 36.2748], [-86.45, 36.2744], [-86.45, 36.2753], [-86.4498, 36.2748]], [[-86.4502, 36.2753], [-86.4505, 36.2749], [-86.451, 36.2768], [-86.4502, 36.2753]], [[-86.4519, 36.2761], [-86.4514, 36.2764], [-86.4507, 36.2749], [-86.4515, 36.2748], [-86.4519, 36.2761]]]}, "properties": {"OBJECTID": 665, "Object_Name": "", "Information": "", "Scale_Minimum": 60000, "Source_Date": "20050412", "Source_Indication": "US,U3,USACE,LRN_GIS", "Source_Dataset": "U37CR221.000", "Feature_ID": "U3 1392981044 00001"}}, {"type": "Feature", "id": 672, "geometry": {"type": "Polygon", "coordinates": [[[-86.5125, 36.3496], [-86.512, 36.3496], [-86.5136, 36.3508], [-86.5164, 36.3513], [-86.5218, 36.3494], [-86.5223, 36.3487], [-86.5218, 36.348], [-86.5232, 36.3487], [-86.5256, 36.3481], [-86.5222, 36.3481], [-86.5252, 36.3468], [-86.5246, 36.3466], [-86.5175, 36.3485], [-86.5156, 36.3497], [-86.5125, 36.3496]]]}, "properties": {"OBJECTID": 672, "Object_Name": "West Fork Station Camp Creek", "Information": "", "Scale_Minimum": 60000, "Source_Date": "20050412", "Source_Indication": "US,U3,USACE,LRN_GIS", "Source_Dataset": "U37CR221.000", "Feature_ID": "U3 1392981066 00001"}}, {"type": "Feature", "id": 675, "geometry": {"type": "Polygon", "coordinates": [[[-86.6096, 36.2912], [-86.6105, 36.2924], [-86.6122, 36.2908], [-86.6096, 36.2912]]]}, "properties": {"OBJECTID": 675, "Object_Name": "", "Information": "", "Scale_Minimum": 60000, "Source_Date": "20050412", "Source_Indication": "US,U3,USACE,LRN_GIS", "Source_Dataset": "U37CR221.000", "Feature_ID": "U3 1392981084 00001"}}, {"type": "Feature", "id": 676, "geometry": {"type": "Polygon", "coordinates": [[[-86.4985, 36.2889], [-86.4936, 36.2876], [-86.4939, 36.2882], [-86.4923, 36.2887], [-86.488, 36.2864], [-86.4923, 36.2888], [-86.494, 36.2883], [-86.4964, 36.2902], [-86.4983, 36.2901], [-86.4985, 36.2889]]]}, "properties": {"OBJECTID": 676, "Object_Name": "Lone Branch", "Information": "", "Scale_Minimum": 60000, "Source_Date": "20050412", "Source_Indication": "US,U3,USACE,LRN_GIS", "Source_Dataset": "U37CR221.000", "Feature_ID": "U3 1392981087 00001"}}, {"type": "Feature", "id": 679, "geometry": {"type": "Polygon", "coordinates": [[[-86.5719, 36.2455], [-86.573, 36.2441], [-86.5719, 36.2426], [-86.5705, 36.2443], [-86.5677, 36.2431], [-86.5647, 36.2405], [-86.5655, 36.2431], [-86.5669, 36.2444], [-86.569, 36.2449], [-86.571, 36.2464], [-86.5719, 36.2455]]]}, "properties": {"OBJECTID": 679, "Object_Name": "Shutes Branch", "Information": "", "Scale_Minimum": 60000, "Source_Date": "20050412", "Source_Indication": "US,U3,USACE,LRN_GIS", "Source_Dataset": "U37CR221.000", "Feature_ID": "U3 1392981099 00001"}}, {"type": "Feature", "id": 681, "geometry": {"type": "Polygon", "coordinates": [[[-86.5173, 36.2567], [-86.5164, 36.2535], [-86.5166, 36.2549], [-86.5149, 36.2519], [-86.5147, 36.2497], [-86.5122, 36.248], [-86.5111, 36.2448], [-86.5114, 36.2433], [-86.5109, 36.2448], [-86.5118, 36.2458], [-86.5121, 36.2481], [-86.5144, 36.2498], [-86.5146, 36.2522], [-86.5167, 36.2568], [-86.5173, 36.2567]]]}, "properties": {"OBJECTID": 681, "Object_Name": "Cedar Creek", "Information": "", "Scale_Minimum": 60000, "Source_Date": "20050412", "Source_Indication": "US,U3,USACE,LRN_GIS", "Source_Dataset": "U37CR221.000", "Feature_ID": "U3 1392981103 00001"}}, {"type": "Feature", "id": 687, "geometry": {"type": "Polygon", "coordinates": [[[-86.4388, 36.3461], [-86.44, 36.3471], [-86.4401, 36.346], [-86.4392, 36.3455], [-86.4388, 36.3461]]]}, "properties": {"OBJECTID": 687, "Object_Name": "Bulls Creek", "Information": "", "Scale_Minimum": 60000, "Source_Date": "20050412", "Source_Indication": "US,U3,USACE,LRN_GIS", "Source_Dataset": "U37CR221.000", "Feature_ID": "U3 1392981125 00001"}}, {"type": "Feature", "id": 692, "geometry": {"type": "Polygon", "coordinates": [[[-86.6143, 36.3013], [-86.613, 36.3014], [-86.6132, 36.3052], [-86.6131, 36.3024], [-86.6102, 36.3015], [-86.6127, 36.3029], [-86.6125, 36.3054], [-86.6137, 36.3054], [-86.6104, 36.3069], [-86.6114, 36.3073], [-86.6097, 36.3072], [-86.6094, 36.3087], [-86.6101, 36.3076], [-86.6109, 36.3076], [-86.6097, 36.3084], [-86.6121, 36.3076], [-86.612, 36.3088], [-86.6125, 36.3082], [-86.6125, 36.3089], [-86.6142, 36.3053], [-86.6161, 36.3052], [-86.6147, 36.3041], [-86.6143, 36.3013]], [[-86.6116, 36.307], [-86.6116, 36.307], [-86.6116, 36.307], [-86.6116, 36.307]]]}, "properties": {"OBJECTID": 692, "Object_Name": "Drakes Creek", "Information": "", "Scale_Minimum": 60000, "Source_Date": "20050412", "Source_Indication": "US,U3,USACE,LRN_GIS", "Source_Dataset": "U37CR221.000", "Feature_ID": "U3 1392981191 00001"}}, {"type": "Feature", "id": 693, "geometry": {"type": "Polygon", "coordinates": [[[-86.4965, 36.2654], [-86.4929, 36.265], [-86.4966, 36.2666], [-86.4965, 36.2654]], [[-86.4962, 36.2656], [-86.4957, 36.2659], [-86.4953, 36.2656], [-86.4962, 36.2656]]]}, "properties": {"OBJECTID": 693, "Object_Name": "", "Information": "", "Scale_Minimum": 60000, "Source_Date": "20050412", "Source_Indication": "US,U3,USACE,LRN_GIS", "Source_Dataset": "U37CR221.000", "Feature_ID": "U3 1392981206 00001"}}, {"type": "Feature", "id": 694, "geometry": {"type": "Polygon", "coordinates": [[[-86.4439, 36.2873], [-86.4413, 36.2807], [-86.4418, 36.2798], [-86.4408, 36.2796], [-86.4417, 36.2798], [-86.4412, 36.2808], [-86.4418, 36.2816], [-86.4407, 36.2813], [-86.4405, 36.283], [-86.4413, 36.2859], [-86.4399, 36.2865], [-86.442, 36.2871], [-86.4432, 36.2896], [-86.4439, 36.2873]], [[-86.4422, 36.2828], [-86.4423, 36.2824], [-86.4423, 36.2828], [-86.4422, 36.2828]], [[-86.4409, 36.2822], [-86.441, 36.2827], [-86.4407, 36.283], [-86.4409, 36.2822]], [[-86.4416, 36.2832], [-86.4407, 36.2834], [-86.4411, 36.2827], [-86.4416, 36.2832]], [[-86.4421, 36.2829], [-86.4419, 36.2836], [-86.4416, 36.2821], [-86.4412, 36.2827], [-86.441, 36.282], [-86.4418, 36.2816], [-86.4421, 36.2829]]]}, "properties": {"OBJECTID": 694, "Object_Name": "", "Information": "", "Scale_Minimum": 60000, "Source_Date": "20050412", "Source_Indication": "US,U3,USACE,LRN_GIS", "Source_Dataset": "U37CR221.000", "Feature_ID": "U3 1392981207 00001"}}, {"type": "Feature", "id": 700, "geometry": {"type": "Polygon", "coordinates": [[[-86.475, 36.336], [-86.4744, 36.3352], [-86.4731, 36.3365], [-86.475, 36.336]]]}, "properties": {"OBJECTID": 700, "Object_Name": "", "Information": "", "Scale_Minimum": 60000, "Source_Date": "20050412", "Source_Indication": "US,U3,USACE,LRN_GIS", "Source_Dataset": "U37CR221.000", "Feature_ID": "U3 1392981236 00001"}}, {"type": "Feature", "id": 707, "geometry": {"type": "Polygon", "coordinates": [[[-86.4917, 36.3433], [-86.4911, 36.3435], [-86.4913, 36.3451], [-86.4921, 36.3445], [-86.4917, 36.3433]]]}, "properties": {"OBJECTID": 707, "Object_Name": "", "Information": "", "Scale_Minimum": 60000, "Source_Date": "20050412", "Source_Indication": "US,U3,USACE,LRN_GIS", "Source_Dataset": "U37CR221.000", "Feature_ID": "U3 1392981376 00001"}}, {"type": "Feature", "id": 710, "geometry": {"type": "Polygon", "coordinates": [[[-86.5155, 36.313], [-86.5146, 36.3133], [-86.5161, 36.3148], [-86.5155, 36.313]]]}, "properties": {"OBJECTID": 710, "Object_Name": "", "Information": "", "Scale_Minimum": 60000, "Source_Date": "20050412", "Source_Indication": "US,U3,USACE,LRN_GIS", "Source_Dataset": "U37CR221.000", "Feature_ID": "U3 1392981386 00001"}}]}