{"type": "FeatureCollection", "features": [{"type": "Feature", "id": 810, "geometry": {"type": "Point", "coordinates": [-86.65727579999998, 36.28790470000007]}, "properties": {"OBJECTID": 810, "Category_of_Shoreline_Construction": "Ramp", "Nature_of_Construction": "", "Object_Name": "", "Status": "Private", "Water_Level": "", "Condition": "", "Information": "", "Source_Date": "20050408", "Source_Indication": "US,U3,USACE,LRN_GIS_Data", "Source_Dataset": "U37CR149.000", "Scale_Minimum": 30000, "Feature_ID": "U3 1392978488 00001"}}, {"type": "Feature", "id": 811, "geometry": {"type": "Point", "coordinates": [-86.63201649999996, 36.276212300000054]}, "properties": {"OBJECTID": 811, "Category_of_Shoreline_Construction": "Ramp", "Nature_of_Construction": "", "Object_Name": "Old Lock 3 Access Area ramp", "Status": "Public", "Water_Level": "", "Condition": "", "Information": "", "Source_Date": "20050408", "Source_Indication": "US,U3,USACE,LRN_GIS_Data", "Source_Dataset": "U37CR149.000", "Scale_Minimum": 30000, "Feature_ID": "U3 1392978489 00001"}}, {"type": "Feature", "id": 813, "geometry": {"type": "Point", "coordinates": [-86.64507299999997, 36.29747290000006]}, "properties": {"OBJECTID": 813, "Category_of_Shoreline_Construction": "Ramp", "Nature_of_Construction": "", "Object_Name": "", "Status": "Private", "Water_Level": "", "Condition": "", "Information": "", "Source_Date": "20050408", "Source_Indication": "US,U3,USACE,LRN_GIS_Data", "Source_Dataset": "U37CR149.000", "Scale_Minimum": 30000, "Feature_ID": "U3 1392978484 00001"}}, {"type": "Feature", "id": 819, "geometry": {"type": "Point", "coordinates": [-86.65712759999997, 36.28777830000007]}, "properties": {"OBJECTID": 819, "Category_of_Shoreline_Construction": "Ramp", "Nature_of_Construction": "", "Object_Name": "", "Status": "Private", "Water_Level": "", "Condition": "", "Information": "", "Source_Date": "20050408", "Source_Indication": "US,U3,USACE,LRN_GIS_Data", "Source_Dataset": "U37CR149.000", "Scale_Minimum": 30000, "Feature_ID": "U3 1392978688 00001"}}, {"type": "Feature", "id": 820, "geometry": {"type": "Point", "coordinates": [-86.63921909999993, 36.25144370000004]}, "properties": {"OBJECTID": 820, "Category_of_Shoreline_Construction": "Ramp", "Nature_of_Construction": "", "Object_Name": "", "Status": "Private", "Water_Level": "", "Condition": "", "Information": "", "Source_Date": "20050408", "Source_Indication": "US,U3,USACE,LRN_GIS_Data", "Source_Dataset": "U37CR149.000", "Scale_Minimum": 30000, "Feature_ID": "U3 1392978685 00001"}}, {"type": "Feature", "id": 821, "geometry": {"type": "Point", "coordinates": [-86.65824279999998, 36.292770200000064]}, "properties": {"OBJECTID": 821, "Category_of_Shoreline_Construction": "Ramp", "Nature_of_Construction": "", "Object_Name": "", "Status": "Private", "Water_Level": "", "Condition": "", "Information": "", "Source_Date": "20050408", "Source_Indication": "US,U3,USACE,LRN_GIS_Data", "Source_Dataset": "U37CR149.000", "Scale_Minimum": 30000, "Feature_ID": "U3 1392978691 00001"}}, {"type": "Feature", "id": 827, "geometry": {"type": "Point", "coordinates": [-86.64818419999995, 36.29818640000008]}, "properties": {"OBJECTID": 827, "Category_of_Shoreline_Construction": "Ramp", "Nature_of_Construction": "", "Object_Name": "Rockland Recreation Area ramp", "Status": "Public", "Water_Level": "", "Condition": "", "Information": "", "Source_Date": "20050408", "Source_Indication": "US,U3,USACE,LRN_GIS_Data", "Source_Dataset": "U37CR149.000", "Scale_Minimum": 30000, "Feature_ID": "U3 1392978859 00001"}}, {"type": "Feature", "id": 830, "geometry": {"type": "Point", "coordinates": [-86.64650779999994, 36.299973400000056]}, "properties": {"OBJECTID": 830, "Category_of_Shoreline_Construction": "Ramp", "Nature_of_Construction": "", "Object_Name": "", "Status": "Private", "Water_Level": "", "Condition": "", "Information": "", "Source_Date": "20050408", "Source_Indication": "US,U3,USACE,LRN_GIS_Data", "Source_Dataset": "U37CR149.000", "Scale_Minimum": 30000, "Feature_ID": "U3 1392978882 00001"}}, {"type": "Feature", "id": 833, "geometry": {"type": "Point", "coordinates": [-86.62703799999997, 36.281165000000044]}, "properties": {"OBJECTID": 833, "Category_of_Shoreline_Construction": "Ramp", "Nature_of_Construction": "", "Object_Name": "", "Status": "Private", "Water_Level": "", "Condition": "", "Information": "", "Source_Date": "20050408", "Source_Indication": "US,U3,USACE,LRN_GIS_Data", "Source_Dataset": "U37CR149.000", "Scale_Minimum": 30000, "Feature_ID": "U3 1392978890 00001"}}, {"type": "Feature", "id": 835, "geometry": {"type": "Point", "coordinates": [-86.65747779999998, 36.287893600000075]}, "properties": {"OBJECTID": 835, "Category_of_Shoreline_Construction": "Ramp", "Nature_of_Construction": "", "Object_Name": "", "Status": "Private", "Water_Level": "", "Condition": "", "Information": "", "Source_Date": "20050408", "Source_Indication": "US,U3,USACE,LRN_GIS_Data", "Source_Dataset": "U37CR149.000", "Scale_Minimum": 30000, "Feature_ID": "U3 1392978892 00001"}}, {"type": "Feature", "id": 840, "geometry": {"type": "Point", "coordinates": [-86.62903469999998, 36.258473500000036]}, "properties": {"OBJECTID": 840, "Category_of_Shoreline_Construction": "Ramp", "Nature_of_Construction": "", "Object_Name": "Walton Ferry Access Area ramp", "Status": "Public", "Water_Level": "", "Condition": "", "Information": "", "Source_Date": "20050408", "Source_Indication": "US,U3,USACE,LRN_GIS_Data", "Source_Dataset": "U37CR149.000", "Scale_Minimum": 30000, "Feature_ID": "U3 1392978948 00001"}}, {"type": "Feature", "id": 843, "geometry": {"type": "Point", "coordinates": [-86.65714209999999, 36.28760620000003]}, "properties": {"OBJECTID": 843, "Category_of_Shoreline_Construction": "Ramp", "Nature_of_Construction": "", "Object_Name": "", "Status": "Private", "Water_Level": "", "Condition": "", "Information": "", "Source_Date": "20050408", "Source_Indication": "US,U3,USACE,LRN_GIS_Data", "Source_Dataset": "U37CR149.000", "Scale_Minimum": 30000, "Feature_ID": "U3 1392978779 00001"}}, {"type": "Feature", "id": 847, "geometry": {"type": "Point", "coordinates": [-86.66362929999997, 36.299092200000075]}, "properties": {"OBJECTID": 847, "Category_of_Shoreline_Construction": "Ramp", "Nature_of_Construction": "", "Object_Name": "Old HickoryTailwater Access Area ramp", "Status": "Public", "Water_Level": "", "Condition": "", "Information": "", "Source_Date": "20050408", "Source_Indication": "US,U3,USACE,LRN_GIS_Data", "Source_Dataset": "U37CR149.000", "Scale_Minimum": 30000, "Feature_ID": "U3 1392978790 00001"}}, {"type": "Feature", "id": 861, "geometry": {"type": "Point", "coordinates": [-86.09896869999994, 36.34251960000006]}, "properties": {"OBJECTID": 861, "Category_of_Shoreline_Construction": "Wharf (Quay)", "Nature_of_Construction": "", "Object_Name": "Hartsville Nuclear Plant", "Status": "", "Water_Level": "Always Dry", "Condition": "", "Information": "", "Source_Date": "20050412", "Source_Indication": "US,U3,USACE,LRN_GIS", "Source_Dataset": "U37CR221.000", "Scale_Minimum": 8000, "Feature_ID": "U3 1392979475 00001"}}, {"type": "Feature", "id": 862, "geometry": {"type": "Point", "coordinates": [-86.57625329999996, 36.31523590000006]}, "properties": {"OBJECTID": 862, "Category_of_Shoreline_Construction": "Wharf (Quay)", "Nature_of_Construction": "", "Object_Name": "Bluegrass Country Club Dock", "Status": "", "Water_Level": "Always Dry", "Condition": "", "Information": "", "Source_Date": "20050412", "Source_Indication": "US,U3,USACE,LRN_GIS", "Source_Dataset": "U37CR221.000", "Scale_Minimum": 8000, "Feature_ID": "U3 1392979484 00001"}}, {"type": "Feature", "id": 863, "geometry": {"type": "Point", "coordinates": [-86.51194219999996, 36.27207150000004]}, "properties": {"OBJECTID": 863, "Category_of_Shoreline_Construction": "Wharf (Quay)", "Nature_of_Construction": "", "Object_Name": "Cedar Creek Boat Dock", "Status": "", "Water_Level": "Always Dry", "Condition": "", "Information": "", "Source_Date": "20050412", "Source_Indication": "US,U3,USACE,LRN_GIS", "Source_Dataset": "U37CR221.000", "Scale_Minimum": 8000, "Feature_ID": "U3 1392979485 00001"}}, {"type": "Feature", "id": 864, "geometry": {"type": "Point", "coordinates": [-86.51192949999995, 36.27253020000006]}, "properties": {"OBJECTID": 864, "Category_of_Shoreline_Construction": "Wharf (Quay)", "Nature_of_Construction": "", "Object_Name": "Cedar Creek Boat Dock", "Status": "", "Water_Level": "Always Dry", "Condition": "", "Information": "", "Source_Date": "20050412", "Source_Indication": "US,U3,USACE,LRN_GIS", "Source_Dataset": "U37CR221.000", "Scale_Minimum": 8000, "Feature_ID": "U3 1392979486 00001"}}, {"type": "Feature", "id": 865, "geometry": {"type": "Point", "coordinates": [-86.00038109999997, 36.28664340000006]}, "properties": {"OBJECTID": 865, "Category_of_Shoreline_Construction": "Ramp", "Nature_of_Construction": "", "Object_Name": "", "Status": "", "Water_Level": "", "Condition": "", "Information": "", "Source_Date": "20050412", "Source_Indication": "US,U3,USACE,LRN_GIS", "Source_Dataset": "U37CR221.000", "Scale_Minimum": 30000, "Feature_ID": "U3 1392979971 00001"}}, {"type": "Feature", "id": 866, "geometry": {"type": "Point", "coordinates": [-86.60062579999999, 36.258181000000036]}, "properties": {"OBJECTID": 866, "Category_of_Shoreline_Construction": "Ramp", "Nature_of_Construction": "", "Object_Name": "", "Status": "", "Water_Level": "", "Condition": "", "Information": "", "Source_Date": "20050412", "Source_Indication": "US,U3,USACE,LRN_GIS", "Source_Dataset": "U37CR221.000", "Scale_Minimum": 30000, "Feature_ID": "U3 1392979972 00001"}}, {"type": "Feature", "id": 867, "geometry": {"type": "Point", "coordinates": [-86.57623769999998, 36.31518090000003]}, "properties": {"OBJECTID": 867, "Category_of_Shoreline_Construction": "Ramp", "Nature_of_Construction": "", "Object_Name": "", "Status": "", "Water_Level": "", "Condition": "", "Information": "", "Source_Date": "20050412", "Source_Indication": "US,U3,USACE,LRN_GIS", "Source_Dataset": "U37CR221.000", "Scale_Minimum": 30000, "Feature_ID": "U3 1392979973 00001"}}, {"type": "Feature", "id": 868, "geometry": {"type": "Point", "coordinates": [-86.47710579999995, 36.34725780000008]}, "properties": {"OBJECTID": 868, "Category_of_Shoreline_Construction": "Ramp", "Nature_of_Construction": "", "Object_Name": "", "Status": "", "Water_Level": "", "Condition": "", "Information": "", "Source_Date": "20050412", "Source_Indication": "US,U3,USACE,LRN_GIS", "Source_Dataset": "U37CR221.000", "Scale_Minimum": 30000, "Feature_ID": "U3 1392979975 00001"}}, {"type": "Feature", "id": 869, "geometry": {"type": "Point", "coordinates": [-86.61331499999994, 36.296793500000035]}, "properties": {"OBJECTID": 869, "Category_of_Shoreline_Construction": "Ramp", "Nature_of_Construction": "", "Object_Name": "", "Status": "", "Water_Level": "", "Condition": "", "Information": "", "Source_Date": "20050412", "Source_Indication": "US,U3,USACE,LRN_GIS", "Source_Dataset": "U37CR221.000", "Scale_Minimum": 30000, "Feature_ID": "U3 1392979976 00001"}}, {"type": "Feature", "id": 870, "geometry": {"type": "Point", "coordinates": [-86.35875789999994, 36.374401600000056]}, "properties": {"OBJECTID": 870, "Category_of_Shoreline_Construction": "Ramp", "Nature_of_Construction": "", "Object_Name": "Public Access Area", "Status": "Public", "Water_Level": "", "Condition": "", "Information": "", "Source_Date": "20050412", "Source_Indication": "US,U3,USACE,LRN_GIS", "Source_Dataset": "U37CR221.000", "Scale_Minimum": 30000, "Feature_ID": "U3 1392979978 00001"}}, {"type": "Feature", "id": 871, "geometry": {"type": "Point", "coordinates": [-86.33953049999997, 36.36434110000005]}, "properties": {"OBJECTID": 871, "Category_of_Shoreline_Construction": "Ramp", "Nature_of_Construction": "", "Object_Name": "", "Status": "", "Water_Level": "", "Condition": "", "Information": "", "Source_Date": "20050412", "Source_Indication": "US,U3,USACE,LRN_GIS", "Source_Dataset": "U37CR221.000", "Scale_Minimum": 30000, "Feature_ID": "U3 1392979979 00001"}}, {"type": "Feature", "id": 872, "geometry": {"type": "Point", "coordinates": [-86.43871329999996, 36.33586980000007]}, "properties": {"OBJECTID": 872, "Category_of_Shoreline_Construction": "Ramp", "Nature_of_Construction": "", "Object_Name": "Martha Gallatin Access Area", "Status": "Public", "Water_Level": "", "Condition": "", "Information": "", "Source_Date": "20050412", "Source_Indication": "US,U3,USACE,LRN_GIS", "Source_Dataset": "U37CR221.000", "Scale_Minimum": 30000, "Feature_ID": "U3 1392979982 00001"}}, {"type": "Feature", "id": 873, "geometry": {"type": "Point", "coordinates": [-86.52031439999996, 36.28792310000006]}, "properties": {"OBJECTID": 873, "Category_of_Shoreline_Construction": "Ramp", "Nature_of_Construction": "", "Object_Name": "", "Status": "", "Water_Level": "", "Condition": "", "Information": "", "Source_Date": "20050412", "Source_Indication": "US,U3,USACE,LRN_GIS", "Source_Dataset": "U37CR221.000", "Scale_Minimum": 30000, "Feature_ID": "U3 1392979984 00001"}}, {"type": "Feature", "id": 874, "geometry": {"type": "Point", "coordinates": [-86.46418799999998, 36.30341930000003]}, "properties": {"OBJECTID": 874, "Category_of_Shoreline_Construction": "Ramp", "Nature_of_Construction": "", "Object_Name": "Tyrees Access Area", "Status": "Public", "Water_Level": "", "Condition": "", "Information": "", "Source_Date": "20050412", "Source_Indication": "US,U3,USACE,LRN_GIS", "Source_Dataset": "U37CR221.000", "Scale_Minimum": 30000, "Feature_ID": "U3 1392979988 00001"}}, {"type": "Feature", "id": 875, "geometry": {"type": "Point", "coordinates": [-86.51133659999994, 36.27423310000006]}, "properties": {"OBJECTID": 875, "Category_of_Shoreline_Construction": "Ramp", "Nature_of_Construction": "", "Object_Name": "", "Status": "", "Water_Level": "", "Condition": "", "Information": "", "Source_Date": "20050412", "Source_Indication": "US,U3,USACE,LRN_GIS", "Source_Dataset": "U37CR221.000", "Scale_Minimum": 30000, "Feature_ID": "U3 1392979991 00001"}}, {"type": "Feature", "id": 876, "geometry": {"type": "Point", "coordinates": [-86.44795369999997, 36.280606900000066]}, "properties": {"OBJECTID": 876, "Category_of_Shoreline_Construction": "Ramp", "Nature_of_Construction": "", "Object_Name": "", "Status": "", "Water_Level": "", "Condition": "", "Information": "", "Source_Date": "20050412", "Source_Indication": "US,U3,USACE,LRN_GIS", "Source_Dataset": "U37CR221.000", "Scale_Minimum": 30000, "Feature_ID": "U3 1392979995 00001"}}, {"type": "Feature", "id": 877, "geometry": {"type": "Point", "coordinates": [-86.17593889999995, 36.33266740000005]}, "properties": {"OBJECTID": 877, "Category_of_Shoreline_Construction": "Ramp", "Nature_of_Construction": "", "Object_Name": "Griffins Landing", "Status": "", "Water_Level": "", "Condition": "", "Information": "Historic", "Source_Date": "20050412", "Source_Indication": "US,U3,USACE,LRN_GIS", "Source_Dataset": "U37CR221.000", "Scale_Minimum": 30000, "Feature_ID": "U3 1392980002 00001"}}, {"type": "Feature", "id": 878, "geometry": {"type": "Point", "coordinates": [-86.57683119999996, 36.28281320000008]}, "properties": {"OBJECTID": 878, "Category_of_Shoreline_Construction": "Ramp", "Nature_of_Construction": "", "Object_Name": "Stark Knob Access Area", "Status": "Public", "Water_Level": "", "Condition": "", "Information": "", "Source_Date": "20050412", "Source_Indication": "US,U3,USACE,LRN_GIS", "Source_Dataset": "U37CR221.000", "Scale_Minimum": 30000, "Feature_ID": "U3 1392980004 00001"}}, {"type": "Feature", "id": 879, "geometry": {"type": "Point", "coordinates": [-86.44796939999998, 36.28064860000006]}, "properties": {"OBJECTID": 879, "Category_of_Shoreline_Construction": "Ramp", "Nature_of_Construction": "", "Object_Name": "Davis Corner Access Area", "Status": "Public", "Water_Level": "", "Condition": "", "Information": "", "Source_Date": "20050412", "Source_Indication": "US,U3,USACE,LRN_GIS", "Source_Dataset": "U37CR221.000", "Scale_Minimum": 30000, "Feature_ID": "U3 1392980007 00001"}}, {"type": "Feature", "id": 880, "geometry": {"type": "Point", "coordinates": [-86.28606309999998, 36.34239830000007]}, "properties": {"OBJECTID": 880, "Category_of_Shoreline_Construction": "Ramp", "Nature_of_Construction": "", "Object_Name": "", "Status": "", "Water_Level": "", "Condition": "", "Information": "", "Source_Date": "20050412", "Source_Indication": "US,U3,USACE,LRN_GIS", "Source_Dataset": "U37CR221.000", "Scale_Minimum": 30000, "Feature_ID": "U3 1392980010 00001"}}, {"type": "Feature", "id": 881, "geometry": {"type": "Point", "coordinates": [-86.51356259999994, 36.34813230000003]}, "properties": {"OBJECTID": 881, "Category_of_Shoreline_Construction": "Ramp", "Nature_of_Construction": "", "Object_Name": "Station Camp Access Area", "Status": "Public", "Water_Level": "", "Condition": "", "Information": "", "Source_Date": "20050412", "Source_Indication": "US,U3,USACE,LRN_GIS", "Source_Dataset": "U37CR221.000", "Scale_Minimum": 30000, "Feature_ID": "U3 1392980012 00001"}}, {"type": "Feature", "id": 882, "geometry": {"type": "Point", "coordinates": [-86.44662329999994, 36.34010180000007]}, "properties": {"OBJECTID": 882, "Category_of_Shoreline_Construction": "Ramp", "Nature_of_Construction": "", "Object_Name": "Cedar Grove Access Area", "Status": "Public", "Water_Level": "", "Condition": "", "Information": "", "Source_Date": "20050412", "Source_Indication": "US,U3,USACE,LRN_GIS", "Source_Dataset": "U37CR221.000", "Scale_Minimum": 30000, "Feature_ID": "U3 1392980014 00001"}}, {"type": "Feature", "id": 883, "geometry": {"type": "Point", "coordinates": [-86.06951279999998, 36.26162350000004]}, "properties": {"OBJECTID": 883, "Category_of_Shoreline_Construction": "Ramp", "Nature_of_Construction": "", "Object_Name": "Rome Access Area", "Status": "Public", "Water_Level": "", "Condition": "", "Information": "", "Source_Date": "20050412", "Source_Indication": "US,U3,USACE,LRN_GIS", "Source_Dataset": "U37CR221.000", "Scale_Minimum": 30000, "Feature_ID": "U3 1392980023 00001"}}, {"type": "Feature", "id": 884, "geometry": {"type": "Point", "coordinates": [-86.26544769999998, 36.29934960000003]}, "properties": {"OBJECTID": 884, "Category_of_Shoreline_Construction": "Ramp", "Nature_of_Construction": "", "Object_Name": "Hunter Point Access Area", "Status": "Public", "Water_Level": "", "Condition": "", "Information": "", "Source_Date": "20050412", "Source_Indication": "US,U3,USACE,LRN_GIS", "Source_Dataset": "U37CR221.000", "Scale_Minimum": 30000, "Feature_ID": "U3 1392980024 00001"}}, {"type": "Feature", "id": 885, "geometry": {"type": "Point", "coordinates": [-86.60832879999998, 36.290152900000066]}, "properties": {"OBJECTID": 885, "Category_of_Shoreline_Construction": "Ramp", "Nature_of_Construction": "", "Object_Name": "", "Status": "", "Water_Level": "", "Condition": "", "Information": "", "Source_Date": "20050412", "Source_Indication": "US,U3,USACE,LRN_GIS", "Source_Dataset": "U37CR221.000", "Scale_Minimum": 30000, "Feature_ID": "U3 1392980027 00001"}}, {"type": "Feature", "id": 886, "geometry": {"type": "Point", "coordinates": [-86.35246299999994, 36.37599590000008]}, "properties": {"OBJECTID": 886, "Category_of_Shoreline_Construction": "Ramp", "Nature_of_Construction": "", "Object_Name": "Bledsoe Creek State Park Access", "Status": "Public", "Water_Level": "", "Condition": "", "Information": "", "Source_Date": "20050412", "Source_Indication": "US,U3,USACE,LRN_GIS", "Source_Dataset": "U37CR221.000", "Scale_Minimum": 30000, "Feature_ID": "U3 1392980028 00001"}}, {"type": "Feature", "id": 887, "geometry": {"type": "Point", "coordinates": [-86.57499609999996, 36.26457020000004]}, "properties": {"OBJECTID": 887, "Category_of_Shoreline_Construction": "Ramp", "Nature_of_Construction": "", "Object_Name": "", "Status": "", "Water_Level": "", "Condition": "", "Information": "", "Source_Date": "20050412", "Source_Indication": "US,U3,USACE,LRN_GIS", "Source_Dataset": "U37CR221.000", "Scale_Minimum": 30000, "Feature_ID": "U3 1392980029 00001"}}, {"type": "Feature", "id": 888, "geometry": {"type": "Point", "coordinates": [-86.43043869999997, 36.33554150000003]}, "properties": {"OBJECTID": 888, "Category_of_Shoreline_Construction": "Ramp", "Nature_of_Construction": "", "Object_Name": "", "Status": "", "Water_Level": "", "Condition": "", "Information": "", "Source_Date": "20050412", "Source_Indication": "US,U3,USACE,LRN_GIS", "Source_Dataset": "U37CR221.000", "Scale_Minimum": 30000, "Feature_ID": "U3 1392980031 00001"}}, {"type": "Feature", "id": 889, "geometry": {"type": "Point", "coordinates": [-86.50206329999997, 36.28357450000004]}, "properties": {"OBJECTID": 889, "Category_of_Shoreline_Construction": "Ramp", "Nature_of_Construction": "", "Object_Name": "", "Status": "", "Water_Level": "", "Condition": "", "Information": "", "Source_Date": "20050412", "Source_Indication": "US,U3,USACE,LRN_GIS", "Source_Dataset": "U37CR221.000", "Scale_Minimum": 30000, "Feature_ID": "U3 1392980033 00001"}}, {"type": "Feature", "id": 890, "geometry": {"type": "Point", "coordinates": [-86.55948219999999, 36.31733710000003]}, "properties": {"OBJECTID": 890, "Category_of_Shoreline_Construction": "Ramp", "Nature_of_Construction": "", "Object_Name": "Saundersville Access Area", "Status": "Public", "Water_Level": "", "Condition": "", "Information": "", "Source_Date": "20050412", "Source_Indication": "US,U3,USACE,LRN_GIS", "Source_Dataset": "U37CR221.000", "Scale_Minimum": 30000, "Feature_ID": "U3 1392980034 00001"}}, {"type": "Feature", "id": 891, "geometry": {"type": "Point", "coordinates": [-86.52617639999994, 36.285469800000044]}, "properties": {"OBJECTID": 891, "Category_of_Shoreline_Construction": "Ramp", "Nature_of_Construction": "", "Object_Name": "", "Status": "", "Water_Level": "", "Condition": "", "Information": "", "Source_Date": "20050412", "Source_Indication": "US,U3,USACE,LRN_GIS", "Source_Dataset": "U37CR221.000", "Scale_Minimum": 30000, "Feature_ID": "U3 1392980035 00001"}}, {"type": "Feature", "id": 892, "geometry": {"type": "Point", "coordinates": [-86.39199239999994, 36.32420080000003]}, "properties": {"OBJECTID": 892, "Category_of_Shoreline_Construction": "Ramp", "Nature_of_Construction": "", "Object_Name": "Public Access Area", "Status": "Public", "Water_Level": "", "Condition": "", "Information": "", "Source_Date": "20050412", "Source_Indication": "US,U3,USACE,LRN_GIS", "Source_Dataset": "U37CR221.000", "Scale_Minimum": 30000, "Feature_ID": "U3 1392980036 00001"}}, {"type": "Feature", "id": 893, "geometry": {"type": "Point", "coordinates": [-86.61030299999999, 36.29251490000007]}, "properties": {"OBJECTID": 893, "Category_of_Shoreline_Construction": "Ramp", "Nature_of_Construction": "", "Object_Name": "", "Status": "", "Water_Level": "", "Condition": "", "Information": "", "Source_Date": "20050412", "Source_Indication": "US,U3,USACE,LRN_GIS", "Source_Dataset": "U37CR221.000", "Scale_Minimum": 30000, "Feature_ID": "U3 1392980039 00001"}}, {"type": "Feature", "id": 894, "geometry": {"type": "Point", "coordinates": [-86.28980639999997, 36.31965810000003]}, "properties": {"OBJECTID": 894, "Category_of_Shoreline_Construction": "Ramp", "Nature_of_Construction": "", "Object_Name": "Bentley's Landing Access Area", "Status": "Public", "Water_Level": "", "Condition": "", "Information": "", "Source_Date": "20050412", "Source_Indication": "US,U3,USACE,LRN_GIS", "Source_Dataset": "U37CR221.000", "Scale_Minimum": 30000, "Feature_ID": "U3 1392980040 00001"}}, {"type": "Feature", "id": 895, "geometry": {"type": "Point", "coordinates": [-86.00864339999998, 36.30125090000007]}, "properties": {"OBJECTID": 895, "Category_of_Shoreline_Construction": "Ramp", "Nature_of_Construction": "", "Object_Name": "Bridgewaters Landing", "Status": "", "Water_Level": "", "Condition": "", "Information": "Historic", "Source_Date": "20050412", "Source_Indication": "US,U3,USACE,LRN_GIS", "Source_Dataset": "U37CR221.000", "Scale_Minimum": 30000, "Feature_ID": "U3 1392980042 00001"}}, {"type": "Feature", "id": 896, "geometry": {"type": "Point", "coordinates": [-86.44416459999997, 36.28981870000007]}, "properties": {"OBJECTID": 896, "Category_of_Shoreline_Construction": "Ramp", "Nature_of_Construction": "", "Object_Name": "LaGuardo Access Area", "Status": "Public", "Water_Level": "", "Condition": "", "Information": "", "Source_Date": "20050412", "Source_Indication": "US,U3,USACE,LRN_GIS", "Source_Dataset": "U37CR221.000", "Scale_Minimum": 30000, "Feature_ID": "U3 1392980044 00001"}}, {"type": "Feature", "id": 897, "geometry": {"type": "Point", "coordinates": [-86.56783799999994, 36.249896600000056]}, "properties": {"OBJECTID": 897, "Category_of_Shoreline_Construction": "Ramp", "Nature_of_Construction": "", "Object_Name": "Shutes Branch Access Area", "Status": "Public", "Water_Level": "", "Condition": "", "Information": "", "Source_Date": "20050412", "Source_Indication": "US,U3,USACE,LRN_GIS", "Source_Dataset": "U37CR221.000", "Scale_Minimum": 30000, "Feature_ID": "U3 1392980045 00001"}}, {"type": "Feature", "id": 898, "geometry": {"type": "Point", "coordinates": [-86.36521889999995, 36.275739300000055]}, "properties": {"OBJECTID": 898, "Category_of_Shoreline_Construction": "Ramp", "Nature_of_Construction": "", "Object_Name": "Barton Creek Access Area", "Status": "Public", "Water_Level": "", "Condition": "", "Information": "", "Source_Date": "20050412", "Source_Indication": "US,U3,USACE,LRN_GIS", "Source_Dataset": "U37CR221.000", "Scale_Minimum": 30000, "Feature_ID": "U3 1392980052 00001"}}, {"type": "Feature", "id": 899, "geometry": {"type": "Point", "coordinates": [-86.07087409999997, 36.26489820000006]}, "properties": {"OBJECTID": 899, "Category_of_Shoreline_Construction": "Ramp", "Nature_of_Construction": "", "Object_Name": "", "Status": "", "Water_Level": "", "Condition": "", "Information": "", "Source_Date": "20050412", "Source_Indication": "US,U3,USACE,LRN_GIS", "Source_Dataset": "U37CR221.000", "Scale_Minimum": 30000, "Feature_ID": "U3 1392980055 00001"}}, {"type": "Feature", "id": 900, "geometry": {"type": "Point", "coordinates": [-86.16782949999998, 36.37227930000006]}, "properties": {"OBJECTID": 900, "Category_of_Shoreline_Construction": "Ramp", "Nature_of_Construction": "", "Object_Name": "Hartsville Landing", "Status": "", "Water_Level": "", "Condition": "", "Information": "Historic", "Source_Date": "20050412", "Source_Indication": "US,U3,USACE,LRN_GIS", "Source_Dataset": "U37CR221.000", "Scale_Minimum": 30000, "Feature_ID": "U3 1392980063 00001"}}, {"type": "Feature", "id": 901, "geometry": {"type": "Point", "coordinates": [-86.55596669999994, 36.268988500000034]}, "properties": {"OBJECTID": 901, "Category_of_Shoreline_Construction": "Ramp", "Nature_of_Construction": "", "Object_Name": "", "Status": "", "Water_Level": "", "Condition": "", "Information": "", "Source_Date": "20050412", "Source_Indication": "US,U3,USACE,LRN_GIS", "Source_Dataset": "U37CR221.000", "Scale_Minimum": 30000, "Feature_ID": "U3 1392980348 00001"}}, {"type": "Feature", "id": 902, "geometry": {"type": "Point", "coordinates": [-86.50069949999994, 36.28541390000004]}, "properties": {"OBJECTID": 902, "Category_of_Shoreline_Construction": "Ramp", "Nature_of_Construction": "", "Object_Name": "Lone Branch Access Area", "Status": "Public", "Water_Level": "", "Condition": "", "Information": "", "Source_Date": "20050412", "Source_Indication": "US,U3,USACE,LRN_GIS", "Source_Dataset": "U37CR221.000", "Scale_Minimum": 30000, "Feature_ID": "U3 1392980350 00001"}}, {"type": "Feature", "id": 903, "geometry": {"type": "Point", "coordinates": [-86.16714009999998, 36.37132230000003]}, "properties": {"OBJECTID": 903, "Category_of_Shoreline_Construction": "Ramp", "Nature_of_Construction": "", "Object_Name": "Harsville Access Area", "Status": "Public", "Water_Level": "", "Condition": "", "Information": "", "Source_Date": "20050412", "Source_Indication": "US,U3,USACE,LRN_GIS", "Source_Dataset": "U37CR221.000", "Scale_Minimum": 30000, "Feature_ID": "U3 1392980354 00001"}}, {"type": "Feature", "id": 904, "geometry": {"type": "Point", "coordinates": [-86.60581249999996, 36.25886110000005]}, "properties": {"OBJECTID": 904, "Category_of_Shoreline_Construction": "Ramp", "Nature_of_Construction": "", "Object_Name": "", "Status": "", "Water_Level": "", "Condition": "", "Information": "", "Source_Date": "20050412", "Source_Indication": "US,U3,USACE,LRN_GIS", "Source_Dataset": "U37CR221.000", "Scale_Minimum": 30000, "Feature_ID": "U3 1392980360 00001"}}, {"type": "Feature", "id": 905, "geometry": {"type": "Point", "coordinates": [-86.10913269999998, 36.343965500000024]}, "properties": {"OBJECTID": 905, "Category_of_Shoreline_Construction": "Ramp", "Nature_of_Construction": "", "Object_Name": "", "Status": "", "Water_Level": "", "Condition": "", "Information": "", "Source_Date": "20050412", "Source_Indication": "US,U3,USACE,LRN_GIS", "Source_Dataset": "U37CR221.000", "Scale_Minimum": 30000, "Feature_ID": "U3 1392980367 00001"}}, {"type": "Feature", "id": 906, "geometry": {"type": "Point", "coordinates": [-86.24077749999998, 36.33836690000004]}, "properties": {"OBJECTID": 906, "Category_of_Shoreline_Construction": "Ramp", "Nature_of_Construction": "", "Object_Name": "", "Status": "", "Water_Level": "", "Condition": "", "Information": "", "Source_Date": "20050412", "Source_Indication": "US,U3,USACE,LRN_GIS", "Source_Dataset": "U37CR221.000", "Scale_Minimum": 30000, "Feature_ID": "U3 1392980368 00001"}}, {"type": "Feature", "id": 907, "geometry": {"type": "Point", "coordinates": [-86.47307139999998, 36.35742300000004]}, "properties": {"OBJECTID": 907, "Category_of_Shoreline_Construction": "Ramp", "Nature_of_Construction": "", "Object_Name": "Gallatin Recreational Area", "Status": "Public", "Water_Level": "", "Condition": "", "Information": "", "Source_Date": "20050412", "Source_Indication": "US,U3,USACE,LRN_GIS", "Source_Dataset": "U37CR221.000", "Scale_Minimum": 30000, "Feature_ID": "U3 1392980799 00001"}}, {"type": "Feature", "id": 908, "geometry": {"type": "Point", "coordinates": [-86.33892959999997, 36.37722940000003]}, "properties": {"OBJECTID": 908, "Category_of_Shoreline_Construction": "Ramp", "Nature_of_Construction": "", "Object_Name": "", "Status": "", "Water_Level": "", "Condition": "", "Information": "", "Source_Date": "20050412", "Source_Indication": "US,U3,USACE,LRN_GIS", "Source_Dataset": "U37CR221.000", "Scale_Minimum": 30000, "Feature_ID": "U3 1392980805 00001"}}, {"type": "Feature", "id": 909, "geometry": {"type": "Point", "coordinates": [-86.43343419999997, 36.34292430000005]}, "properties": {"OBJECTID": 909, "Category_of_Shoreline_Construction": "Ramp", "Nature_of_Construction": "", "Object_Name": "Bulls Creek Access Area", "Status": "Public", "Water_Level": "", "Condition": "", "Information": "", "Source_Date": "20050412", "Source_Indication": "US,U3,USACE,LRN_GIS", "Source_Dataset": "U37CR221.000", "Scale_Minimum": 30000, "Feature_ID": "U3 1392980806 00001"}}, {"type": "Feature", "id": 910, "geometry": {"type": "Point", "coordinates": [-86.60862839999999, 36.26066570000006]}, "properties": {"OBJECTID": 910, "Category_of_Shoreline_Construction": "Ramp", "Nature_of_Construction": "", "Object_Name": "", "Status": "", "Water_Level": "", "Condition": "", "Information": "", "Source_Date": "20050412", "Source_Indication": "US,U3,USACE,LRN_GIS", "Source_Dataset": "U37CR221.000", "Scale_Minimum": 30000, "Feature_ID": "U3 1392980809 00001"}}, {"type": "Feature", "id": 911, "geometry": {"type": "Point", "coordinates": [-86.51367589999995, 36.301663500000075]}, "properties": {"OBJECTID": 911, "Category_of_Shoreline_Construction": "Ramp", "Nature_of_Construction": "", "Object_Name": "Cages Bend Campground", "Status": "Public", "Water_Level": "", "Condition": "", "Information": "", "Source_Date": "20050412", "Source_Indication": "US,U3,USACE,LRN_GIS", "Source_Dataset": "U37CR221.000", "Scale_Minimum": 30000, "Feature_ID": "U3 1392980810 00001"}}, {"type": "Feature", "id": 912, "geometry": {"type": "Point", "coordinates": [-86.34546019999999, 36.39814100000007]}, "properties": {"OBJECTID": 912, "Category_of_Shoreline_Construction": "Ramp", "Nature_of_Construction": "", "Object_Name": "Old Union Access Area", "Status": "Public", "Water_Level": "", "Condition": "", "Information": "", "Source_Date": "20050412", "Source_Indication": "US,U3,USACE,LRN_GIS", "Source_Dataset": "U37CR221.000", "Scale_Minimum": 30000, "Feature_ID": "U3 1392980813 00001"}}, {"type": "Feature", "id": 913, "geometry": {"type": "Point", "coordinates": [-86.54113649999994, 36.32338740000006]}, "properties": {"OBJECTID": 913, "Category_of_Shoreline_Construction": "Ramp", "Nature_of_Construction": "", "Object_Name": "Avondale Recreation Area", "Status": "Public", "Water_Level": "", "Condition": "", "Information": "", "Source_Date": "20050412", "Source_Indication": "US,U3,USACE,LRN_GIS", "Source_Dataset": "U37CR221.000", "Scale_Minimum": 30000, "Feature_ID": "U3 1392980816 00001"}}, {"type": "Feature", "id": 914, "geometry": {"type": "Point", "coordinates": [-86.37366559999998, 36.34058100000004]}, "properties": {"OBJECTID": 914, "Category_of_Shoreline_Construction": "Ramp", "Nature_of_Construction": "", "Object_Name": "", "Status": "", "Water_Level": "", "Condition": "", "Information": "", "Source_Date": "20050412", "Source_Indication": "US,U3,USACE,LRN_GIS", "Source_Dataset": "U37CR221.000", "Scale_Minimum": 30000, "Feature_ID": "U3 1392980817 00001"}}, {"type": "Feature", "id": 915, "geometry": {"type": "Point", "coordinates": [-86.57090379999994, 36.24800790000006]}, "properties": {"OBJECTID": 915, "Category_of_Shoreline_Construction": "Ramp", "Nature_of_Construction": "", "Object_Name": "Shutes Branch Access Area", "Status": "Public", "Water_Level": "", "Condition": "", "Information": "", "Source_Date": "20050412", "Source_Indication": "US,U3,USACE,LRN_GIS", "Source_Dataset": "U37CR221.000", "Scale_Minimum": 30000, "Feature_ID": "U3 1392980818 00001"}}, {"type": "Feature", "id": 916, "geometry": {"type": "Point", "coordinates": [-85.99710829999998, 36.29221090000004]}, "properties": {"OBJECTID": 916, "Category_of_Shoreline_Construction": "Ramp", "Nature_of_Construction": "", "Object_Name": "Taylors Branch Landing", "Status": "", "Water_Level": "", "Condition": "", "Information": "Historic", "Source_Date": "20050412", "Source_Indication": "US,U3,USACE,LRN_GIS", "Source_Dataset": "U37CR221.000", "Scale_Minimum": 30000, "Feature_ID": "U3 1392980819 00001"}}, {"type": "Feature", "id": 917, "geometry": {"type": "Point", "coordinates": [-86.54925809999997, 36.282781700000044]}, "properties": {"OBJECTID": 917, "Category_of_Shoreline_Construction": "Ramp", "Nature_of_Construction": "", "Object_Name": "", "Status": "", "Water_Level": "", "Condition": "", "Information": "", "Source_Date": "20050412", "Source_Indication": "US,U3,USACE,LRN_GIS", "Source_Dataset": "U37CR221.000", "Scale_Minimum": 30000, "Feature_ID": "U3 1392980820 00001"}}, {"type": "Feature", "id": 918, "geometry": {"type": "Point", "coordinates": [-86.40277239999995, 36.305221000000074]}, "properties": {"OBJECTID": 918, "Category_of_Shoreline_Construction": "Ramp", "Nature_of_Construction": "", "Object_Name": "Coles Ferry Access Area", "Status": "Public", "Water_Level": "", "Condition": "", "Information": "", "Source_Date": "20050412", "Source_Indication": "US,U3,USACE,LRN_GIS", "Source_Dataset": "U37CR221.000", "Scale_Minimum": 30000, "Feature_ID": "U3 1392980823 00001"}}, {"type": "Feature", "id": 919, "geometry": {"type": "Point", "coordinates": [-86.59902749999998, 36.27532230000003]}, "properties": {"OBJECTID": 919, "Category_of_Shoreline_Construction": "Ramp", "Nature_of_Construction": "", "Object_Name": "Rock Castle Landing", "Status": "", "Water_Level": "", "Condition": "", "Information": "Historic", "Source_Date": "20050412", "Source_Indication": "US,U3,USACE,LRN_GIS", "Source_Dataset": "U37CR221.000", "Scale_Minimum": 30000, "Feature_ID": "U3 1392980831 00001"}}, {"type": "Feature", "id": 920, "geometry": {"type": "Point", "coordinates": [-86.37732859999994, 36.341689700000074]}, "properties": {"OBJECTID": 920, "Category_of_Shoreline_Construction": "Ramp", "Nature_of_Construction": "", "Object_Name": "Sandy Chapel Access Area", "Status": "Public", "Water_Level": "", "Condition": "", "Information": "", "Source_Date": "20050412", "Source_Indication": "US,U3,USACE,LRN_GIS", "Source_Dataset": "U37CR221.000", "Scale_Minimum": 30000, "Feature_ID": "U3 1392980832 00001"}}, {"type": "Feature", "id": 921, "geometry": {"type": "Point", "coordinates": [-86.50175309999997, 36.28226110000003]}, "properties": {"OBJECTID": 921, "Category_of_Shoreline_Construction": "Ramp", "Nature_of_Construction": "", "Object_Name": "", "Status": "", "Water_Level": "", "Condition": "", "Information": "", "Source_Date": "20050412", "Source_Indication": "US,U3,USACE,LRN_GIS", "Source_Dataset": "U37CR221.000", "Scale_Minimum": 30000, "Feature_ID": "U3 1392980835 00001"}}, {"type": "Feature", "id": 922, "geometry": {"type": "Point", "coordinates": [-86.32626739999995, 36.29497340000006]}, "properties": {"OBJECTID": 922, "Category_of_Shoreline_Construction": "Ramp", "Nature_of_Construction": "", "Object_Name": "", "Status": "", "Water_Level": "", "Condition": "", "Information": "", "Source_Date": "20050412", "Source_Indication": "US,U3,USACE,LRN_GIS", "Source_Dataset": "U37CR221.000", "Scale_Minimum": 30000, "Feature_ID": "U3 1392980839 00001"}}, {"type": "Feature", "id": 923, "geometry": {"type": "Point", "coordinates": [-86.07933759999997, 36.34273510000003]}, "properties": {"OBJECTID": 923, "Category_of_Shoreline_Construction": "Ramp", "Nature_of_Construction": "", "Object_Name": "", "Status": "", "Water_Level": "", "Condition": "", "Information": "", "Source_Date": "20050412", "Source_Indication": "US,U3,USACE,LRN_GIS", "Source_Dataset": "U37CR221.000", "Scale_Minimum": 30000, "Feature_ID": "U3 1392980842 00001"}}, {"type": "Feature", "id": 924, "geometry": {"type": "Point", "coordinates": [-86.09838379999997, 36.34254430000004]}, "properties": {"OBJECTID": 924, "Category_of_Shoreline_Construction": "Ramp", "Nature_of_Construction": "", "Object_Name": "Wrights Landing", "Status": "", "Water_Level": "", "Condition": "", "Information": "Historic", "Source_Date": "20050412", "Source_Indication": "US,U3,USACE,LRN_GIS", "Source_Dataset": "U37CR221.000", "Scale_Minimum": 30000, "Feature_ID": "U3 1392980850 00001"}}, {"type": "Feature", "id": 925, "geometry": {"type": "Point", "coordinates": [-86.60419069999995, 36.24957450000005]}, "properties": {"OBJECTID": 925, "Category_of_Shoreline_Construction": "Ramp", "Nature_of_Construction": "", "Object_Name": "", "Status": "", "Water_Level": "", "Condition": "", "Information": "", "Source_Date": "20050412", "Source_Indication": "US,U3,USACE,LRN_GIS", "Source_Dataset": "U37CR221.000", "Scale_Minimum": 30000, "Feature_ID": "U3 1392980856 00001"}}, {"type": "Feature", "id": 926, "geometry": {"type": "Point", "coordinates": [-86.57545129999994, 36.30314850000008]}, "properties": {"OBJECTID": 926, "Category_of_Shoreline_Construction": "Ramp", "Nature_of_Construction": "", "Object_Name": "", "Status": "", "Water_Level": "", "Condition": "", "Information": "", "Source_Date": "20050412", "Source_Indication": "US,U3,USACE,LRN_GIS", "Source_Dataset": "U37CR221.000", "Scale_Minimum": 30000, "Feature_ID": "U3 1392980857 00001"}}, {"type": "Feature", "id": 927, "geometry": {"type": "Point", "coordinates": [-86.50833559999995, 36.27861770000004]}, "properties": {"OBJECTID": 927, "Category_of_Shoreline_Construction": "Ramp", "Nature_of_Construction": "", "Object_Name": "Cedar Creek Campground", "Status": "Public", "Water_Level": "", "Condition": "", "Information": "", "Source_Date": "20050412", "Source_Indication": "US,U3,USACE,LRN_GIS", "Source_Dataset": "U37CR221.000", "Scale_Minimum": 30000, "Feature_ID": "U3 1392980859 00001"}}, {"type": "Feature", "id": 928, "geometry": {"type": "Point", "coordinates": [-86.36251619999996, 36.35932180000003]}, "properties": {"OBJECTID": 928, "Category_of_Shoreline_Construction": "Ramp", "Nature_of_Construction": "", "Object_Name": "Cairo Access Area", "Status": "Public", "Water_Level": "", "Condition": "", "Information": "", "Source_Date": "20050412", "Source_Indication": "US,U3,USACE,LRN_GIS", "Source_Dataset": "U37CR221.000", "Scale_Minimum": 30000, "Feature_ID": "U3 1392980861 00001"}}, {"type": "Feature", "id": 929, "geometry": {"type": "Point", "coordinates": [-86.51370859999997, 36.30348680000003]}, "properties": {"OBJECTID": 929, "Category_of_Shoreline_Construction": "Ramp", "Nature_of_Construction": "", "Object_Name": "", "Status": "", "Water_Level": "", "Condition": "", "Information": "", "Source_Date": "20050412", "Source_Indication": "US,U3,USACE,LRN_GIS", "Source_Dataset": "U37CR221.000", "Scale_Minimum": 30000, "Feature_ID": "U3 1392980864 00001"}}, {"type": "Feature", "id": 930, "geometry": {"type": "Point", "coordinates": [-86.61398319999995, 36.29767360000005]}, "properties": {"OBJECTID": 930, "Category_of_Shoreline_Construction": "Ramp", "Nature_of_Construction": "", "Object_Name": "Mallard Point Park", "Status": "Public", "Water_Level": "", "Condition": "", "Information": "", "Source_Date": "20050412", "Source_Indication": "US,U3,USACE,LRN_GIS", "Source_Dataset": "U37CR221.000", "Scale_Minimum": 30000, "Feature_ID": "U3 1392980866 00001"}}, {"type": "Feature", "id": 931, "geometry": {"type": "Point", "coordinates": [-86.55069329999998, 36.28253570000004]}, "properties": {"OBJECTID": 931, "Category_of_Shoreline_Construction": "Ramp", "Nature_of_Construction": "", "Object_Name": "", "Status": "", "Water_Level": "", "Condition": "", "Information": "", "Source_Date": "20050412", "Source_Indication": "US,U3,USACE,LRN_GIS", "Source_Dataset": "U37CR221.000", "Scale_Minimum": 30000, "Feature_ID": "U3 1392980867 00001"}}, {"type": "Feature", "id": 932, "geometry": {"type": "Point", "coordinates": [-86.36049809999997, 36.35179980000004]}, "properties": {"OBJECTID": 932, "Category_of_Shoreline_Construction": "Ramp", "Nature_of_Construction": "", "Object_Name": "", "Status": "", "Water_Level": "", "Condition": "", "Information": "", "Source_Date": "20050412", "Source_Indication": "US,U3,USACE,LRN_GIS", "Source_Dataset": "U37CR221.000", "Scale_Minimum": 30000, "Feature_ID": "U3 1392980869 00001"}}, {"type": "Feature", "id": 933, "geometry": {"type": "Point", "coordinates": [-86.47438579999994, 36.30388860000005]}, "properties": {"OBJECTID": 933, "Category_of_Shoreline_Construction": "Ramp", "Nature_of_Construction": "", "Object_Name": "Riverview Access Area", "Status": "Public", "Water_Level": "", "Condition": "", "Information": "", "Source_Date": "20050412", "Source_Indication": "US,U3,USACE,LRN_GIS", "Source_Dataset": "U37CR221.000", "Scale_Minimum": 30000, "Feature_ID": "U3 1392980870 00001"}}, {"type": "Feature", "id": 934, "geometry": {"type": "Point", "coordinates": [-86.47620739999996, 36.33734490000006]}, "properties": {"OBJECTID": 934, "Category_of_Shoreline_Construction": "Ramp", "Nature_of_Construction": "", "Object_Name": "Lock 4 Recreation Area", "Status": "Public", "Water_Level": "", "Condition": "", "Information": "", "Source_Date": "20050412", "Source_Indication": "US,U3,USACE,LRN_GIS", "Source_Dataset": "U37CR221.000", "Scale_Minimum": 30000, "Feature_ID": "U3 1392980872 00001"}}, {"type": "Feature", "id": 937, "geometry": {"type": "Point", "coordinates": [-85.93794289999994, 36.285896800000046]}, "properties": {"OBJECTID": 937, "Category_of_Shoreline_Construction": "Ramp", "Nature_of_Construction": "", "Object_Name": "Public Access Area", "Status": "", "Water_Level": "", "Condition": "", "Information": "", "Source_Date": "20050414", "Source_Indication": "US,U3,USACE,LRN_GIS", "Source_Dataset": "U37CR307.000", "Scale_Minimum": 30000, "Feature_ID": "U3 1392989263 00001"}}, {"type": "Feature", "id": 951, "geometry": {"type": "Point", "coordinates": [-85.94301239999999, 36.29625670000007]}, "properties": {"OBJECTID": 951, "Category_of_Shoreline_Construction": "Ramp", "Nature_of_Construction": "", "Object_Name": "", "Status": "", "Water_Level": "", "Condition": "", "Information": "", "Source_Date": "20050414", "Source_Indication": "US,U3,USACE,LRN_GIS", "Source_Dataset": "U37CR307.000", "Scale_Minimum": 30000, "Feature_ID": "U3 1392989363 00001"}}, {"type": "Feature", "id": 952, "geometry": {"type": "Point", "coordinates": [-85.93655459999997, 36.28217790000008]}, "properties": {"OBJECTID": 952, "Category_of_Shoreline_Construction": "Ramp", "Nature_of_Construction": "", "Object_Name": "Public Access Area", "Status": "", "Water_Level": "", "Condition": "", "Information": "", "Source_Date": "20050414", "Source_Indication": "US,U3,USACE,LRN_GIS", "Source_Dataset": "U37CR307.000", "Scale_Minimum": 30000, "Feature_ID": "U3 1392989369 00001"}}, {"type": "Feature", "id": 955, "geometry": {"type": "Point", "coordinates": [-85.94567379999995, 36.243154900000036]}, "properties": {"OBJECTID": 955, "Category_of_Shoreline_Construction": "Ramp", "Nature_of_Construction": "", "Object_Name": "Carthage Access Area", "Status": "", "Water_Level": "", "Condition": "", "Information": "", "Source_Date": "20050414", "Source_Indication": "US,U3,USACE,LRN_GIS", "Source_Dataset": "U37CR307.000", "Scale_Minimum": 30000, "Feature_ID": "U3 1392989379 00001"}}, {"type": "Feature", "id": 961, "geometry": {"type": "Point", "coordinates": [-85.92682569999994, 36.303800600000045]}, "properties": {"OBJECTID": 961, "Category_of_Shoreline_Construction": "Ramp", "Nature_of_Construction": "", "Object_Name": "", "Status": "", "Water_Level": "", "Condition": "", "Information": "", "Source_Date": "20050414", "Source_Indication": "US,U3,USACE,LRN_GIS", "Source_Dataset": "U37CR307.000", "Scale_Minimum": 30000, "Feature_ID": "U3 1392989409 00001"}}, {"type": "Feature", "id": 970, "geometry": {"type": "Point", "coordinates": [-85.94354579999998, 36.29464120000006]}, "properties": {"OBJECTID": 970, "Category_of_Shoreline_Construction": "Ramp", "Nature_of_Construction": "", "Object_Name": "", "Status": "", "Water_Level": "", "Condition": "", "Information": "", "Source_Date": "20050414", "Source_Indication": "US,U3,USACE,LRN_GIS", "Source_Dataset": "U37CR307.000", "Scale_Minimum": 30000, "Feature_ID": "U3 1392989477 00001"}}]}