{"type": "FeatureCollection", "features": [{"type": "Feature", "id": 3429, "geometry": {"type": "LineString", "coordinates": [[-86.655, 36.2976], [-86.6562, 36.2959]]}, "properties": {"OBJECTID": 3429, "Category_of_Shoreline_Construction": "Unknown", "Nature_of_Construction": "", "Object_Name": "", "Status": "", "Water_Level": "", "Condition": "", "Information": "DAMCON", "Scale_Minimum": 45000, "Source_Date": "20131113", "Source_Indication": "US,U3,SURVY,2013_SEAS_LIDAR_Mapping_Survey", "Source_Dataset": "U37CR149.000", "Feature_ID": "U3 1392978368 00001"}}, {"type": "Feature", "id": 3433, "geometry": {"type": "LineString", "coordinates": [[-86.6564, 36.296], [-86.6556, 36.2977]]}, "properties": {"OBJECTID": 3433, "Category_of_Shoreline_Construction": "Unknown", "Nature_of_Construction": "", "Object_Name": "", "Status": "", "Water_Level": "", "Condition": "", "Information": "DAMCON", "Scale_Minimum": 45000, "Source_Date": "20131113", "Source_Indication": "US,U3,SURVY,2013_SEAS_LIDAR_Mapping_Survey", "Source_Dataset": "U37CR149.000", "Feature_ID": "U3 1392978382 00001"}}, {"type": "Feature", "id": 3441, "geometry": {"type": "LineString", "coordinates": [[-86.6396, 36.2533], [-86.6383, 36.2531], [-86.6357, 36.2511], [-86.6365, 36.2499]]}, "properties": {"OBJECTID": 3441, "Category_of_Shoreline_Construction": "Breakwater", "Nature_of_Construction": "", "Object_Name": "", "Status": "", "Water_Level": "", "Condition": "", "Information": "", "Scale_Minimum": 30000, "Source_Date": "20040930", "Source_Indication": "US,U3,USACE,LRN_GIS_Data", "Source_Dataset": "U37CR149.000", "Feature_ID": "U3 1392977909 00001"}}, {"type": "Feature", "id": 3444, "geometry": {"type": "LineString", "coordinates": [[-86.6698, 36.2552], [-86.6631, 36.2507], [-86.6608, 36.2481]]}, "properties": {"OBJECTID": 3444, "Category_of_Shoreline_Construction": "Rip Rap", "Nature_of_Construction": "Loose Boulders", "Object_Name": "", "Status": "", "Water_Level": "Partly Submerged at High Water", "Condition": "", "Information": "", "Scale_Minimum": 30000, "Source_Date": "20050408", "Source_Indication": "US,U3,USACE,LRN_GIS_Data", "Source_Dataset": "U37CR149.000", "Feature_ID": "U3 1392978384 00001"}}, {"type": "Feature", "id": 3449, "geometry": {"type": "LineString", "coordinates": [[-86.1751, 36.373], [-86.1752, 36.373], [-86.1752, 36.373], [-86.1751, 36.373]]}, "properties": {"OBJECTID": 3449, "Category_of_Shoreline_Construction": "Unknown", "Nature_of_Construction": "", "Object_Name": "", "Status": "", "Water_Level": "", "Condition": "", "Information": "PYLONS", "Scale_Minimum": 45000, "Source_Date": "20140603", "Source_Indication": "US,U3,SURVY,2014_SEAS_LIDAR_Mapping_Survey", "Source_Dataset": "U37CR221.000", "Feature_ID": "U3 1392980763 00001"}}, {"type": "Feature", "id": 3450, "geometry": {"type": "LineString", "coordinates": [[-86.4363, 36.3374], [-86.4363, 36.3374], [-86.4364, 36.3374], [-86.4363, 36.3374]]}, "properties": {"OBJECTID": 3450, "Category_of_Shoreline_Construction": "Unknown", "Nature_of_Construction": "", "Object_Name": "", "Status": "", "Water_Level": "", "Condition": "", "Information": "PYLONS", "Scale_Minimum": 45000, "Source_Date": "20140603", "Source_Indication": "US,U3,SURVY,2014_SEAS_LIDAR_Mapping_Survey", "Source_Dataset": "U37CR221.000", "Feature_ID": "U3 1392980764 00001"}}, {"type": "Feature", "id": 3451, "geometry": {"type": "LineString", "coordinates": [[-86.4366, 36.3374], [-86.4366, 36.3374], [-86.4366, 36.3374], [-86.4366, 36.3374]]}, "properties": {"OBJECTID": 3451, "Category_of_Shoreline_Construction": "Unknown", "Nature_of_Construction": "", "Object_Name": "", "Status": "", "Water_Level": "", "Condition": "", "Information": "PYLONS", "Scale_Minimum": 45000, "Source_Date": "20140603", "Source_Indication": "US,U3,SURVY,2014_SEAS_LIDAR_Mapping_Survey", "Source_Dataset": "U37CR221.000", "Feature_ID": "U3 1392980765 00001"}}, {"type": "Feature", "id": 3452, "geometry": {"type": "LineString", "coordinates": [[-86.4366, 36.3376], [-86.4366, 36.3376], [-86.4366, 36.3376], [-86.4366, 36.3376]]}, "properties": {"OBJECTID": 3452, "Category_of_Shoreline_Construction": "Unknown", "Nature_of_Construction": "", "Object_Name": "", "Status": "", "Water_Level": "", "Condition": "", "Information": "PYLONS", "Scale_Minimum": 45000, "Source_Date": "20140603", "Source_Indication": "US,U3,SURVY,2014_SEAS_LIDAR_Mapping_Survey", "Source_Dataset": "U37CR221.000", "Feature_ID": "U3 1392980766 00001"}}, {"type": "Feature", "id": 3453, "geometry": {"type": "LineString", "coordinates": [[-86.4367, 36.3375], [-86.4366, 36.3375], [-86.4366, 36.3374], [-86.4367, 36.3375]]}, "properties": {"OBJECTID": 3453, "Category_of_Shoreline_Construction": "Unknown", "Nature_of_Construction": "", "Object_Name": "", "Status": "", "Water_Level": "", "Condition": "", "Information": "PYLONS", "Scale_Minimum": 45000, "Source_Date": "20140603", "Source_Indication": "US,U3,SURVY,2014_SEAS_LIDAR_Mapping_Survey", "Source_Dataset": "U37CR221.000", "Feature_ID": "U3 1392980767 00001"}}, {"type": "Feature", "id": 3454, "geometry": {"type": "LineString", "coordinates": [[-86.4367, 36.338], [-86.4367, 36.338], [-86.4367, 36.338], [-86.4367, 36.338]]}, "properties": {"OBJECTID": 3454, "Category_of_Shoreline_Construction": "Unknown", "Nature_of_Construction": "", "Object_Name": "", "Status": "", "Water_Level": "", "Condition": "", "Information": "PYLONS", "Scale_Minimum": 45000, "Source_Date": "20140603", "Source_Indication": "US,U3,SURVY,2014_SEAS_LIDAR_Mapping_Survey", "Source_Dataset": "U37CR221.000", "Feature_ID": "U3 1392980768 00001"}}, {"type": "Feature", "id": 3455, "geometry": {"type": "LineString", "coordinates": [[-86.4367, 36.3378], [-86.4367, 36.3378], [-86.4367, 36.3378], [-86.4367, 36.3378]]}, "properties": {"OBJECTID": 3455, "Category_of_Shoreline_Construction": "Unknown", "Nature_of_Construction": "", "Object_Name": "", "Status": "", "Water_Level": "", "Condition": "", "Information": "PYLONS", "Scale_Minimum": 45000, "Source_Date": "20140603", "Source_Indication": "US,U3,SURVY,2014_SEAS_LIDAR_Mapping_Survey", "Source_Dataset": "U37CR221.000", "Feature_ID": "U3 1392980769 00001"}}, {"type": "Feature", "id": 3456, "geometry": {"type": "LineString", "coordinates": [[-86.4366, 36.3373], [-86.4365, 36.3373], [-86.4366, 36.3373], [-86.4366, 36.3373]]}, "properties": {"OBJECTID": 3456, "Category_of_Shoreline_Construction": "Unknown", "Nature_of_Construction": "", "Object_Name": "", "Status": "", "Water_Level": "", "Condition": "", "Information": "PYLONS", "Scale_Minimum": 45000, "Source_Date": "20140603", "Source_Indication": "US,U3,SURVY,2014_SEAS_LIDAR_Mapping_Survey", "Source_Dataset": "U37CR221.000", "Feature_ID": "U3 1392980770 00001"}}, {"type": "Feature", "id": 3457, "geometry": {"type": "LineString", "coordinates": [[-86.4366, 36.3375], [-86.4366, 36.3375], [-86.4366, 36.3375], [-86.4366, 36.3375]]}, "properties": {"OBJECTID": 3457, "Category_of_Shoreline_Construction": "Unknown", "Nature_of_Construction": "", "Object_Name": "", "Status": "", "Water_Level": "", "Condition": "", "Information": "PYLONS", "Scale_Minimum": 45000, "Source_Date": "20140603", "Source_Indication": "US,U3,SURVY,2014_SEAS_LIDAR_Mapping_Survey", "Source_Dataset": "U37CR221.000", "Feature_ID": "U3 1392980771 00001"}}, {"type": "Feature", "id": 3458, "geometry": {"type": "LineString", "coordinates": [[-86.4367, 36.3376], [-86.4367, 36.3376], [-86.4367, 36.3376], [-86.4367, 36.3376]]}, "properties": {"OBJECTID": 3458, "Category_of_Shoreline_Construction": "Unknown", "Nature_of_Construction": "", "Object_Name": "", "Status": "", "Water_Level": "", "Condition": "", "Information": "PYLONS", "Scale_Minimum": 45000, "Source_Date": "20140603", "Source_Indication": "US,U3,SURVY,2014_SEAS_LIDAR_Mapping_Survey", "Source_Dataset": "U37CR221.000", "Feature_ID": "U3 1392980772 00001"}}, {"type": "Feature", "id": 3459, "geometry": {"type": "LineString", "coordinates": [[-86.4367, 36.3378], [-86.4367, 36.3378], [-86.4367, 36.3378], [-86.4367, 36.3378]]}, "properties": {"OBJECTID": 3459, "Category_of_Shoreline_Construction": "Unknown", "Nature_of_Construction": "", "Object_Name": "", "Status": "", "Water_Level": "", "Condition": "", "Information": "PYLONS", "Scale_Minimum": 45000, "Source_Date": "20140603", "Source_Indication": "US,U3,SURVY,2014_SEAS_LIDAR_Mapping_Survey", "Source_Dataset": "U37CR221.000", "Feature_ID": "U3 1392980773 00001"}}, {"type": "Feature", "id": 3460, "geometry": {"type": "LineString", "coordinates": [[-86.1752, 36.373], [-86.1753, 36.373], [-86.1752, 36.373], [-86.1752, 36.373]]}, "properties": {"OBJECTID": 3460, "Category_of_Shoreline_Construction": "Unknown", "Nature_of_Construction": "", "Object_Name": "", "Status": "", "Water_Level": "", "Condition": "", "Information": "PYLONS", "Scale_Minimum": 45000, "Source_Date": "20140603", "Source_Indication": "US,U3,SURVY,2014_SEAS_LIDAR_Mapping_Survey", "Source_Dataset": "U37CR221.000", "Feature_ID": "U3 1392980774 00001"}}, {"type": "Feature", "id": 3461, "geometry": {"type": "LineString", "coordinates": [[-86.4366, 36.3373], [-86.4366, 36.3373], [-86.4366, 36.3373], [-86.4366, 36.3373]]}, "properties": {"OBJECTID": 3461, "Category_of_Shoreline_Construction": "Unknown", "Nature_of_Construction": "", "Object_Name": "", "Status": "", "Water_Level": "", "Condition": "", "Information": "PYLONS", "Scale_Minimum": 45000, "Source_Date": "20140603", "Source_Indication": "US,U3,SURVY,2014_SEAS_LIDAR_Mapping_Survey", "Source_Dataset": "U37CR221.000", "Feature_ID": "U3 1392980775 00001"}}, {"type": "Feature", "id": 3462, "geometry": {"type": "LineString", "coordinates": [[-86.4366, 36.3374], [-86.4366, 36.3374], [-86.4366, 36.3374], [-86.4366, 36.3374]]}, "properties": {"OBJECTID": 3462, "Category_of_Shoreline_Construction": "Unknown", "Nature_of_Construction": "", "Object_Name": "", "Status": "", "Water_Level": "", "Condition": "", "Information": "PYLONS", "Scale_Minimum": 45000, "Source_Date": "20140603", "Source_Indication": "US,U3,SURVY,2014_SEAS_LIDAR_Mapping_Survey", "Source_Dataset": "U37CR221.000", "Feature_ID": "U3 1392980776 00001"}}, {"type": "Feature", "id": 3463, "geometry": {"type": "LineString", "coordinates": [[-86.4365, 36.3372], [-86.4365, 36.3372], [-86.4365, 36.3372], [-86.4365, 36.3372]]}, "properties": {"OBJECTID": 3463, "Category_of_Shoreline_Construction": "Unknown", "Nature_of_Construction": "", "Object_Name": "", "Status": "", "Water_Level": "", "Condition": "", "Information": "PYLONS", "Scale_Minimum": 45000, "Source_Date": "20140603", "Source_Indication": "US,U3,SURVY,2014_SEAS_LIDAR_Mapping_Survey", "Source_Dataset": "U37CR221.000", "Feature_ID": "U3 1392980777 00001"}}, {"type": "Feature", "id": 3464, "geometry": {"type": "LineString", "coordinates": [[-86.4364, 36.3378], [-86.4364, 36.3378], [-86.4365, 36.3377], [-86.4364, 36.3378]]}, "properties": {"OBJECTID": 3464, "Category_of_Shoreline_Construction": "Unknown", "Nature_of_Construction": "", "Object_Name": "", "Status": "", "Water_Level": "", "Condition": "", "Information": "PYLONS", "Scale_Minimum": 45000, "Source_Date": "20140603", "Source_Indication": "US,U3,SURVY,2014_SEAS_LIDAR_Mapping_Survey", "Source_Dataset": "U37CR221.000", "Feature_ID": "U3 1392980778 00001"}}, {"type": "Feature", "id": 3465, "geometry": {"type": "LineString", "coordinates": [[-86.2632, 36.3002], [-86.2635, 36.3002], [-86.2632, 36.3002], [-86.2632, 36.3002]]}, "properties": {"OBJECTID": 3465, "Category_of_Shoreline_Construction": "Unknown", "Nature_of_Construction": "", "Object_Name": "", "Status": "", "Water_Level": "", "Condition": "", "Information": "PYLONS", "Scale_Minimum": 45000, "Source_Date": "20140603", "Source_Indication": "US,U3,SURVY,2014_SEAS_LIDAR_Mapping_Survey", "Source_Dataset": "U37CR221.000", "Feature_ID": "U3 1392980779 00001"}}, {"type": "Feature", "id": 3466, "geometry": {"type": "LineString", "coordinates": [[-86.4366, 36.3372], [-86.4366, 36.3372], [-86.4366, 36.3372], [-86.4366, 36.3372]]}, "properties": {"OBJECTID": 3466, "Category_of_Shoreline_Construction": "Unknown", "Nature_of_Construction": "", "Object_Name": "", "Status": "", "Water_Level": "", "Condition": "", "Information": "PYLONS", "Scale_Minimum": 45000, "Source_Date": "20140603", "Source_Indication": "US,U3,SURVY,2014_SEAS_LIDAR_Mapping_Survey", "Source_Dataset": "U37CR221.000", "Feature_ID": "U3 1392980780 00001"}}, {"type": "Feature", "id": 3467, "geometry": {"type": "LineString", "coordinates": [[-86.4369, 36.3386], [-86.4369, 36.3387], [-86.4369, 36.3386], [-86.4369, 36.3386]]}, "properties": {"OBJECTID": 3467, "Category_of_Shoreline_Construction": "Unknown", "Nature_of_Construction": "", "Object_Name": "", "Status": "", "Water_Level": "", "Condition": "", "Information": "PYLONS", "Scale_Minimum": 45000, "Source_Date": "20140603", "Source_Indication": "US,U3,SURVY,2014_SEAS_LIDAR_Mapping_Survey", "Source_Dataset": "U37CR221.000", "Feature_ID": "U3 1392980781 00001"}}, {"type": "Feature", "id": 3468, "geometry": {"type": "LineString", "coordinates": [[-86.4369, 36.3385], [-86.4369, 36.3385], [-86.4369, 36.3385], [-86.4369, 36.3385]]}, "properties": {"OBJECTID": 3468, "Category_of_Shoreline_Construction": "Unknown", "Nature_of_Construction": "", "Object_Name": "", "Status": "", "Water_Level": "", "Condition": "", "Information": "PYLONS", "Scale_Minimum": 45000, "Source_Date": "20140603", "Source_Indication": "US,U3,SURVY,2014_SEAS_LIDAR_Mapping_Survey", "Source_Dataset": "U37CR221.000", "Feature_ID": "U3 1392980782 00001"}}, {"type": "Feature", "id": 3469, "geometry": {"type": "LineString", "coordinates": [[-86.437, 36.3386], [-86.437, 36.3386], [-86.437, 36.3386], [-86.437, 36.3386]]}, "properties": {"OBJECTID": 3469, "Category_of_Shoreline_Construction": "Unknown", "Nature_of_Construction": "", "Object_Name": "", "Status": "", "Water_Level": "", "Condition": "", "Information": "PYLONS", "Scale_Minimum": 45000, "Source_Date": "20140603", "Source_Indication": "US,U3,SURVY,2014_SEAS_LIDAR_Mapping_Survey", "Source_Dataset": "U37CR221.000", "Feature_ID": "U3 1392980783 00001"}}, {"type": "Feature", "id": 3470, "geometry": {"type": "LineString", "coordinates": [[-86.4372, 36.3393], [-86.4372, 36.3394], [-86.4371, 36.3394], [-86.4372, 36.3393]]}, "properties": {"OBJECTID": 3470, "Category_of_Shoreline_Construction": "Unknown", "Nature_of_Construction": "", "Object_Name": "", "Status": "", "Water_Level": "", "Condition": "", "Information": "PYLONS", "Scale_Minimum": 45000, "Source_Date": "20140603", "Source_Indication": "US,U3,SURVY,2014_SEAS_LIDAR_Mapping_Survey", "Source_Dataset": "U37CR221.000", "Feature_ID": "U3 1392980784 00001"}}, {"type": "Feature", "id": 3471, "geometry": {"type": "LineString", "coordinates": [[-86.4369, 36.3394], [-86.4369, 36.3394], [-86.437, 36.3394], [-86.4369, 36.3394]]}, "properties": {"OBJECTID": 3471, "Category_of_Shoreline_Construction": "Unknown", "Nature_of_Construction": "", "Object_Name": "", "Status": "", "Water_Level": "", "Condition": "", "Information": "PYLONS", "Scale_Minimum": 45000, "Source_Date": "20140603", "Source_Indication": "US,U3,SURVY,2014_SEAS_LIDAR_Mapping_Survey", "Source_Dataset": "U37CR221.000", "Feature_ID": "U3 1392980785 00001"}}, {"type": "Feature", "id": 3472, "geometry": {"type": "LineString", "coordinates": [[-86.4369, 36.3383], [-86.4369, 36.3383], [-86.4369, 36.3383], [-86.4369, 36.3383]]}, "properties": {"OBJECTID": 3472, "Category_of_Shoreline_Construction": "Unknown", "Nature_of_Construction": "", "Object_Name": "", "Status": "", "Water_Level": "", "Condition": "", "Information": "PYLONS", "Scale_Minimum": 45000, "Source_Date": "20140603", "Source_Indication": "US,U3,SURVY,2014_SEAS_LIDAR_Mapping_Survey", "Source_Dataset": "U37CR221.000", "Feature_ID": "U3 1392980786 00001"}}, {"type": "Feature", "id": 3473, "geometry": {"type": "LineString", "coordinates": [[-86.4367, 36.3384], [-86.4366, 36.3385], [-86.4367, 36.3384], [-86.4367, 36.3384]]}, "properties": {"OBJECTID": 3473, "Category_of_Shoreline_Construction": "Unknown", "Nature_of_Construction": "", "Object_Name": "", "Status": "", "Water_Level": "", "Condition": "", "Information": "PYLONS", "Scale_Minimum": 45000, "Source_Date": "20140603", "Source_Indication": "US,U3,SURVY,2014_SEAS_LIDAR_Mapping_Survey", "Source_Dataset": "U37CR221.000", "Feature_ID": "U3 1392980787 00001"}}, {"type": "Feature", "id": 3474, "geometry": {"type": "LineString", "coordinates": [[-86.4365, 36.3381], [-86.4365, 36.3381], [-86.4366, 36.3381], [-86.4365, 36.3381]]}, "properties": {"OBJECTID": 3474, "Category_of_Shoreline_Construction": "Unknown", "Nature_of_Construction": "", "Object_Name": "", "Status": "", "Water_Level": "", "Condition": "", "Information": "PYLONS", "Scale_Minimum": 45000, "Source_Date": "20140603", "Source_Indication": "US,U3,SURVY,2014_SEAS_LIDAR_Mapping_Survey", "Source_Dataset": "U37CR221.000", "Feature_ID": "U3 1392980788 00001"}}, {"type": "Feature", "id": 3475, "geometry": {"type": "LineString", "coordinates": [[-86.4369, 36.3385], [-86.4369, 36.3385], [-86.4369, 36.3385], [-86.4369, 36.3385]]}, "properties": {"OBJECTID": 3475, "Category_of_Shoreline_Construction": "Unknown", "Nature_of_Construction": "", "Object_Name": "", "Status": "", "Water_Level": "", "Condition": "", "Information": "PYLONS", "Scale_Minimum": 45000, "Source_Date": "20140603", "Source_Indication": "US,U3,SURVY,2014_SEAS_LIDAR_Mapping_Survey", "Source_Dataset": "U37CR221.000", "Feature_ID": "U3 1392980789 00001"}}, {"type": "Feature", "id": 3476, "geometry": {"type": "LineString", "coordinates": [[-86.4368, 36.3381], [-86.4368, 36.3381], [-86.4368, 36.3381], [-86.4368, 36.3381]]}, "properties": {"OBJECTID": 3476, "Category_of_Shoreline_Construction": "Unknown", "Nature_of_Construction": "", "Object_Name": "", "Status": "", "Water_Level": "", "Condition": "", "Information": "PYLONS", "Scale_Minimum": 45000, "Source_Date": "20140603", "Source_Indication": "US,U3,SURVY,2014_SEAS_LIDAR_Mapping_Survey", "Source_Dataset": "U37CR221.000", "Feature_ID": "U3 1392980790 00001"}}, {"type": "Feature", "id": 3477, "geometry": {"type": "LineString", "coordinates": [[-86.4368, 36.3381], [-86.4368, 36.3381], [-86.4368, 36.3381], [-86.4368, 36.3381]]}, "properties": {"OBJECTID": 3477, "Category_of_Shoreline_Construction": "Unknown", "Nature_of_Construction": "", "Object_Name": "", "Status": "", "Water_Level": "", "Condition": "", "Information": "PYLONS", "Scale_Minimum": 45000, "Source_Date": "20140603", "Source_Indication": "US,U3,SURVY,2014_SEAS_LIDAR_Mapping_Survey", "Source_Dataset": "U37CR221.000", "Feature_ID": "U3 1392980791 00001"}}, {"type": "Feature", "id": 3478, "geometry": {"type": "LineString", "coordinates": [[-86.4368, 36.3383], [-86.4368, 36.3383], [-86.4368, 36.3383], [-86.4368, 36.3383]]}, "properties": {"OBJECTID": 3478, "Category_of_Shoreline_Construction": "Unknown", "Nature_of_Construction": "", "Object_Name": "", "Status": "", "Water_Level": "", "Condition": "", "Information": "PYLONS", "Scale_Minimum": 45000, "Source_Date": "20140603", "Source_Indication": "US,U3,SURVY,2014_SEAS_LIDAR_Mapping_Survey", "Source_Dataset": "U37CR221.000", "Feature_ID": "U3 1392980792 00001"}}, {"type": "Feature", "id": 3479, "geometry": {"type": "LineString", "coordinates": [[-86.437, 36.3388], [-86.4369, 36.3388], [-86.437, 36.3388], [-86.437, 36.3388]]}, "properties": {"OBJECTID": 3479, "Category_of_Shoreline_Construction": "Unknown", "Nature_of_Construction": "", "Object_Name": "", "Status": "", "Water_Level": "", "Condition": "", "Information": "PYLONS", "Scale_Minimum": 45000, "Source_Date": "20140603", "Source_Indication": "US,U3,SURVY,2014_SEAS_LIDAR_Mapping_Survey", "Source_Dataset": "U37CR221.000", "Feature_ID": "U3 1392980793 00001"}}, {"type": "Feature", "id": 3480, "geometry": {"type": "LineString", "coordinates": [[-86.4373, 36.3402], [-86.4374, 36.3402], [-86.4374, 36.3402], [-86.4373, 36.3402]]}, "properties": {"OBJECTID": 3480, "Category_of_Shoreline_Construction": "Unknown", "Nature_of_Construction": "", "Object_Name": "", "Status": "", "Water_Level": "", "Condition": "", "Information": "PYLONS", "Scale_Minimum": 45000, "Source_Date": "20140603", "Source_Indication": "US,U3,SURVY,2014_SEAS_LIDAR_Mapping_Survey", "Source_Dataset": "U37CR221.000", "Feature_ID": "U3 1392980794 00001"}}, {"type": "Feature", "id": 3481, "geometry": {"type": "LineString", "coordinates": [[-86.437, 36.3388], [-86.437, 36.3388], [-86.437, 36.3388], [-86.437, 36.3388]]}, "properties": {"OBJECTID": 3481, "Category_of_Shoreline_Construction": "Unknown", "Nature_of_Construction": "", "Object_Name": "", "Status": "", "Water_Level": "", "Condition": "", "Information": "PYLONS", "Scale_Minimum": 45000, "Source_Date": "20140603", "Source_Indication": "US,U3,SURVY,2014_SEAS_LIDAR_Mapping_Survey", "Source_Dataset": "U37CR221.000", "Feature_ID": "U3 1392980795 00001"}}, {"type": "Feature", "id": 3482, "geometry": {"type": "LineString", "coordinates": [[-86.4367, 36.3388], [-86.4367, 36.3388], [-86.4368, 36.3388], [-86.4367, 36.3388]]}, "properties": {"OBJECTID": 3482, "Category_of_Shoreline_Construction": "Unknown", "Nature_of_Construction": "", "Object_Name": "", "Status": "", "Water_Level": "", "Condition": "", "Information": "PYLONS", "Scale_Minimum": 45000, "Source_Date": "20140603", "Source_Indication": "US,U3,SURVY,2014_SEAS_LIDAR_Mapping_Survey", "Source_Dataset": "U37CR221.000", "Feature_ID": "U3 1392980796 00001"}}, {"type": "Feature", "id": 3483, "geometry": {"type": "LineString", "coordinates": [[-86.4368, 36.338], [-86.4368, 36.338], [-86.4368, 36.338], [-86.4368, 36.338]]}, "properties": {"OBJECTID": 3483, "Category_of_Shoreline_Construction": "Unknown", "Nature_of_Construction": "", "Object_Name": "", "Status": "", "Water_Level": "", "Condition": "", "Information": "PYLONS", "Scale_Minimum": 45000, "Source_Date": "20140603", "Source_Indication": "US,U3,SURVY,2014_SEAS_LIDAR_Mapping_Survey", "Source_Dataset": "U37CR221.000", "Feature_ID": "U3 1392980797 00001"}}, {"type": "Feature", "id": 3484, "geometry": {"type": "LineString", "coordinates": [[-86.4371, 36.339], [-86.437, 36.339], [-86.437, 36.339], [-86.4371, 36.339]]}, "properties": {"OBJECTID": 3484, "Category_of_Shoreline_Construction": "Unknown", "Nature_of_Construction": "", "Object_Name": "", "Status": "", "Water_Level": "", "Condition": "", "Information": "PYLONS", "Scale_Minimum": 45000, "Source_Date": "20140603", "Source_Indication": "US,U3,SURVY,2014_SEAS_LIDAR_Mapping_Survey", "Source_Dataset": "U37CR221.000", "Feature_ID": "U3 1392980798 00001"}}, {"type": "Feature", "id": 3486, "geometry": {"type": "LineString", "coordinates": [[-85.9438, 36.2414], [-85.9438, 36.2414], [-85.9437, 36.2413], [-85.9438, 36.2414]]}, "properties": {"OBJECTID": 3486, "Category_of_Shoreline_Construction": "Unknown", "Nature_of_Construction": "", "Object_Name": "", "Status": "", "Water_Level": "", "Condition": "", "Information": "", "Scale_Minimum": 45000, "Source_Date": "20140604", "Source_Indication": "US,U3,SURVY,2014_SEAS_LIDAR_Mapping_Survey", "Source_Dataset": "U37CR307.000", "Feature_ID": "U3 1392989198 00001"}}, {"type": "Feature", "id": 3490, "geometry": {"type": "LineString", "coordinates": [[-85.9432, 36.2907], [-85.9448, 36.2894]]}, "properties": {"OBJECTID": 3490, "Category_of_Shoreline_Construction": "Unknown", "Nature_of_Construction": "", "Object_Name": "", "Status": "", "Water_Level": "", "Condition": "", "Information": "", "Scale_Minimum": 45000, "Source_Date": "20140604", "Source_Indication": "US,U3,SURVY,2014_SEAS_LIDAR_Mapping_Survey", "Source_Dataset": "U37CR307.000", "Feature_ID": "U3 1392989203 00001"}}, {"type": "Feature", "id": 3491, "geometry": {"type": "LineString", "coordinates": [[-85.944, 36.2405], [-85.9442, 36.2406], [-85.944, 36.2406], [-85.944, 36.2405]]}, "properties": {"OBJECTID": 3491, "Category_of_Shoreline_Construction": "Unknown", "Nature_of_Construction": "", "Object_Name": "", "Status": "", "Water_Level": "", "Condition": "", "Information": "", "Scale_Minimum": 45000, "Source_Date": "20140604", "Source_Indication": "US,U3,SURVY,2014_SEAS_LIDAR_Mapping_Survey", "Source_Dataset": "U37CR307.000", "Feature_ID": "U3 1392989205 00001"}}, {"type": "Feature", "id": 3492, "geometry": {"type": "LineString", "coordinates": [[-85.9553, 36.2481], [-85.9552, 36.2482], [-85.9552, 36.2481], [-85.9553, 36.2481]]}, "properties": {"OBJECTID": 3492, "Category_of_Shoreline_Construction": "Unknown", "Nature_of_Construction": "", "Object_Name": "", "Status": "", "Water_Level": "", "Condition": "", "Information": "", "Scale_Minimum": 45000, "Source_Date": "20140604", "Source_Indication": "US,U3,SURVY,2014_SEAS_LIDAR_Mapping_Survey", "Source_Dataset": "U37CR307.000", "Feature_ID": "U3 1392989206 00001"}}, {"type": "Feature", "id": 3493, "geometry": {"type": "LineString", "coordinates": [[-85.9544, 36.2487], [-85.9543, 36.2486], [-85.9544, 36.2487], [-85.9544, 36.2487]]}, "properties": {"OBJECTID": 3493, "Category_of_Shoreline_Construction": "Unknown", "Nature_of_Construction": "", "Object_Name": "", "Status": "", "Water_Level": "", "Condition": "", "Information": "", "Scale_Minimum": 45000, "Source_Date": "20140604", "Source_Indication": "US,U3,SURVY,2014_SEAS_LIDAR_Mapping_Survey", "Source_Dataset": "U37CR307.000", "Feature_ID": "U3 1392989207 00001"}}, {"type": "Feature", "id": 3496, "geometry": {"type": "LineString", "coordinates": [[-85.9431, 36.2905], [-85.9442, 36.2893]]}, "properties": {"OBJECTID": 3496, "Category_of_Shoreline_Construction": "Unknown", "Nature_of_Construction": "", "Object_Name": "", "Status": "", "Water_Level": "", "Condition": "", "Information": "", "Scale_Minimum": 45000, "Source_Date": "20140604", "Source_Indication": "US,U3,SURVY,2014_SEAS_LIDAR_Mapping_Survey", "Source_Dataset": "U37CR307.000", "Feature_ID": "U3 1392989213 00001"}}]}