{"type": "FeatureCollection", "features": [{"type": "Feature", "id": 726, "geometry": {"type": "Polygon", "coordinates": [[[-86.6562, 36.2959], [-86.6587, 36.2973], [-86.6549, 36.2951], [-86.6562, 36.2959]]]}, "properties": {"OBJECTID": 726, "Category_of_Shoreline_Construction": "Lock/Guidewall", "Nature_of_Construction": "Concreted/Metal", "Object_Name": "", "Status": "", "Water_Level": "Always Dry", "Information": "", "Condition": "", "Scale_Minimum": 45000, "Source_Date": "20131113", "Source_Indication": "US,U3,SURVY,2013_SEAS_LIDAR_Mapping_Survey", "Source_Dataset": "U37CR149.000", "Feature_ID": "U3 1392977266 00001"}}, {"type": "Feature", "id": 731, "geometry": {"type": "Polygon", "coordinates": [[[-86.6565, 36.2957], [-86.6582, 36.2965], [-86.6559, 36.2951], [-86.6565, 36.2957]]]}, "properties": {"OBJECTID": 731, "Category_of_Shoreline_Construction": "Lock/Guidewall", "Nature_of_Construction": "Concreted/Metal", "Object_Name": "", "Status": "", "Water_Level": "Always Dry", "Information": "", "Condition": "", "Scale_Minimum": 45000, "Source_Date": "20131113", "Source_Indication": "US,U3,SURVY,2013_SEAS_LIDAR_Mapping_Survey", "Source_Dataset": "U37CR149.000", "Feature_ID": "U3 1392977265 00001"}}, {"type": "Feature", "id": 736, "geometry": {"type": "Polygon", "coordinates": [[[-86.6402, 36.2521], [-86.6406, 36.2523], [-86.6412, 36.2513], [-86.6402, 36.2521]]]}, "properties": {"OBJECTID": 736, "Category_of_Shoreline_Construction": "Wharf (Quay)", "Nature_of_Construction": "", "Object_Name": "Old Hickory Boat Dock and Marina", "Status": "", "Water_Level": "Always Dry", "Information": "", "Condition": "", "Scale_Minimum": 22000, "Source_Date": "20050408", "Source_Indication": "US,U3,USACE,LRN_GIS_Data", "Source_Dataset": "U37CR149.000", "Feature_ID": "U3 1392973181 00001"}}, {"type": "Feature", "id": 737, "geometry": {"type": "Polygon", "coordinates": [[[-86.6409, 36.2511], [-86.641, 36.2512], [-86.6411, 36.251], [-86.6409, 36.2511]]]}, "properties": {"OBJECTID": 737, "Category_of_Shoreline_Construction": "Wharf (Quay)", "Nature_of_Construction": "", "Object_Name": "Old Hickory Boat Dock and Marina", "Status": "", "Water_Level": "Always Dry", "Information": "", "Condition": "", "Scale_Minimum": 22000, "Source_Date": "20050408", "Source_Indication": "US,U3,USACE,LRN_GIS_Data", "Source_Dataset": "U37CR149.000", "Feature_ID": "U3 1392973175 00001"}}, {"type": "Feature", "id": 739, "geometry": {"type": "Polygon", "coordinates": [[[-86.6477, 36.2759], [-86.6475, 36.276], [-86.6476, 36.2762], [-86.6477, 36.2759]]]}, "properties": {"OBJECTID": 739, "Category_of_Shoreline_Construction": "Wharf (Quay)", "Nature_of_Construction": "", "Object_Name": "E.I. DuPont De Numours & Co.", "Status": "", "Water_Level": "Always Dry", "Information": "", "Condition": "", "Scale_Minimum": 22000, "Source_Date": "20050408", "Source_Indication": "US,U3,USACE,LRN_GIS_Data", "Source_Dataset": "U37CR149.000", "Feature_ID": "U3 1392973121 00001"}}, {"type": "Feature", "id": 740, "geometry": {"type": "Polygon", "coordinates": [[[-86.6461, 36.2977], [-86.6462, 36.2978], [-86.6463, 36.2977], [-86.6461, 36.2977]]]}, "properties": {"OBJECTID": 740, "Category_of_Shoreline_Construction": "Wharf (Quay)", "Nature_of_Construction": "", "Object_Name": "Anchor HIgh Marina", "Status": "", "Water_Level": "Always Dry", "Information": "", "Condition": "", "Scale_Minimum": 22000, "Source_Date": "20050408", "Source_Indication": "US,U3,USACE,LRN_GIS_Data", "Source_Dataset": "U37CR149.000", "Feature_ID": "U3 1392973126 00001"}}, {"type": "Feature", "id": 741, "geometry": {"type": "Polygon", "coordinates": [[[-86.647, 36.2985], [-86.6473, 36.2982], [-86.6461, 36.2982], [-86.647, 36.2985]]]}, "properties": {"OBJECTID": 741, "Category_of_Shoreline_Construction": "Wharf (Quay)", "Nature_of_Construction": "", "Object_Name": "Anchor HIgh Marina", "Status": "", "Water_Level": "Always Dry", "Information": "", "Condition": "", "Scale_Minimum": 22000, "Source_Date": "20050408", "Source_Indication": "US,U3,USACE,LRN_GIS_Data", "Source_Dataset": "U37CR149.000", "Feature_ID": "U3 1392973124 00001"}}, {"type": "Feature", "id": 748, "geometry": {"type": "Polygon", "coordinates": [[[-86.6505, 36.2972], [-86.6503, 36.2971], [-86.6503, 36.2972], [-86.6505, 36.2972]]]}, "properties": {"OBJECTID": 748, "Category_of_Shoreline_Construction": "Wharf (Quay)", "Nature_of_Construction": "", "Object_Name": "", "Status": "", "Water_Level": "Always Dry", "Information": "", "Condition": "", "Scale_Minimum": 22000, "Source_Date": "20050408", "Source_Indication": "US,U3,USACE,LRN_GIS_Data", "Source_Dataset": "U37CR149.000", "Feature_ID": "U3 1392973122 00001"}}, {"type": "Feature", "id": 753, "geometry": {"type": "Polygon", "coordinates": [[[-86.6474, 36.2977], [-86.646, 36.2974], [-86.6472, 36.298], [-86.6474, 36.2977]]]}, "properties": {"OBJECTID": 753, "Category_of_Shoreline_Construction": "Wharf (Quay)", "Nature_of_Construction": "", "Object_Name": "Anchor HIgh Marina", "Status": "", "Water_Level": "Always Dry", "Information": "", "Condition": "", "Scale_Minimum": 22000, "Source_Date": "20050408", "Source_Indication": "US,U3,USACE,LRN_GIS_Data", "Source_Dataset": "U37CR149.000", "Feature_ID": "U3 1392973131 00001"}}, {"type": "Feature", "id": 754, "geometry": {"type": "Polygon", "coordinates": [[[-86.6476, 36.2963], [-86.6475, 36.2964], [-86.6471, 36.2967], [-86.6476, 36.2963]]]}, "properties": {"OBJECTID": 754, "Category_of_Shoreline_Construction": "Wharf (Quay)", "Nature_of_Construction": "", "Object_Name": "Anchor HIgh Marina", "Status": "", "Water_Level": "Always Dry", "Information": "", "Condition": "", "Scale_Minimum": 22000, "Source_Date": "20050408", "Source_Indication": "US,U3,USACE,LRN_GIS_Data", "Source_Dataset": "U37CR149.000", "Feature_ID": "U3 1392973139 00001"}}, {"type": "Feature", "id": 758, "geometry": {"type": "Polygon", "coordinates": [[[-86.6409, 36.2513], [-86.6403, 36.2516], [-86.6404, 36.2517], [-86.6409, 36.2513]]]}, "properties": {"OBJECTID": 758, "Category_of_Shoreline_Construction": "Wharf (Quay)", "Nature_of_Construction": "", "Object_Name": "Old Hickory Boat Dock and Marina", "Status": "", "Water_Level": "Always Dry", "Information": "", "Condition": "", "Scale_Minimum": 22000, "Source_Date": "20050408", "Source_Indication": "US,U3,USACE,LRN_GIS_Data", "Source_Dataset": "U37CR149.000", "Feature_ID": "U3 1392973148 00001"}}, {"type": "Feature", "id": 760, "geometry": {"type": "Polygon", "coordinates": [[[-86.6403, 36.2516], [-86.6401, 36.2517], [-86.6402, 36.2518], [-86.6403, 36.2516]]]}, "properties": {"OBJECTID": 760, "Category_of_Shoreline_Construction": "Wharf (Quay)", "Nature_of_Construction": "", "Object_Name": "Old Hickory Boat Dock and Marina", "Status": "", "Water_Level": "Always Dry", "Information": "", "Condition": "", "Scale_Minimum": 22000, "Source_Date": "20050408", "Source_Indication": "US,U3,USACE,LRN_GIS_Data", "Source_Dataset": "U37CR149.000", "Feature_ID": "U3 1392973142 00001"}}, {"type": "Feature", "id": 761, "geometry": {"type": "Polygon", "coordinates": [[[-86.6385, 36.2518], [-86.6372, 36.2505], [-86.6368, 36.2505], [-86.6385, 36.2518]]]}, "properties": {"OBJECTID": 761, "Category_of_Shoreline_Construction": "Wharf (Quay)", "Nature_of_Construction": "", "Object_Name": "Lakewood Marina", "Status": "", "Water_Level": "Always Dry", "Information": "", "Condition": "", "Scale_Minimum": 22000, "Source_Date": "20050408", "Source_Indication": "US,U3,USACE,LRN_GIS_Data", "Source_Dataset": "U37CR149.000", "Feature_ID": "U3 1392973143 00001"}}, {"type": "Feature", "id": 762, "geometry": {"type": "Polygon", "coordinates": [[[-86.6307, 36.2592], [-86.6305, 36.2591], [-86.6304, 36.2593], [-86.6307, 36.2592]]]}, "properties": {"OBJECTID": 762, "Category_of_Shoreline_Construction": "Wharf (Quay)", "Nature_of_Construction": "", "Object_Name": "", "Status": "", "Water_Level": "Always Dry", "Information": "", "Condition": "", "Scale_Minimum": 22000, "Source_Date": "20050408", "Source_Indication": "US,U3,USACE,LRN_GIS_Data", "Source_Dataset": "U37CR149.000", "Feature_ID": "U3 1392973145 00001"}}, {"type": "Feature", "id": 764, "geometry": {"type": "Polygon", "coordinates": [[[-86.6397, 36.2525], [-86.6398, 36.2526], [-86.6402, 36.2525], [-86.6397, 36.2525]]]}, "properties": {"OBJECTID": 764, "Category_of_Shoreline_Construction": "Wharf (Quay)", "Nature_of_Construction": "", "Object_Name": "Old Hickory Boat Dock and Marina", "Status": "", "Water_Level": "Always Dry", "Information": "", "Condition": "", "Scale_Minimum": 22000, "Source_Date": "20050408", "Source_Indication": "US,U3,USACE,LRN_GIS_Data", "Source_Dataset": "U37CR149.000", "Feature_ID": "U3 1392973144 00001"}}, {"type": "Feature", "id": 765, "geometry": {"type": "Polygon", "coordinates": [[[-86.6414, 36.2511], [-86.6413, 36.2511], [-86.6412, 36.2513], [-86.6414, 36.2511]]]}, "properties": {"OBJECTID": 765, "Category_of_Shoreline_Construction": "Wharf (Quay)", "Nature_of_Construction": "", "Object_Name": "Old Hickory Boat Dock and Marina", "Status": "", "Water_Level": "Always Dry", "Information": "", "Condition": "", "Scale_Minimum": 22000, "Source_Date": "20050408", "Source_Indication": "US,U3,USACE,LRN_GIS_Data", "Source_Dataset": "U37CR149.000", "Feature_ID": "U3 1392973147 00001"}}, {"type": "Feature", "id": 766, "geometry": {"type": "Polygon", "coordinates": [[[-86.6458, 36.2973], [-86.6451, 36.2973], [-86.6456, 36.2974], [-86.6458, 36.2973]]]}, "properties": {"OBJECTID": 766, "Category_of_Shoreline_Construction": "Wharf (Quay)", "Nature_of_Construction": "", "Object_Name": "Anchor HIgh Marina", "Status": "", "Water_Level": "Always Dry", "Information": "", "Condition": "", "Scale_Minimum": 22000, "Source_Date": "20050408", "Source_Indication": "US,U3,USACE,LRN_GIS_Data", "Source_Dataset": "U37CR149.000", "Feature_ID": "U3 1392973146 00001"}}, {"type": "Feature", "id": 767, "geometry": {"type": "Polygon", "coordinates": [[[-86.645, 36.2975], [-86.645, 36.2974], [-86.6447, 36.2974], [-86.645, 36.2975]]]}, "properties": {"OBJECTID": 767, "Category_of_Shoreline_Construction": "Wharf (Quay)", "Nature_of_Construction": "", "Object_Name": "Anchor HIgh Marina", "Status": "", "Water_Level": "Always Dry", "Information": "", "Condition": "", "Scale_Minimum": 22000, "Source_Date": "20050408", "Source_Indication": "US,U3,USACE,LRN_GIS_Data", "Source_Dataset": "U37CR149.000", "Feature_ID": "U3 1392973150 00001"}}, {"type": "Feature", "id": 768, "geometry": {"type": "Polygon", "coordinates": [[[-86.6396, 36.2518], [-86.6397, 36.252], [-86.6401, 36.2519], [-86.6396, 36.2518]]]}, "properties": {"OBJECTID": 768, "Category_of_Shoreline_Construction": "Wharf (Quay)", "Nature_of_Construction": "", "Object_Name": "Old Hickory Boat Dock and Marina", "Status": "", "Water_Level": "Always Dry", "Information": "", "Condition": "", "Scale_Minimum": 22000, "Source_Date": "20050408", "Source_Indication": "US,U3,USACE,LRN_GIS_Data", "Source_Dataset": "U37CR149.000", "Feature_ID": "U3 1392973156 00001"}}, {"type": "Feature", "id": 770, "geometry": {"type": "Polygon", "coordinates": [[[-86.646, 36.2974], [-86.6459, 36.2975], [-86.646, 36.2975], [-86.646, 36.2974]]]}, "properties": {"OBJECTID": 770, "Category_of_Shoreline_Construction": "Wharf (Quay)", "Nature_of_Construction": "", "Object_Name": "Anchor HIgh Marina", "Status": "", "Water_Level": "Always Dry", "Information": "", "Condition": "", "Scale_Minimum": 22000, "Source_Date": "20050408", "Source_Indication": "US,U3,USACE,LRN_GIS_Data", "Source_Dataset": "U37CR149.000", "Feature_ID": "U3 1392973153 00001"}}, {"type": "Feature", "id": 771, "geometry": {"type": "Polygon", "coordinates": [[[-86.6385, 36.2514], [-86.6384, 36.2517], [-86.6386, 36.2518], [-86.6385, 36.2514]]]}, "properties": {"OBJECTID": 771, "Category_of_Shoreline_Construction": "Wharf (Quay)", "Nature_of_Construction": "", "Object_Name": "Lakewood Marina", "Status": "", "Water_Level": "Always Dry", "Information": "", "Condition": "", "Scale_Minimum": 22000, "Source_Date": "20050408", "Source_Indication": "US,U3,USACE,LRN_GIS_Data", "Source_Dataset": "U37CR149.000", "Feature_ID": "U3 1392973151 00001"}}, {"type": "Feature", "id": 772, "geometry": {"type": "Polygon", "coordinates": [[[-86.6387, 36.2513], [-86.639, 36.2511], [-86.6388, 36.2511], [-86.6387, 36.2513]]]}, "properties": {"OBJECTID": 772, "Category_of_Shoreline_Construction": "Wharf (Quay)", "Nature_of_Construction": "", "Object_Name": "Lakewood Marina", "Status": "", "Water_Level": "Always Dry", "Information": "", "Condition": "", "Scale_Minimum": 22000, "Source_Date": "20050408", "Source_Indication": "US,U3,USACE,LRN_GIS_Data", "Source_Dataset": "U37CR149.000", "Feature_ID": "U3 1392973155 00001"}}, {"type": "Feature", "id": 773, "geometry": {"type": "Polygon", "coordinates": [[[-86.6392, 36.2515], [-86.6392, 36.2522], [-86.6395, 36.2519], [-86.6392, 36.2515]]]}, "properties": {"OBJECTID": 773, "Category_of_Shoreline_Construction": "Wharf (Quay)", "Nature_of_Construction": "", "Object_Name": "Old Hickory Boat Dock and Marina", "Status": "", "Water_Level": "Always Dry", "Information": "", "Condition": "", "Scale_Minimum": 22000, "Source_Date": "20050408", "Source_Indication": "US,U3,USACE,LRN_GIS_Data", "Source_Dataset": "U37CR149.000", "Feature_ID": "U3 1392973157 00001"}}, {"type": "Feature", "id": 775, "geometry": {"type": "Polygon", "coordinates": [[[-86.6467, 36.2972], [-86.6476, 36.2976], [-86.6478, 36.2973], [-86.6467, 36.2972]]]}, "properties": {"OBJECTID": 775, "Category_of_Shoreline_Construction": "Wharf (Quay)", "Nature_of_Construction": "", "Object_Name": "Anchor HIgh Marina", "Status": "", "Water_Level": "Always Dry", "Information": "", "Condition": "", "Scale_Minimum": 22000, "Source_Date": "20050408", "Source_Indication": "US,U3,USACE,LRN_GIS_Data", "Source_Dataset": "U37CR149.000", "Feature_ID": "U3 1392973152 00001"}}, {"type": "Feature", "id": 776, "geometry": {"type": "Polygon", "coordinates": [[[-86.638, 36.2522], [-86.6367, 36.251], [-86.6365, 36.2512], [-86.638, 36.2522]]]}, "properties": {"OBJECTID": 776, "Category_of_Shoreline_Construction": "Wharf (Quay)", "Nature_of_Construction": "", "Object_Name": "Lakewood Marina", "Status": "", "Water_Level": "Always Dry", "Information": "", "Condition": "", "Scale_Minimum": 22000, "Source_Date": "20050408", "Source_Indication": "US,U3,USACE,LRN_GIS_Data", "Source_Dataset": "U37CR149.000", "Feature_ID": "U3 1392973160 00001"}}, {"type": "Feature", "id": 777, "geometry": {"type": "Polygon", "coordinates": [[[-86.6567, 36.294], [-86.6574, 36.2932], [-86.6573, 36.2932], [-86.6567, 36.294]]]}, "properties": {"OBJECTID": 777, "Category_of_Shoreline_Construction": "Wharf (Quay)", "Nature_of_Construction": "", "Object_Name": "", "Status": "", "Water_Level": "Always Dry", "Information": "", "Condition": "", "Scale_Minimum": 22000, "Source_Date": "20050408", "Source_Indication": "US,U3,USACE,LRN_GIS_Data", "Source_Dataset": "U37CR149.000", "Feature_ID": "U3 1392973167 00001"}}, {"type": "Feature", "id": 778, "geometry": {"type": "Polygon", "coordinates": [[[-86.6463, 36.2987], [-86.6468, 36.2987], [-86.6463, 36.2986], [-86.6463, 36.2987]]]}, "properties": {"OBJECTID": 778, "Category_of_Shoreline_Construction": "Wharf (Quay)", "Nature_of_Construction": "", "Object_Name": "Anchor HIgh Marina", "Status": "", "Water_Level": "Always Dry", "Information": "", "Condition": "", "Scale_Minimum": 22000, "Source_Date": "20050408", "Source_Indication": "US,U3,USACE,LRN_GIS_Data", "Source_Dataset": "U37CR149.000", "Feature_ID": "U3 1392973162 00001"}}, {"type": "Feature", "id": 780, "geometry": {"type": "Polygon", "coordinates": [[[-86.6458, 36.2975], [-86.6458, 36.2975], [-86.646, 36.2972], [-86.6458, 36.2975]]]}, "properties": {"OBJECTID": 780, "Category_of_Shoreline_Construction": "Wharf (Quay)", "Nature_of_Construction": "", "Object_Name": "Anchor HIgh Marina", "Status": "", "Water_Level": "Always Dry", "Information": "", "Condition": "", "Scale_Minimum": 22000, "Source_Date": "20050408", "Source_Indication": "US,U3,USACE,LRN_GIS_Data", "Source_Dataset": "U37CR149.000", "Feature_ID": "U3 1392973161 00001"}}, {"type": "Feature", "id": 781, "geometry": {"type": "Polygon", "coordinates": [[[-86.6405, 36.2527], [-86.6408, 36.2523], [-86.6404, 36.2526], [-86.6405, 36.2527]]]}, "properties": {"OBJECTID": 781, "Category_of_Shoreline_Construction": "Wharf (Quay)", "Nature_of_Construction": "", "Object_Name": "Old Hickory Boat Dock and Marina", "Status": "", "Water_Level": "Always Dry", "Information": "", "Condition": "", "Scale_Minimum": 22000, "Source_Date": "20050408", "Source_Indication": "US,U3,USACE,LRN_GIS_Data", "Source_Dataset": "U37CR149.000", "Feature_ID": "U3 1392973158 00001"}}, {"type": "Feature", "id": 785, "geometry": {"type": "Polygon", "coordinates": [[[-86.1433, 36.3495], [-86.1433, 36.3493], [-86.142, 36.3494], [-86.1433, 36.3495]]]}, "properties": {"OBJECTID": 785, "Category_of_Shoreline_Construction": "Training Wall", "Nature_of_Construction": "", "Object_Name": "Old Lock & Dam No. 6, Dam and River Lock Wall removed", "Status": "", "Water_Level": "Always Dry", "Information": "Land Wall Top Elev. 448.4 feet", "Condition": "", "Scale_Minimum": 45000, "Source_Date": "20050412", "Source_Indication": "US,U3,USACE,LRN_GIS", "Source_Dataset": "U37CR221.000", "Feature_ID": "U3 1392981427 00001"}}, {"type": "Feature", "id": 786, "geometry": {"type": "Polygon", "coordinates": [[[-86.0307, 36.2873], [-86.0317, 36.2866], [-86.0306, 36.2873], [-86.0307, 36.2873]]]}, "properties": {"OBJECTID": 786, "Category_of_Shoreline_Construction": "Training Wall", "Nature_of_Construction": "", "Object_Name": "Old Lock and Dam No. 7, River Lock Wall & Dam Removed", "Status": "", "Water_Level": "Always Dry", "Information": "Land Wall Top Elev. 460.4 feet", "Condition": "", "Scale_Minimum": 45000, "Source_Date": "20050412", "Source_Indication": "US,U3,USACE,LRN_GIS", "Source_Dataset": "U37CR221.000", "Feature_ID": "U3 1392981438 00001"}}, {"type": "Feature", "id": 787, "geometry": {"type": "Polygon", "coordinates": [[[-86.5678, 36.2494], [-86.5676, 36.2494], [-86.5676, 36.2495], [-86.5678, 36.2494]]]}, "properties": {"OBJECTID": 787, "Category_of_Shoreline_Construction": "Pier (Jetty)", "Nature_of_Construction": "", "Object_Name": "", "Status": "", "Water_Level": "Always Dry", "Information": "", "Condition": "", "Scale_Minimum": 22000, "Source_Date": "20050412", "Source_Indication": "US,U3,USACE,LRN_GIS", "Source_Dataset": "U37CR221.000", "Feature_ID": "U3 1392984693 00001"}}, {"type": "Feature", "id": 788, "geometry": {"type": "Polygon", "coordinates": [[[-86.5018, 36.2823], [-86.5018, 36.2824], [-86.5019, 36.2824], [-86.5018, 36.2823]]]}, "properties": {"OBJECTID": 788, "Category_of_Shoreline_Construction": "Pier (Jetty)", "Nature_of_Construction": "", "Object_Name": "", "Status": "", "Water_Level": "Always Dry", "Information": "", "Condition": "", "Scale_Minimum": 22000, "Source_Date": "20050412", "Source_Indication": "US,U3,USACE,LRN_GIS", "Source_Dataset": "U37CR221.000", "Feature_ID": "U3 1392984694 00001"}}, {"type": "Feature", "id": 789, "geometry": {"type": "Polygon", "coordinates": [[[-86.4333, 36.3427], [-86.4335, 36.3426], [-86.4335, 36.3425], [-86.4333, 36.3427]]]}, "properties": {"OBJECTID": 789, "Category_of_Shoreline_Construction": "Pier (Jetty)", "Nature_of_Construction": "", "Object_Name": "", "Status": "", "Water_Level": "Always Dry", "Information": "", "Condition": "", "Scale_Minimum": 22000, "Source_Date": "20050412", "Source_Indication": "US,U3,USACE,LRN_GIS", "Source_Dataset": "U37CR221.000", "Feature_ID": "U3 1392984695 00001"}}, {"type": "Feature", "id": 790, "geometry": {"type": "Polygon", "coordinates": [[[-86.5701, 36.2456], [-86.5703, 36.2455], [-86.5702, 36.2455], [-86.5701, 36.2456]]]}, "properties": {"OBJECTID": 790, "Category_of_Shoreline_Construction": "Pier (Jetty)", "Nature_of_Construction": "", "Object_Name": "", "Status": "", "Water_Level": "Always Dry", "Information": "", "Condition": "", "Scale_Minimum": 22000, "Source_Date": "20050412", "Source_Indication": "US,U3,USACE,LRN_GIS", "Source_Dataset": "U37CR221.000", "Feature_ID": "U3 1392984701 00001"}}, {"type": "Feature", "id": 791, "geometry": {"type": "Polygon", "coordinates": [[[-86.571, 36.248], [-86.5711, 36.2481], [-86.5711, 36.2481], [-86.571, 36.248]]]}, "properties": {"OBJECTID": 791, "Category_of_Shoreline_Construction": "Pier (Jetty)", "Nature_of_Construction": "", "Object_Name": "", "Status": "", "Water_Level": "Always Dry", "Information": "", "Condition": "", "Scale_Minimum": 22000, "Source_Date": "20050412", "Source_Indication": "US,U3,USACE,LRN_GIS", "Source_Dataset": "U37CR221.000", "Feature_ID": "U3 1392984703 00001"}}, {"type": "Feature", "id": 792, "geometry": {"type": "Polygon", "coordinates": [[[-86.6043, 36.2495], [-86.6043, 36.2493], [-86.6043, 36.2493], [-86.6043, 36.2495]]]}, "properties": {"OBJECTID": 792, "Category_of_Shoreline_Construction": "Pier (Jetty)", "Nature_of_Construction": "", "Object_Name": "", "Status": "", "Water_Level": "Always Dry", "Information": "", "Condition": "", "Scale_Minimum": 22000, "Source_Date": "20050412", "Source_Indication": "US,U3,USACE,LRN_GIS", "Source_Dataset": "U37CR221.000", "Feature_ID": "U3 1392984704 00001"}}, {"type": "Feature", "id": 793, "geometry": {"type": "Polygon", "coordinates": [[[-86.5678, 36.2499], [-86.5676, 36.25], [-86.5678, 36.25], [-86.5678, 36.2499]]]}, "properties": {"OBJECTID": 793, "Category_of_Shoreline_Construction": "Pier (Jetty)", "Nature_of_Construction": "", "Object_Name": "", "Status": "", "Water_Level": "Always Dry", "Information": "", "Condition": "", "Scale_Minimum": 22000, "Source_Date": "20050412", "Source_Indication": "US,U3,USACE,LRN_GIS", "Source_Dataset": "U37CR221.000", "Feature_ID": "U3 1392984705 00001"}}, {"type": "Feature", "id": 794, "geometry": {"type": "Polygon", "coordinates": [[[-86.0978, 36.3429], [-86.0977, 36.3432], [-86.0981, 36.3433], [-86.0978, 36.3429]]]}, "properties": {"OBJECTID": 794, "Category_of_Shoreline_Construction": "Landing Steps", "Nature_of_Construction": "", "Object_Name": "Wrights Landing", "Status": "", "Water_Level": "", "Information": "", "Condition": "", "Scale_Minimum": 12000, "Source_Date": "20050412", "Source_Indication": "US,U3,USACE,LRN_GIS", "Source_Dataset": "U37CR221.000", "Feature_ID": "U3 1392984706 00001"}}, {"type": "Feature", "id": 795, "geometry": {"type": "Polygon", "coordinates": [[[-86.5043, 36.2824], [-86.5044, 36.2826], [-86.5045, 36.2826], [-86.5043, 36.2824]]]}, "properties": {"OBJECTID": 795, "Category_of_Shoreline_Construction": "Pier (Jetty)", "Nature_of_Construction": "", "Object_Name": "", "Status": "", "Water_Level": "Always Dry", "Information": "", "Condition": "", "Scale_Minimum": 22000, "Source_Date": "20050412", "Source_Indication": "US,U3,USACE,LRN_GIS", "Source_Dataset": "U37CR221.000", "Feature_ID": "U3 1392984707 00001"}}, {"type": "Feature", "id": 796, "geometry": {"type": "Polygon", "coordinates": [[[-86.5044, 36.2823], [-86.5045, 36.2824], [-86.5047, 36.2824], [-86.5044, 36.2823]]]}, "properties": {"OBJECTID": 796, "Category_of_Shoreline_Construction": "Pier (Jetty)", "Nature_of_Construction": "", "Object_Name": "", "Status": "", "Water_Level": "Always Dry", "Information": "", "Condition": "", "Scale_Minimum": 22000, "Source_Date": "20050412", "Source_Indication": "US,U3,USACE,LRN_GIS", "Source_Dataset": "U37CR221.000", "Feature_ID": "U3 1392984708 00001"}}, {"type": "Feature", "id": 797, "geometry": {"type": "Polygon", "coordinates": [[[-86.4568, 36.3259], [-86.4571, 36.326], [-86.4569, 36.3258], [-86.4568, 36.3259]]]}, "properties": {"OBJECTID": 797, "Category_of_Shoreline_Construction": "Wharf (Quay)", "Nature_of_Construction": "", "Object_Name": "", "Status": "", "Water_Level": "Always Dry", "Information": "", "Condition": "", "Scale_Minimum": 22000, "Source_Date": "20050412", "Source_Indication": "US,U3,USACE,LRN_GIS", "Source_Dataset": "U37CR221.000", "Feature_ID": "U3 1392984710 00001"}}, {"type": "Feature", "id": 798, "geometry": {"type": "Polygon", "coordinates": [[[-86.5027, 36.2804], [-86.5026, 36.281], [-86.504, 36.2814], [-86.5052, 36.2805], [-86.5041, 36.2814], [-86.5026, 36.281], [-86.5027, 36.2804]]]}, "properties": {"OBJECTID": 798, "Category_of_Shoreline_Construction": "Wharf (Quay)", "Nature_of_Construction": "", "Object_Name": "Cedar Creek Club", "Status": "", "Water_Level": "Always Dry", "Information": "", "Condition": "", "Scale_Minimum": 22000, "Source_Date": "20050412", "Source_Indication": "US,U3,USACE,LRN_GIS", "Source_Dataset": "U37CR221.000", "Feature_ID": "U3 1392984711 00001"}}, {"type": "Feature", "id": 799, "geometry": {"type": "Polygon", "coordinates": [[[-86.4772, 36.3472], [-86.4777, 36.3473], [-86.4777, 36.3472], [-86.4772, 36.3472]]]}, "properties": {"OBJECTID": 799, "Category_of_Shoreline_Construction": "Wharf (Quay)", "Nature_of_Construction": "", "Object_Name": "Gallatin Marina", "Status": "", "Water_Level": "Always Dry", "Information": "", "Condition": "", "Scale_Minimum": 22000, "Source_Date": "20050412", "Source_Indication": "US,U3,USACE,LRN_GIS", "Source_Dataset": "U37CR221.000", "Feature_ID": "U3 1392984712 00001"}}, {"type": "Feature", "id": 800, "geometry": {"type": "Polygon", "coordinates": [[[-86.5049, 36.2805], [-86.5052, 36.2805], [-86.5054, 36.28], [-86.5049, 36.2805]]]}, "properties": {"OBJECTID": 800, "Category_of_Shoreline_Construction": "Wharf (Quay)", "Nature_of_Construction": "", "Object_Name": "Cedar Creek Club", "Status": "", "Water_Level": "Always Dry", "Information": "", "Condition": "", "Scale_Minimum": 22000, "Source_Date": "20050412", "Source_Indication": "US,U3,USACE,LRN_GIS", "Source_Dataset": "U37CR221.000", "Feature_ID": "U3 1392984713 00001"}}, {"type": "Feature", "id": 801, "geometry": {"type": "Polygon", "coordinates": [[[-86.4228, 36.3365], [-86.4227, 36.3363], [-86.4225, 36.3364], [-86.4228, 36.3365]]]}, "properties": {"OBJECTID": 801, "Category_of_Shoreline_Construction": "Wharf (Quay)", "Nature_of_Construction": "", "Object_Name": "Garrott Brothers Continuous Mix", "Status": "", "Water_Level": "Always Dry", "Information": "", "Condition": "", "Scale_Minimum": 22000, "Source_Date": "20050412", "Source_Indication": "US,U3,USACE,LRN_GIS", "Source_Dataset": "U37CR221.000", "Feature_ID": "U3 1392984714 00001"}}, {"type": "Feature", "id": 802, "geometry": {"type": "Polygon", "coordinates": [[[-86.4767, 36.3478], [-86.477, 36.3481], [-86.4772, 36.348], [-86.4767, 36.3478]]]}, "properties": {"OBJECTID": 802, "Category_of_Shoreline_Construction": "Wharf (Quay)", "Nature_of_Construction": "", "Object_Name": "Gallatin Marina", "Status": "", "Water_Level": "Always Dry", "Information": "", "Condition": "", "Scale_Minimum": 22000, "Source_Date": "20050412", "Source_Indication": "US,U3,USACE,LRN_GIS", "Source_Dataset": "U37CR221.000", "Feature_ID": "U3 1392984715 00001"}}, {"type": "Feature", "id": 803, "geometry": {"type": "Polygon", "coordinates": [[[-86.4305, 36.3357], [-86.4314, 36.3367], [-86.4308, 36.3356], [-86.4305, 36.3357]]]}, "properties": {"OBJECTID": 803, "Category_of_Shoreline_Construction": "Wharf (Quay)", "Nature_of_Construction": "", "Object_Name": "Cherokee Boat Dock", "Status": "", "Water_Level": "Always Dry", "Information": "", "Condition": "", "Scale_Minimum": 22000, "Source_Date": "20050412", "Source_Indication": "US,U3,USACE,LRN_GIS", "Source_Dataset": "U37CR221.000", "Feature_ID": "U3 1392984716 00001"}}, {"type": "Feature", "id": 804, "geometry": {"type": "Polygon", "coordinates": [[[-86.4329, 36.3423], [-86.4331, 36.3422], [-86.4329, 36.3423], [-86.4329, 36.3423]]]}, "properties": {"OBJECTID": 804, "Category_of_Shoreline_Construction": "Wharf (Quay)", "Nature_of_Construction": "", "Object_Name": "", "Status": "", "Water_Level": "Always Dry", "Information": "", "Condition": "", "Scale_Minimum": 22000, "Source_Date": "20050412", "Source_Indication": "US,U3,USACE,LRN_GIS", "Source_Dataset": "U37CR221.000", "Feature_ID": "U3 1392984717 00001"}}, {"type": "Feature", "id": 805, "geometry": {"type": "Polygon", "coordinates": [[[-86.4574, 36.3259], [-86.4575, 36.3257], [-86.4573, 36.3259], [-86.4574, 36.3259]]]}, "properties": {"OBJECTID": 805, "Category_of_Shoreline_Construction": "Wharf (Quay)", "Nature_of_Construction": "", "Object_Name": "", "Status": "", "Water_Level": "Always Dry", "Information": "", "Condition": "", "Scale_Minimum": 22000, "Source_Date": "20050412", "Source_Indication": "US,U3,USACE,LRN_GIS", "Source_Dataset": "U37CR221.000", "Feature_ID": "U3 1392984718 00001"}}, {"type": "Feature", "id": 806, "geometry": {"type": "Polygon", "coordinates": [[[-86.5031, 36.2807], [-86.5029, 36.2804], [-86.5029, 36.2807], [-86.5031, 36.2807]]]}, "properties": {"OBJECTID": 806, "Category_of_Shoreline_Construction": "Wharf (Quay)", "Nature_of_Construction": "", "Object_Name": "Cedar Creek Club", "Status": "", "Water_Level": "Always Dry", "Information": "", "Condition": "", "Scale_Minimum": 22000, "Source_Date": "20050412", "Source_Indication": "US,U3,USACE,LRN_GIS", "Source_Dataset": "U37CR221.000", "Feature_ID": "U3 1392984719 00001"}}, {"type": "Feature", "id": 807, "geometry": {"type": "Polygon", "coordinates": [[[-86.3389, 36.3772], [-86.3391, 36.3771], [-86.339, 36.377], [-86.3389, 36.3772]]]}, "properties": {"OBJECTID": 807, "Category_of_Shoreline_Construction": "Wharf (Quay)", "Nature_of_Construction": "", "Object_Name": "Shady Cove Resort", "Status": "", "Water_Level": "Always Dry", "Information": "", "Condition": "", "Scale_Minimum": 22000, "Source_Date": "20050412", "Source_Indication": "US,U3,USACE,LRN_GIS", "Source_Dataset": "U37CR221.000", "Feature_ID": "U3 1392984720 00001"}}, {"type": "Feature", "id": 808, "geometry": {"type": "Polygon", "coordinates": [[[-86.4752, 36.3492], [-86.4748, 36.3494], [-86.4749, 36.3495], [-86.4752, 36.3492]]]}, "properties": {"OBJECTID": 808, "Category_of_Shoreline_Construction": "Wharf (Quay)", "Nature_of_Construction": "", "Object_Name": "Gallatin Marina", "Status": "", "Water_Level": "Always Dry", "Information": "", "Condition": "", "Scale_Minimum": 22000, "Source_Date": "20050412", "Source_Indication": "US,U3,USACE,LRN_GIS", "Source_Dataset": "U37CR221.000", "Feature_ID": "U3 1392984721 00001"}}, {"type": "Feature", "id": 809, "geometry": {"type": "Polygon", "coordinates": [[[-86.4181, 36.334], [-86.4178, 36.3342], [-86.4181, 36.3341], [-86.4181, 36.334]]]}, "properties": {"OBJECTID": 809, "Category_of_Shoreline_Construction": "Wharf (Quay)", "Nature_of_Construction": "", "Object_Name": "Gallatin Steam Plant (TVA)", "Status": "", "Water_Level": "Always Dry", "Information": "", "Condition": "", "Scale_Minimum": 22000, "Source_Date": "20050412", "Source_Indication": "US,U3,USACE,LRN_GIS", "Source_Dataset": "U37CR221.000", "Feature_ID": "U3 1392984722 00001"}}, {"type": "Feature", "id": 810, "geometry": {"type": "Polygon", "coordinates": [[[-86.2872, 36.3417], [-86.2871, 36.3418], [-86.2873, 36.3418], [-86.2872, 36.3417]]]}, "properties": {"OBJECTID": 810, "Category_of_Shoreline_Construction": "Wharf (Quay)", "Nature_of_Construction": "", "Object_Name": "", "Status": "", "Water_Level": "Always Dry", "Information": "", "Condition": "", "Scale_Minimum": 22000, "Source_Date": "20050412", "Source_Indication": "US,U3,USACE,LRN_GIS", "Source_Dataset": "U37CR221.000", "Feature_ID": "U3 1392984723 00001"}}, {"type": "Feature", "id": 811, "geometry": {"type": "Polygon", "coordinates": [[[-86.4731, 36.3573], [-86.4731, 36.3573], [-86.4732, 36.3573], [-86.4731, 36.3573]]]}, "properties": {"OBJECTID": 811, "Category_of_Shoreline_Construction": "Wharf (Quay)", "Nature_of_Construction": "", "Object_Name": "", "Status": "", "Water_Level": "Always Dry", "Information": "", "Condition": "", "Scale_Minimum": 22000, "Source_Date": "20050412", "Source_Indication": "US,U3,USACE,LRN_GIS", "Source_Dataset": "U37CR221.000", "Feature_ID": "U3 1392984724 00001"}}, {"type": "Feature", "id": 812, "geometry": {"type": "Polygon", "coordinates": [[[-86.4771, 36.3474], [-86.4774, 36.348], [-86.4787, 36.3473], [-86.4771, 36.3474]]]}, "properties": {"OBJECTID": 812, "Category_of_Shoreline_Construction": "Wharf (Quay)", "Nature_of_Construction": "", "Object_Name": "Gallatin Marina", "Status": "", "Water_Level": "Always Dry", "Information": "", "Condition": "", "Scale_Minimum": 22000, "Source_Date": "20050412", "Source_Indication": "US,U3,USACE,LRN_GIS", "Source_Dataset": "U37CR221.000", "Feature_ID": "U3 1392984725 00001"}}, {"type": "Feature", "id": 813, "geometry": {"type": "Polygon", "coordinates": [[[-86.5034, 36.2806], [-86.5035, 36.2809], [-86.5047, 36.2807], [-86.5034, 36.2806]]]}, "properties": {"OBJECTID": 813, "Category_of_Shoreline_Construction": "Wharf (Quay)", "Nature_of_Construction": "", "Object_Name": "Cedar Creek Club", "Status": "", "Water_Level": "Always Dry", "Information": "", "Condition": "", "Scale_Minimum": 22000, "Source_Date": "20050412", "Source_Indication": "US,U3,USACE,LRN_GIS", "Source_Dataset": "U37CR221.000", "Feature_ID": "U3 1392984726 00001"}}, {"type": "Feature", "id": 814, "geometry": {"type": "Polygon", "coordinates": [[[-86.357, 36.3744], [-86.3572, 36.3743], [-86.3571, 36.3742], [-86.357, 36.3744]]]}, "properties": {"OBJECTID": 814, "Category_of_Shoreline_Construction": "Wharf (Quay)", "Nature_of_Construction": "", "Object_Name": "", "Status": "", "Water_Level": "Always Dry", "Information": "", "Condition": "", "Scale_Minimum": 22000, "Source_Date": "20050412", "Source_Indication": "US,U3,USACE,LRN_GIS", "Source_Dataset": "U37CR221.000", "Feature_ID": "U3 1392984727 00001"}}, {"type": "Feature", "id": 815, "geometry": {"type": "Polygon", "coordinates": [[[-86.4151, 36.3212], [-86.4153, 36.3216], [-86.415, 36.3206], [-86.4151, 36.3212]]]}, "properties": {"OBJECTID": 815, "Category_of_Shoreline_Construction": "Wharf (Quay)", "Nature_of_Construction": "", "Object_Name": "", "Status": "", "Water_Level": "Always Dry", "Information": "", "Condition": "", "Scale_Minimum": 22000, "Source_Date": "20050412", "Source_Indication": "US,U3,USACE,LRN_GIS", "Source_Dataset": "U37CR221.000", "Feature_ID": "U3 1392984728 00001"}}, {"type": "Feature", "id": 816, "geometry": {"type": "Polygon", "coordinates": [[[-86.4694, 36.2965], [-86.4695, 36.2963], [-86.4693, 36.2964], [-86.4694, 36.2965]]]}, "properties": {"OBJECTID": 816, "Category_of_Shoreline_Construction": "Wharf (Quay)", "Nature_of_Construction": "", "Object_Name": "", "Status": "", "Water_Level": "Always Dry", "Information": "", "Condition": "", "Scale_Minimum": 22000, "Source_Date": "20050412", "Source_Indication": "US,U3,USACE,LRN_GIS", "Source_Dataset": "U37CR221.000", "Feature_ID": "U3 1392984729 00001"}}, {"type": "Feature", "id": 817, "geometry": {"type": "Polygon", "coordinates": [[[-86.6082, 36.29], [-86.608, 36.29], [-86.608, 36.2901], [-86.6082, 36.29]]]}, "properties": {"OBJECTID": 817, "Category_of_Shoreline_Construction": "Wharf (Quay)", "Nature_of_Construction": "", "Object_Name": "", "Status": "", "Water_Level": "Always Dry", "Information": "", "Condition": "", "Scale_Minimum": 22000, "Source_Date": "20050412", "Source_Indication": "US,U3,USACE,LRN_GIS", "Source_Dataset": "U37CR221.000", "Feature_ID": "U3 1392984730 00001"}}, {"type": "Feature", "id": 818, "geometry": {"type": "Polygon", "coordinates": [[[-86.5838, 36.2471], [-86.5837, 36.2476], [-86.5847, 36.2473], [-86.5838, 36.2471]]]}, "properties": {"OBJECTID": 818, "Category_of_Shoreline_Construction": "Wharf (Quay)", "Nature_of_Construction": "", "Object_Name": "", "Status": "", "Water_Level": "Always Dry", "Information": "", "Condition": "", "Scale_Minimum": 22000, "Source_Date": "20050412", "Source_Indication": "US,U3,USACE,LRN_GIS", "Source_Dataset": "U37CR221.000", "Feature_ID": "U3 1392984731 00001"}}, {"type": "Feature", "id": 819, "geometry": {"type": "Polygon", "coordinates": [[[-86.6024, 36.2524], [-86.6022, 36.2523], [-86.6022, 36.2524], [-86.6024, 36.2524]]]}, "properties": {"OBJECTID": 819, "Category_of_Shoreline_Construction": "Wharf (Quay)", "Nature_of_Construction": "", "Object_Name": "", "Status": "", "Water_Level": "Always Dry", "Information": "", "Condition": "", "Scale_Minimum": 22000, "Source_Date": "20050412", "Source_Indication": "US,U3,USACE,LRN_GIS", "Source_Dataset": "U37CR221.000", "Feature_ID": "U3 1392984732 00001"}}, {"type": "Feature", "id": 820, "geometry": {"type": "Polygon", "coordinates": [[[-86.576, 36.3147], [-86.5765, 36.3149], [-86.5767, 36.3138], [-86.576, 36.3147]]]}, "properties": {"OBJECTID": 820, "Category_of_Shoreline_Construction": "Wharf (Quay)", "Nature_of_Construction": "", "Object_Name": "Bluegrass Country Club Dock", "Status": "", "Water_Level": "Always Dry", "Information": "", "Condition": "", "Scale_Minimum": 22000, "Source_Date": "20050412", "Source_Indication": "US,U3,USACE,LRN_GIS", "Source_Dataset": "U37CR221.000", "Feature_ID": "U3 1392984733 00001"}}, {"type": "Feature", "id": 821, "geometry": {"type": "Polygon", "coordinates": [[[-86.5112, 36.2742], [-86.5114, 36.2729], [-86.5108, 36.2738], [-86.5109, 36.2725], [-86.51, 36.2735], [-86.5103, 36.2724], [-86.5096, 36.2736], [-86.5112, 36.2742]]]}, "properties": {"OBJECTID": 821, "Category_of_Shoreline_Construction": "Wharf (Quay)", "Nature_of_Construction": "", "Object_Name": "Cedar Creek Boat Dock", "Status": "", "Water_Level": "Always Dry", "Information": "", "Condition": "", "Scale_Minimum": 22000, "Source_Date": "20050412", "Source_Indication": "US,U3,USACE,LRN_GIS", "Source_Dataset": "U37CR221.000", "Feature_ID": "U3 1392984734 00001"}}, {"type": "Feature", "id": 822, "geometry": {"type": "Polygon", "coordinates": [[[-86.5109, 36.2744], [-86.51, 36.2742], [-86.5112, 36.2744], [-86.5109, 36.2744]]]}, "properties": {"OBJECTID": 822, "Category_of_Shoreline_Construction": "Wharf (Quay)", "Nature_of_Construction": "", "Object_Name": "Cedar Creek Boat Dock", "Status": "", "Water_Level": "Always Dry", "Information": "", "Condition": "", "Scale_Minimum": 22000, "Source_Date": "20050412", "Source_Indication": "US,U3,USACE,LRN_GIS", "Source_Dataset": "U37CR221.000", "Feature_ID": "U3 1392984735 00001"}}, {"type": "Feature", "id": 823, "geometry": {"type": "Polygon", "coordinates": [[[-86.5657, 36.2547], [-86.5655, 36.2547], [-86.5656, 36.2547], [-86.5657, 36.2547]]]}, "properties": {"OBJECTID": 823, "Category_of_Shoreline_Construction": "Wharf (Quay)", "Nature_of_Construction": "", "Object_Name": "", "Status": "", "Water_Level": "Always Dry", "Information": "", "Condition": "", "Scale_Minimum": 22000, "Source_Date": "20050412", "Source_Indication": "US,U3,USACE,LRN_GIS", "Source_Dataset": "U37CR221.000", "Feature_ID": "U3 1392984736 00001"}}, {"type": "Feature", "id": 824, "geometry": {"type": "Polygon", "coordinates": [[[-86.6088, 36.26], [-86.6087, 36.2599], [-86.6086, 36.2599], [-86.6088, 36.26]]]}, "properties": {"OBJECTID": 824, "Category_of_Shoreline_Construction": "Wharf (Quay)", "Nature_of_Construction": "", "Object_Name": "Drake's Creek Marina", "Status": "", "Water_Level": "Always Dry", "Information": "", "Condition": "", "Scale_Minimum": 22000, "Source_Date": "20050412", "Source_Indication": "US,U3,USACE,LRN_GIS", "Source_Dataset": "U37CR221.000", "Feature_ID": "U3 1392984737 00001"}}, {"type": "Feature", "id": 825, "geometry": {"type": "Polygon", "coordinates": [[[-86.5658, 36.2545], [-86.5655, 36.2545], [-86.5655, 36.2545], [-86.5658, 36.2545]]]}, "properties": {"OBJECTID": 825, "Category_of_Shoreline_Construction": "Wharf (Quay)", "Nature_of_Construction": "", "Object_Name": "", "Status": "", "Water_Level": "Always Dry", "Information": "", "Condition": "", "Scale_Minimum": 22000, "Source_Date": "20050412", "Source_Indication": "US,U3,USACE,LRN_GIS", "Source_Dataset": "U37CR221.000", "Feature_ID": "U3 1392984738 00001"}}, {"type": "Feature", "id": 826, "geometry": {"type": "Polygon", "coordinates": [[[-86.5658, 36.2547], [-86.5657, 36.2547], [-86.5658, 36.2549], [-86.5658, 36.2547]]]}, "properties": {"OBJECTID": 826, "Category_of_Shoreline_Construction": "Wharf (Quay)", "Nature_of_Construction": "", "Object_Name": "", "Status": "", "Water_Level": "Always Dry", "Information": "", "Condition": "", "Scale_Minimum": 22000, "Source_Date": "20050412", "Source_Indication": "US,U3,USACE,LRN_GIS", "Source_Dataset": "U37CR221.000", "Feature_ID": "U3 1392984739 00001"}}, {"type": "Feature", "id": 827, "geometry": {"type": "Polygon", "coordinates": [[[-86.5113, 36.2734], [-86.5117, 36.2732], [-86.5114, 36.2732], [-86.5113, 36.2734]]]}, "properties": {"OBJECTID": 827, "Category_of_Shoreline_Construction": "Wharf (Quay)", "Nature_of_Construction": "", "Object_Name": "Cedar Creek Boat Dock", "Status": "", "Water_Level": "Always Dry", "Information": "", "Condition": "", "Scale_Minimum": 22000, "Source_Date": "20050412", "Source_Indication": "US,U3,USACE,LRN_GIS", "Source_Dataset": "U37CR221.000", "Feature_ID": "U3 1392984740 00001"}}, {"type": "Feature", "id": 828, "geometry": {"type": "Polygon", "coordinates": [[[-86.4764, 36.3479], [-86.4758, 36.3481], [-86.477, 36.3483], [-86.4764, 36.3479]]]}, "properties": {"OBJECTID": 828, "Category_of_Shoreline_Construction": "Wharf (Quay)", "Nature_of_Construction": "", "Object_Name": "Gallatin Marina", "Status": "", "Water_Level": "Always Dry", "Information": "", "Condition": "", "Scale_Minimum": 22000, "Source_Date": "20050412", "Source_Indication": "US,U3,USACE,LRN_GIS", "Source_Dataset": "U37CR221.000", "Feature_ID": "U3 1392984741 00001"}}, {"type": "Feature", "id": 829, "geometry": {"type": "Polygon", "coordinates": [[[-86.5019, 36.2823], [-86.5019, 36.2824], [-86.5026, 36.2826], [-86.5019, 36.2823]]]}, "properties": {"OBJECTID": 829, "Category_of_Shoreline_Construction": "Wharf (Quay)", "Nature_of_Construction": "", "Object_Name": "", "Status": "", "Water_Level": "Always Dry", "Information": "", "Condition": "", "Scale_Minimum": 22000, "Source_Date": "20050412", "Source_Indication": "US,U3,USACE,LRN_GIS", "Source_Dataset": "U37CR221.000", "Feature_ID": "U3 1392984742 00001"}}, {"type": "Feature", "id": 830, "geometry": {"type": "Polygon", "coordinates": [[[-86.4768, 36.3294], [-86.4766, 36.3296], [-86.4768, 36.3295], [-86.4768, 36.3294]]]}, "properties": {"OBJECTID": 830, "Category_of_Shoreline_Construction": "Wharf (Quay)", "Nature_of_Construction": "", "Object_Name": "", "Status": "", "Water_Level": "Always Dry", "Information": "", "Condition": "", "Scale_Minimum": 22000, "Source_Date": "20050412", "Source_Indication": "US,U3,USACE,LRN_GIS", "Source_Dataset": "U37CR221.000", "Feature_ID": "U3 1392984743 00001"}}, {"type": "Feature", "id": 831, "geometry": {"type": "Polygon", "coordinates": [[[-86.6085, 36.261], [-86.6087, 36.2608], [-86.6079, 36.2609], [-86.6085, 36.261]]]}, "properties": {"OBJECTID": 831, "Category_of_Shoreline_Construction": "Wharf (Quay)", "Nature_of_Construction": "", "Object_Name": "Drake's Creek Marina", "Status": "", "Water_Level": "Always Dry", "Information": "", "Condition": "", "Scale_Minimum": 22000, "Source_Date": "20050412", "Source_Indication": "US,U3,USACE,LRN_GIS", "Source_Dataset": "U37CR221.000", "Feature_ID": "U3 1392984744 00001"}}, {"type": "Feature", "id": 832, "geometry": {"type": "Polygon", "coordinates": [[[-86.3391, 36.3767], [-86.3397, 36.3761], [-86.3386, 36.3764], [-86.3391, 36.3767]]]}, "properties": {"OBJECTID": 832, "Category_of_Shoreline_Construction": "Wharf (Quay)", "Nature_of_Construction": "", "Object_Name": "Shady Cove Resort", "Status": "", "Water_Level": "Always Dry", "Information": "", "Condition": "", "Scale_Minimum": 22000, "Source_Date": "20050412", "Source_Indication": "US,U3,USACE,LRN_GIS", "Source_Dataset": "U37CR221.000", "Feature_ID": "U3 1392984745 00001"}}, {"type": "Feature", "id": 833, "geometry": {"type": "Polygon", "coordinates": [[[-86.4756, 36.3479], [-86.4755, 36.3481], [-86.4757, 36.3481], [-86.4756, 36.3479]]]}, "properties": {"OBJECTID": 833, "Category_of_Shoreline_Construction": "Wharf (Quay)", "Nature_of_Construction": "", "Object_Name": "Gallatin Marina", "Status": "", "Water_Level": "Always Dry", "Information": "", "Condition": "", "Scale_Minimum": 22000, "Source_Date": "20050412", "Source_Indication": "US,U3,USACE,LRN_GIS", "Source_Dataset": "U37CR221.000", "Feature_ID": "U3 1392984746 00001"}}, {"type": "Feature", "id": 834, "geometry": {"type": "Polygon", "coordinates": [[[-86.5047, 36.2799], [-86.5043, 36.2802], [-86.5051, 36.2797], [-86.5047, 36.2799]]]}, "properties": {"OBJECTID": 834, "Category_of_Shoreline_Construction": "Wharf (Quay)", "Nature_of_Construction": "", "Object_Name": "Cedar Creek Club Dock", "Status": "", "Water_Level": "Always Dry", "Information": "", "Condition": "", "Scale_Minimum": 22000, "Source_Date": "20050412", "Source_Indication": "US,U3,USACE,LRN_GIS", "Source_Dataset": "U37CR221.000", "Feature_ID": "U3 1392984747 00001"}}, {"type": "Feature", "id": 835, "geometry": {"type": "Polygon", "coordinates": [[[-86.4754, 36.3493], [-86.4759, 36.349], [-86.4756, 36.349], [-86.4754, 36.3493]]]}, "properties": {"OBJECTID": 835, "Category_of_Shoreline_Construction": "Wharf (Quay)", "Nature_of_Construction": "", "Object_Name": "Gallatin Marina", "Status": "", "Water_Level": "Always Dry", "Information": "", "Condition": "", "Scale_Minimum": 22000, "Source_Date": "20050412", "Source_Indication": "US,U3,USACE,LRN_GIS", "Source_Dataset": "U37CR221.000", "Feature_ID": "U3 1392984748 00001"}}, {"type": "Feature", "id": 836, "geometry": {"type": "Polygon", "coordinates": [[[-86.5751, 36.3031], [-86.5751, 36.3033], [-86.5753, 36.3033], [-86.5751, 36.3031]]]}, "properties": {"OBJECTID": 836, "Category_of_Shoreline_Construction": "Wharf (Quay)", "Nature_of_Construction": "", "Object_Name": "", "Status": "", "Water_Level": "Always Dry", "Information": "", "Condition": "", "Scale_Minimum": 22000, "Source_Date": "20050412", "Source_Indication": "US,U3,USACE,LRN_GIS", "Source_Dataset": "U37CR221.000", "Feature_ID": "U3 1392984749 00001"}}, {"type": "Feature", "id": 837, "geometry": {"type": "Polygon", "coordinates": [[[-86.4739, 36.3157], [-86.474, 36.3158], [-86.4742, 36.3157], [-86.4739, 36.3157]]]}, "properties": {"OBJECTID": 837, "Category_of_Shoreline_Construction": "Wharf (Quay)", "Nature_of_Construction": "", "Object_Name": "", "Status": "", "Water_Level": "Always Dry", "Information": "", "Condition": "", "Scale_Minimum": 22000, "Source_Date": "20050412", "Source_Indication": "US,U3,USACE,LRN_GIS", "Source_Dataset": "U37CR221.000", "Feature_ID": "U3 1392984750 00001"}}, {"type": "Feature", "id": 838, "geometry": {"type": "Polygon", "coordinates": [[[-86.4304, 36.3342], [-86.4303, 36.3339], [-86.4302, 36.3342], [-86.4304, 36.3342]]]}, "properties": {"OBJECTID": 838, "Category_of_Shoreline_Construction": "Wharf (Quay)", "Nature_of_Construction": "", "Object_Name": "Cherokee Boat Dock", "Status": "", "Water_Level": "Always Dry", "Information": "", "Condition": "", "Scale_Minimum": 22000, "Source_Date": "20050412", "Source_Indication": "US,U3,USACE,LRN_GIS", "Source_Dataset": "U37CR221.000", "Feature_ID": "U3 1392984751 00001"}}, {"type": "Feature", "id": 839, "geometry": {"type": "Polygon", "coordinates": [[[-86.5311, 36.3088], [-86.5313, 36.309], [-86.5313, 36.3088], [-86.5311, 36.3088]]]}, "properties": {"OBJECTID": 839, "Category_of_Shoreline_Construction": "Wharf (Quay)", "Nature_of_Construction": "", "Object_Name": "", "Status": "", "Water_Level": "Always Dry", "Information": "", "Condition": "", "Scale_Minimum": 22000, "Source_Date": "20050412", "Source_Indication": "US,U3,USACE,LRN_GIS", "Source_Dataset": "U37CR221.000", "Feature_ID": "U3 1392984752 00001"}}, {"type": "Feature", "id": 840, "geometry": {"type": "Polygon", "coordinates": [[[-86.4303, 36.3343], [-86.4306, 36.3355], [-86.4305, 36.3343], [-86.4303, 36.3343]]]}, "properties": {"OBJECTID": 840, "Category_of_Shoreline_Construction": "Wharf (Quay)", "Nature_of_Construction": "", "Object_Name": "Cherokee Boat Dock", "Status": "", "Water_Level": "Always Dry", "Information": "", "Condition": "", "Scale_Minimum": 22000, "Source_Date": "20050412", "Source_Indication": "US,U3,USACE,LRN_GIS", "Source_Dataset": "U37CR221.000", "Feature_ID": "U3 1392984753 00001"}}, {"type": "Feature", "id": 841, "geometry": {"type": "Polygon", "coordinates": [[[-86.4702, 36.3084], [-86.4703, 36.3082], [-86.4702, 36.3082], [-86.4702, 36.3084]]]}, "properties": {"OBJECTID": 841, "Category_of_Shoreline_Construction": "Wharf (Quay)", "Nature_of_Construction": "", "Object_Name": "", "Status": "", "Water_Level": "Always Dry", "Information": "", "Condition": "", "Scale_Minimum": 22000, "Source_Date": "20050412", "Source_Indication": "US,U3,USACE,LRN_GIS", "Source_Dataset": "U37CR221.000", "Feature_ID": "U3 1392984754 00001"}}, {"type": "Feature", "id": 842, "geometry": {"type": "Polygon", "coordinates": [[[-86.5318, 36.307], [-86.532, 36.307], [-86.5321, 36.3069], [-86.5318, 36.307]]]}, "properties": {"OBJECTID": 842, "Category_of_Shoreline_Construction": "Wharf (Quay)", "Nature_of_Construction": "", "Object_Name": "", "Status": "", "Water_Level": "Always Dry", "Information": "", "Condition": "", "Scale_Minimum": 22000, "Source_Date": "20050412", "Source_Indication": "US,U3,USACE,LRN_GIS", "Source_Dataset": "U37CR221.000", "Feature_ID": "U3 1392984755 00001"}}, {"type": "Feature", "id": 843, "geometry": {"type": "Polygon", "coordinates": [[[-86.431, 36.3351], [-86.4308, 36.3349], [-86.4308, 36.3352], [-86.431, 36.3351]]]}, "properties": {"OBJECTID": 843, "Category_of_Shoreline_Construction": "Wharf (Quay)", "Nature_of_Construction": "", "Object_Name": "Cherokee Boat Dock", "Status": "", "Water_Level": "Always Dry", "Information": "", "Condition": "", "Scale_Minimum": 22000, "Source_Date": "20050412", "Source_Indication": "US,U3,USACE,LRN_GIS", "Source_Dataset": "U37CR221.000", "Feature_ID": "U3 1392984756 00001"}}, {"type": "Feature", "id": 844, "geometry": {"type": "Polygon", "coordinates": [[[-86.3903, 36.3161], [-86.3901, 36.316], [-86.3899, 36.3162], [-86.3903, 36.3161]]]}, "properties": {"OBJECTID": 844, "Category_of_Shoreline_Construction": "Wharf (Quay)", "Nature_of_Construction": "", "Object_Name": "Gallatin Steam Plant (TVA)", "Status": "", "Water_Level": "Always Dry", "Information": "", "Condition": "", "Scale_Minimum": 22000, "Source_Date": "20050412", "Source_Indication": "US,U3,USACE,LRN_GIS", "Source_Dataset": "U37CR221.000", "Feature_ID": "U3 1392984757 00001"}}, {"type": "Feature", "id": 845, "geometry": {"type": "Polygon", "coordinates": [[[-86.6073, 36.2857], [-86.6054, 36.2858], [-86.6055, 36.2861], [-86.6073, 36.2857]]]}, "properties": {"OBJECTID": 845, "Category_of_Shoreline_Construction": "Wharf (Quay)", "Nature_of_Construction": "", "Object_Name": "Creekwood Marina", "Status": "", "Water_Level": "Always Dry", "Information": "", "Condition": "", "Scale_Minimum": 22000, "Source_Date": "20050412", "Source_Indication": "US,U3,USACE,LRN_GIS", "Source_Dataset": "U37CR221.000", "Feature_ID": "U3 1392984758 00001"}}, {"type": "Feature", "id": 846, "geometry": {"type": "Polygon", "coordinates": [[[-86.4644, 36.3032], [-86.4643, 36.3033], [-86.4645, 36.3034], [-86.4644, 36.3032]]]}, "properties": {"OBJECTID": 846, "Category_of_Shoreline_Construction": "Wharf (Quay)", "Nature_of_Construction": "", "Object_Name": "", "Status": "", "Water_Level": "Always Dry", "Information": "", "Condition": "", "Scale_Minimum": 22000, "Source_Date": "20050412", "Source_Indication": "US,U3,USACE,LRN_GIS", "Source_Dataset": "U37CR221.000", "Feature_ID": "U3 1392984759 00001"}}, {"type": "Feature", "id": 847, "geometry": {"type": "Polygon", "coordinates": [[[-86.4311, 36.3371], [-86.4268, 36.3336], [-86.4282, 36.3355], [-86.4311, 36.3371]]]}, "properties": {"OBJECTID": 847, "Category_of_Shoreline_Construction": "Wharf (Quay)", "Nature_of_Construction": "", "Object_Name": "Cherokee Boat Dock", "Status": "", "Water_Level": "Always Dry", "Information": "", "Condition": "", "Scale_Minimum": 22000, "Source_Date": "20050412", "Source_Indication": "US,U3,USACE,LRN_GIS", "Source_Dataset": "U37CR221.000", "Feature_ID": "U3 1392984760 00001"}}, {"type": "Feature", "id": 848, "geometry": {"type": "Polygon", "coordinates": [[[-86.2654, 36.2994], [-86.2655, 36.2995], [-86.2655, 36.2995], [-86.2654, 36.2994]]]}, "properties": {"OBJECTID": 848, "Category_of_Shoreline_Construction": "Wharf (Quay)", "Nature_of_Construction": "", "Object_Name": "", "Status": "", "Water_Level": "Always Dry", "Information": "", "Condition": "", "Scale_Minimum": 22000, "Source_Date": "20050412", "Source_Indication": "US,U3,USACE,LRN_GIS", "Source_Dataset": "U37CR221.000", "Feature_ID": "U3 1392984761 00001"}}, {"type": "Feature", "id": 849, "geometry": {"type": "Polygon", "coordinates": [[[-86.6075, 36.2858], [-86.6074, 36.286], [-86.6075, 36.286], [-86.6075, 36.2858]]]}, "properties": {"OBJECTID": 849, "Category_of_Shoreline_Construction": "Wharf (Quay)", "Nature_of_Construction": "", "Object_Name": "Creekwood Marina", "Status": "", "Water_Level": "Always Dry", "Information": "", "Condition": "", "Scale_Minimum": 22000, "Source_Date": "20050412", "Source_Indication": "US,U3,USACE,LRN_GIS", "Source_Dataset": "U37CR221.000", "Feature_ID": "U3 1392984762 00001"}}, {"type": "Feature", "id": 850, "geometry": {"type": "Polygon", "coordinates": [[[-86.4716, 36.3113], [-86.4716, 36.3114], [-86.4718, 36.3113], [-86.4716, 36.3113]]]}, "properties": {"OBJECTID": 850, "Category_of_Shoreline_Construction": "Wharf (Quay)", "Nature_of_Construction": "", "Object_Name": "", "Status": "", "Water_Level": "Always Dry", "Information": "", "Condition": "", "Scale_Minimum": 22000, "Source_Date": "20050412", "Source_Indication": "US,U3,USACE,LRN_GIS", "Source_Dataset": "U37CR221.000", "Feature_ID": "U3 1392984763 00001"}}, {"type": "Feature", "id": 851, "geometry": {"type": "Polygon", "coordinates": [[[-86.4758, 36.3487], [-86.4765, 36.3487], [-86.4759, 36.3484], [-86.4758, 36.3487]], [[-86.476, 36.3487], [-86.476, 36.3486], [-86.4763, 36.3488], [-86.476, 36.3487]]]}, "properties": {"OBJECTID": 851, "Category_of_Shoreline_Construction": "Wharf (Quay)", "Nature_of_Construction": "", "Object_Name": "Gallatin Marina", "Status": "", "Water_Level": "Always Dry", "Information": "", "Condition": "", "Scale_Minimum": 22000, "Source_Date": "20050412", "Source_Indication": "US,U3,USACE,LRN_GIS", "Source_Dataset": "U37CR221.000", "Feature_ID": "U3 1392984764 00001"}}, {"type": "Feature", "id": 852, "geometry": {"type": "Polygon", "coordinates": [[[-86.4715, 36.3114], [-86.4715, 36.3116], [-86.4716, 36.3116], [-86.4715, 36.3114]]]}, "properties": {"OBJECTID": 852, "Category_of_Shoreline_Construction": "Wharf (Quay)", "Nature_of_Construction": "", "Object_Name": "", "Status": "", "Water_Level": "Always Dry", "Information": "", "Condition": "", "Scale_Minimum": 22000, "Source_Date": "20050412", "Source_Indication": "US,U3,USACE,LRN_GIS", "Source_Dataset": "U37CR221.000", "Feature_ID": "U3 1392984765 00001"}}, {"type": "Feature", "id": 853, "geometry": {"type": "Polygon", "coordinates": [[[-86.6057, 36.2868], [-86.6079, 36.2867], [-86.6074, 36.2861], [-86.6057, 36.2868]]]}, "properties": {"OBJECTID": 853, "Category_of_Shoreline_Construction": "Wharf (Quay)", "Nature_of_Construction": "", "Object_Name": "Creekwood Marina", "Status": "", "Water_Level": "Always Dry", "Information": "", "Condition": "", "Scale_Minimum": 22000, "Source_Date": "20050412", "Source_Indication": "US,U3,USACE,LRN_GIS", "Source_Dataset": "U37CR221.000", "Feature_ID": "U3 1392984767 00001"}}, {"type": "Feature", "id": 854, "geometry": {"type": "Polygon", "coordinates": [[[-86.6077, 36.2611], [-86.6065, 36.2614], [-86.6066, 36.2618], [-86.6077, 36.2611]]]}, "properties": {"OBJECTID": 854, "Category_of_Shoreline_Construction": "Wharf (Quay)", "Nature_of_Construction": "", "Object_Name": "Drake's Creek Marina", "Status": "", "Water_Level": "Always Dry", "Information": "", "Condition": "", "Scale_Minimum": 22000, "Source_Date": "20050412", "Source_Indication": "US,U3,USACE,LRN_GIS", "Source_Dataset": "U37CR221.000", "Feature_ID": "U3 1392984768 00001"}}, {"type": "Feature", "id": 855, "geometry": {"type": "Polygon", "coordinates": [[[-86.5658, 36.2542], [-86.5652, 36.2537], [-86.565, 36.2538], [-86.5658, 36.2542]]]}, "properties": {"OBJECTID": 855, "Category_of_Shoreline_Construction": "Wharf (Quay)", "Nature_of_Construction": "", "Object_Name": "Marina", "Status": "", "Water_Level": "Always Dry", "Information": "", "Condition": "", "Scale_Minimum": 22000, "Source_Date": "20050412", "Source_Indication": "US,U3,USACE,LRN_GIS", "Source_Dataset": "U37CR221.000", "Feature_ID": "U3 1392984769 00001"}}, {"type": "Feature", "id": 856, "geometry": {"type": "Polygon", "coordinates": [[[-86.475, 36.348], [-86.4754, 36.3482], [-86.4752, 36.3478], [-86.475, 36.348]]]}, "properties": {"OBJECTID": 856, "Category_of_Shoreline_Construction": "Wharf (Quay)", "Nature_of_Construction": "", "Object_Name": "Gallatin Marina", "Status": "", "Water_Level": "Always Dry", "Information": "", "Condition": "", "Scale_Minimum": 22000, "Source_Date": "20050412", "Source_Indication": "US,U3,USACE,LRN_GIS", "Source_Dataset": "U37CR221.000", "Feature_ID": "U3 1392984771 00001"}}, {"type": "Feature", "id": 857, "geometry": {"type": "Polygon", "coordinates": [[[-86.608, 36.2868], [-86.6063, 36.2871], [-86.6065, 36.2875], [-86.608, 36.2868]]]}, "properties": {"OBJECTID": 857, "Category_of_Shoreline_Construction": "Wharf (Quay)", "Nature_of_Construction": "", "Object_Name": "Creekwood Marina", "Status": "", "Water_Level": "Always Dry", "Information": "", "Condition": "", "Scale_Minimum": 22000, "Source_Date": "20050412", "Source_Indication": "US,U3,USACE,LRN_GIS", "Source_Dataset": "U37CR221.000", "Feature_ID": "U3 1392984773 00001"}}, {"type": "Feature", "id": 858, "geometry": {"type": "Polygon", "coordinates": [[[-86.6079, 36.2616], [-86.6067, 36.2622], [-86.6068, 36.2624], [-86.6079, 36.2616]]]}, "properties": {"OBJECTID": 858, "Category_of_Shoreline_Construction": "Wharf (Quay)", "Nature_of_Construction": "", "Object_Name": "Drake's Creek Marina", "Status": "", "Water_Level": "Always Dry", "Information": "", "Condition": "", "Scale_Minimum": 22000, "Source_Date": "20050412", "Source_Indication": "US,U3,USACE,LRN_GIS", "Source_Dataset": "U37CR221.000", "Feature_ID": "U3 1392984776 00001"}}, {"type": "Feature", "id": 859, "geometry": {"type": "Polygon", "coordinates": [[[-86.6082, 36.287], [-86.6074, 36.2875], [-86.6077, 36.2877], [-86.6082, 36.287]]]}, "properties": {"OBJECTID": 859, "Category_of_Shoreline_Construction": "Wharf (Quay)", "Nature_of_Construction": "", "Object_Name": "Creekwood Marina", "Status": "", "Water_Level": "Always Dry", "Information": "", "Condition": "", "Scale_Minimum": 22000, "Source_Date": "20050412", "Source_Indication": "US,U3,USACE,LRN_GIS", "Source_Dataset": "U37CR221.000", "Feature_ID": "U3 1392984777 00001"}}, {"type": "Feature", "id": 860, "geometry": {"type": "Polygon", "coordinates": [[[-86.5763, 36.3138], [-86.576, 36.3134], [-86.5759, 36.3136], [-86.5763, 36.3138]]]}, "properties": {"OBJECTID": 860, "Category_of_Shoreline_Construction": "Wharf (Quay)", "Nature_of_Construction": "", "Object_Name": "Bluegrass Country Club Dock", "Status": "", "Water_Level": "Always Dry", "Information": "", "Condition": "", "Scale_Minimum": 22000, "Source_Date": "20050412", "Source_Indication": "US,U3,USACE,LRN_GIS", "Source_Dataset": "U37CR221.000", "Feature_ID": "U3 1392984778 00001"}}, {"type": "Feature", "id": 861, "geometry": {"type": "Polygon", "coordinates": [[[-86.6072, 36.2849], [-86.6059, 36.2854], [-86.6073, 36.2854], [-86.6072, 36.2849]]]}, "properties": {"OBJECTID": 861, "Category_of_Shoreline_Construction": "Wharf (Quay)", "Nature_of_Construction": "", "Object_Name": "Creekwood Marina", "Status": "", "Water_Level": "Always Dry", "Information": "", "Condition": "", "Scale_Minimum": 22000, "Source_Date": "20050412", "Source_Indication": "US,U3,USACE,LRN_GIS", "Source_Dataset": "U37CR221.000", "Feature_ID": "U3 1392984779 00001"}}, {"type": "Feature", "id": 862, "geometry": {"type": "Polygon", "coordinates": [[[-86.566, 36.2558], [-86.5662, 36.2559], [-86.5664, 36.2557], [-86.566, 36.2558]]]}, "properties": {"OBJECTID": 862, "Category_of_Shoreline_Construction": "Wharf (Quay)", "Nature_of_Construction": "", "Object_Name": "Marina", "Status": "", "Water_Level": "Always Dry", "Information": "", "Condition": "", "Scale_Minimum": 22000, "Source_Date": "20050412", "Source_Indication": "US,U3,USACE,LRN_GIS", "Source_Dataset": "U37CR221.000", "Feature_ID": "U3 1392984780 00001"}}, {"type": "Feature", "id": 863, "geometry": {"type": "Polygon", "coordinates": [[[-86.566, 36.2553], [-86.5655, 36.2555], [-86.5656, 36.2557], [-86.566, 36.2553]]]}, "properties": {"OBJECTID": 863, "Category_of_Shoreline_Construction": "Wharf (Quay)", "Nature_of_Construction": "", "Object_Name": "Marina", "Status": "", "Water_Level": "Always Dry", "Information": "", "Condition": "", "Scale_Minimum": 22000, "Source_Date": "20050412", "Source_Indication": "US,U3,USACE,LRN_GIS", "Source_Dataset": "U37CR221.000", "Feature_ID": "U3 1392984781 00001"}}, {"type": "Feature", "id": 864, "geometry": {"type": "Polygon", "coordinates": [[[-86.5658, 36.255], [-86.5655, 36.255], [-86.5655, 36.2552], [-86.5658, 36.255]]]}, "properties": {"OBJECTID": 864, "Category_of_Shoreline_Construction": "Wharf (Quay)", "Nature_of_Construction": "", "Object_Name": "Marina", "Status": "", "Water_Level": "Always Dry", "Information": "", "Condition": "", "Scale_Minimum": 22000, "Source_Date": "20050412", "Source_Indication": "US,U3,USACE,LRN_GIS", "Source_Dataset": "U37CR221.000", "Feature_ID": "U3 1392984782 00001"}}, {"type": "Feature", "id": 865, "geometry": {"type": "Polygon", "coordinates": [[[-86.6083, 36.2604], [-86.6085, 36.26], [-86.6082, 36.2603], [-86.6083, 36.2604]]]}, "properties": {"OBJECTID": 865, "Category_of_Shoreline_Construction": "Wharf (Quay)", "Nature_of_Construction": "", "Object_Name": "Drake's Creek Marina", "Status": "", "Water_Level": "Always Dry", "Information": "", "Condition": "", "Scale_Minimum": 22000, "Source_Date": "20050412", "Source_Indication": "US,U3,USACE,LRN_GIS", "Source_Dataset": "U37CR221.000", "Feature_ID": "U3 1392984783 00001"}}, {"type": "Feature", "id": 866, "geometry": {"type": "Polygon", "coordinates": [[[-86.6083, 36.2605], [-86.6064, 36.2609], [-86.6065, 36.2611], [-86.6083, 36.2605]]]}, "properties": {"OBJECTID": 866, "Category_of_Shoreline_Construction": "Wharf (Quay)", "Nature_of_Construction": "", "Object_Name": "Drake's Creek Marina", "Status": "", "Water_Level": "Always Dry", "Information": "", "Condition": "", "Scale_Minimum": 22000, "Source_Date": "20050412", "Source_Indication": "US,U3,USACE,LRN_GIS", "Source_Dataset": "U37CR221.000", "Feature_ID": "U3 1392984784 00001"}}, {"type": "Feature", "id": 867, "geometry": {"type": "Polygon", "coordinates": [[[-85.9415, 36.2897], [-85.9433, 36.2916], [-85.9432, 36.2912], [-85.9415, 36.2897]]]}, "properties": {"OBJECTID": 867, "Category_of_Shoreline_Construction": "Lock/Guidewall", "Nature_of_Construction": "Concreted/Metal", "Object_Name": "Cordell Hull Lock Wall", "Status": "", "Water_Level": "Always Dry", "Information": "", "Condition": "", "Scale_Minimum": 45000, "Source_Date": "20140604", "Source_Indication": "US,U3,SURVY,2014_SEAS_LIDAR_Mapping_Survey", "Source_Dataset": "U37CR307.000", "Feature_ID": "U3 1392990218 00001"}}, {"type": "Feature", "id": 868, "geometry": {"type": "Polygon", "coordinates": [[[-85.9472, 36.2444], [-85.9472, 36.2444], [-85.9473, 36.2444], [-85.9472, 36.2444]]]}, "properties": {"OBJECTID": 868, "Category_of_Shoreline_Construction": "Water Intake Structure", "Nature_of_Construction": "", "Object_Name": "", "Status": "", "Water_Level": "Always Dry", "Information": "", "Condition": "", "Scale_Minimum": 45000, "Source_Date": "20040930", "Source_Indication": "US,U3,USACE,LRN_GIS", "Source_Dataset": "U37CR307.000", "Feature_ID": "U3 1392990243 00001"}}, {"type": "Feature", "id": 869, "geometry": {"type": "Polygon", "coordinates": [[[-85.9443, 36.2918], [-85.9421, 36.2896], [-85.9412, 36.2889], [-85.9443, 36.2918]]]}, "properties": {"OBJECTID": 869, "Category_of_Shoreline_Construction": "Lock/Guidewall", "Nature_of_Construction": "Concreted/Metal", "Object_Name": "Cordell Hull Lock Wall", "Status": "", "Water_Level": "Always Dry", "Information": "", "Condition": "", "Scale_Minimum": 45000, "Source_Date": "20140604", "Source_Indication": "US,U3,SURVY,2014_SEAS_LIDAR_Mapping_Survey", "Source_Dataset": "U37CR307.000", "Feature_ID": "U3 1392990531 00001"}}, {"type": "Feature", "id": 877, "geometry": {"type": "Polygon", "coordinates": [[[-85.9435, 36.2944], [-85.9432, 36.2941], [-85.9433, 36.2944], [-85.9435, 36.2944]]]}, "properties": {"OBJECTID": 877, "Category_of_Shoreline_Construction": "Wharf (Quay)", "Nature_of_Construction": "", "Object_Name": "", "Status": "", "Water_Level": "Always Dry", "Information": "", "Condition": "", "Scale_Minimum": 22000, "Source_Date": "20050414", "Source_Indication": "US,U3,USACE,LRN_GIS", "Source_Dataset": "U37CR307.000", "Feature_ID": "U3 1392991069 00001"}}]}