{"type": "FeatureCollection", "features": [{"type": "Feature", "id": 369, "geometry": {"type": "LineString", "coordinates": [[-86.3533, 36.3088], [-86.3531, 36.3082]]}, "properties": {"OBJECTID": 369, "Category_of_Pipeline": "Supply Pipe", "Product": "", "Object_Name": "", "Status": "", "Information": "", "Scale_Minimum": 60000, "Source_Date": "20050412", "Source_Indication": "US,U3,USACE,LRN_GIS", "Source_Dataset": "U37CR221.000", "Feature_ID": "U3 1392979879 00001"}}, {"type": "Feature", "id": 370, "geometry": {"type": "LineString", "coordinates": [[-86.3543, 36.3109], [-86.3535, 36.3091]]}, "properties": {"OBJECTID": 370, "Category_of_Pipeline": "Supply Pipe", "Product": "", "Object_Name": "", "Status": "", "Information": "", "Scale_Minimum": 60000, "Source_Date": "20050412", "Source_Indication": "US,U3,USACE,LRN_GIS", "Source_Dataset": "U37CR221.000", "Feature_ID": "U3 1392979893 00001"}}, {"type": "Feature", "id": 371, "geometry": {"type": "LineString", "coordinates": [[-85.9886, 36.2694], [-85.9877, 36.2675]]}, "properties": {"OBJECTID": 371, "Category_of_Pipeline": "Supply Pipe", "Product": "", "Object_Name": "", "Status": "", "Information": "", "Scale_Minimum": 60000, "Source_Date": "20050412", "Source_Indication": "US,U3,USACE,LRN_GIS", "Source_Dataset": "U37CR221.000", "Feature_ID": "U3 1392979896 00001"}}, {"type": "Feature", "id": 372, "geometry": {"type": "LineString", "coordinates": [[-86.2072, 36.3531], [-86.2055, 36.355]]}, "properties": {"OBJECTID": 372, "Category_of_Pipeline": "Supply Pipe", "Product": "", "Object_Name": "", "Status": "", "Information": "", "Scale_Minimum": 60000, "Source_Date": "20050412", "Source_Indication": "US,U3,USACE,LRN_GIS", "Source_Dataset": "U37CR221.000", "Feature_ID": "U3 1392979897 00001"}}, {"type": "Feature", "id": 373, "geometry": {"type": "LineString", "coordinates": [[-86.2477, 36.3047], [-86.2464, 36.3056]]}, "properties": {"OBJECTID": 373, "Category_of_Pipeline": "Supply Pipe", "Product": "", "Object_Name": "", "Status": "", "Information": "", "Scale_Minimum": 60000, "Source_Date": "20050412", "Source_Indication": "US,U3,USACE,LRN_GIS", "Source_Dataset": "U37CR221.000", "Feature_ID": "U3 1392979898 00001"}}, {"type": "Feature", "id": 374, "geometry": {"type": "LineString", "coordinates": [[-86.362, 36.3058], [-86.3626, 36.3053]]}, "properties": {"OBJECTID": 374, "Category_of_Pipeline": "Supply Pipe", "Product": "", "Object_Name": "", "Status": "", "Information": "", "Scale_Minimum": 60000, "Source_Date": "20050412", "Source_Indication": "US,U3,USACE,LRN_GIS", "Source_Dataset": "U37CR221.000", "Feature_ID": "U3 1392979900 00001"}}, {"type": "Feature", "id": 375, "geometry": {"type": "LineString", "coordinates": [[-86.2472, 36.3042], [-86.2455, 36.3056]]}, "properties": {"OBJECTID": 375, "Category_of_Pipeline": "Supply Pipe", "Product": "", "Object_Name": "", "Status": "", "Information": "", "Scale_Minimum": 60000, "Source_Date": "20050412", "Source_Indication": "US,U3,USACE,LRN_GIS", "Source_Dataset": "U37CR221.000", "Feature_ID": "U3 1392979901 00001"}}, {"type": "Feature", "id": 376, "geometry": {"type": "LineString", "coordinates": [[-86.4668, 36.3316], [-86.4644, 36.3291]]}, "properties": {"OBJECTID": 376, "Category_of_Pipeline": "Sewer", "Product": "", "Object_Name": "", "Status": "", "Information": "Sewer Outfall Pipe", "Scale_Minimum": 60000, "Source_Date": "20050412", "Source_Indication": "US,U3,USACE,LRN_GIS", "Source_Dataset": "U37CR221.000", "Feature_ID": "U3 1392979903 00001"}}, {"type": "Feature", "id": 377, "geometry": {"type": "LineString", "coordinates": [[-86.6107, 36.2933], [-86.6069, 36.2939]]}, "properties": {"OBJECTID": 377, "Category_of_Pipeline": "Supply Pipe", "Product": "", "Object_Name": "", "Status": "", "Information": "", "Scale_Minimum": 60000, "Source_Date": "20050412", "Source_Indication": "US,U3,USACE,LRN_GIS", "Source_Dataset": "U37CR221.000", "Feature_ID": "U3 1392979905 00001"}}, {"type": "Feature", "id": 378, "geometry": {"type": "LineString", "coordinates": [[-86.3522, 36.3063], [-86.3508, 36.3032]]}, "properties": {"OBJECTID": 378, "Category_of_Pipeline": "Supply Pipe", "Product": "", "Object_Name": "", "Status": "", "Information": "", "Scale_Minimum": 60000, "Source_Date": "20050412", "Source_Indication": "US,U3,USACE,LRN_GIS", "Source_Dataset": "U37CR221.000", "Feature_ID": "U3 1392979907 00001"}}, {"type": "Feature", "id": 379, "geometry": {"type": "LineString", "coordinates": [[-86.2073, 36.3534], [-86.2056, 36.3553]]}, "properties": {"OBJECTID": 379, "Category_of_Pipeline": "Supply Pipe", "Product": "", "Object_Name": "", "Status": "", "Information": "", "Scale_Minimum": 60000, "Source_Date": "20050412", "Source_Indication": "US,U3,USACE,LRN_GIS", "Source_Dataset": "U37CR221.000", "Feature_ID": "U3 1392979908 00001"}}, {"type": "Feature", "id": 380, "geometry": {"type": "LineString", "coordinates": [[-86.357, 36.31], [-86.3556, 36.3059]]}, "properties": {"OBJECTID": 380, "Category_of_Pipeline": "Supply Pipe", "Product": "", "Object_Name": "", "Status": "", "Information": "", "Scale_Minimum": 60000, "Source_Date": "20050412", "Source_Indication": "US,U3,USACE,LRN_GIS", "Source_Dataset": "U37CR221.000", "Feature_ID": "U3 1392979910 00001"}}, {"type": "Feature", "id": 381, "geometry": {"type": "LineString", "coordinates": [[-85.9833, 36.2693], [-85.9834, 36.2681]]}, "properties": {"OBJECTID": 381, "Category_of_Pipeline": "Supply Pipe", "Product": "", "Object_Name": "", "Status": "", "Information": "", "Scale_Minimum": 60000, "Source_Date": "20050412", "Source_Indication": "US,U3,USACE,LRN_GIS", "Source_Dataset": "U37CR221.000", "Feature_ID": "U3 1392979912 00001"}}, {"type": "Feature", "id": 382, "geometry": {"type": "LineString", "coordinates": [[-86.3578, 36.3099], [-86.3595, 36.3081]]}, "properties": {"OBJECTID": 382, "Category_of_Pipeline": "Supply Pipe", "Product": "", "Object_Name": "", "Status": "", "Information": "", "Scale_Minimum": 60000, "Source_Date": "20050412", "Source_Indication": "US,U3,USACE,LRN_GIS", "Source_Dataset": "U37CR221.000", "Feature_ID": "U3 1392979914 00001"}}, {"type": "Feature", "id": 383, "geometry": {"type": "LineString", "coordinates": [[-85.9538, 36.2468], [-85.9528, 36.2477]]}, "properties": {"OBJECTID": 383, "Category_of_Pipeline": "Supply Pipe", "Product": "", "Object_Name": "", "Status": "", "Information": "", "Scale_Minimum": 60000, "Source_Date": "20050414", "Source_Indication": "US,U3,USACE,LRN_GIS", "Source_Dataset": "U37CR307.000", "Feature_ID": "U3 1392989937 00001"}}, {"type": "Feature", "id": 389, "geometry": {"type": "LineString", "coordinates": [[-85.9536, 36.2466], [-85.9525, 36.2475]]}, "properties": {"OBJECTID": 389, "Category_of_Pipeline": "Supply Pipe", "Product": "", "Object_Name": "", "Status": "", "Information": "", "Scale_Minimum": 60000, "Source_Date": "20050414", "Source_Indication": "US,U3,USACE,LRN_GIS", "Source_Dataset": "U37CR307.000", "Feature_ID": "U3 1392990417 00001"}}]}