{"type": "FeatureCollection", "features": [{"type": "Feature", "id": 153, "geometry": {"type": "Point", "coordinates": [-86.65638339999998, 36.29587950000007]}, "properties": {"OBJECTID": 153, "Category_of_Waterway_Gauge": "Water Level Staff/Pole", "Object_Name": "Old Hickory Lock Gauge", "Elevation": "", "Reference_Gravitational_Level": "", "Waterway_Distance": "", "Horizontal_Units": "Statute Miles", "Value_at_Relevant_High_Water_Level": "", "Name_of_Relevant_High_Water_Level": "", "Value_at_Relevant_Low_Water_Level": "", "Name_at_Relevant_Low_Water_Level": "", "Name_of_Sounding_Reference_Datum_Level": "", "Scale_Minimum": 45000, "Source_Date": "20131113", "Source_Indication": "US,U3,SURVY,2013_SEAS_LIDAR_Mapping_Survey", "Source_Dataset": "U37CR149.000", "Feature_ID": "U3 1392979130 00001"}}, {"type": "Feature", "id": 155, "geometry": {"type": "Point", "coordinates": [-86.65617089999995, 36.295757500000036]}, "properties": {"OBJECTID": 155, "Category_of_Waterway_Gauge": "Water Level Staff/Pole", "Object_Name": "Old Hickory Lock and Dam Upper Gauge", "Elevation": "", "Reference_Gravitational_Level": "", "Waterway_Distance": "", "Horizontal_Units": "Statute Miles", "Value_at_Relevant_High_Water_Level": "", "Name_of_Relevant_High_Water_Level": "", "Value_at_Relevant_Low_Water_Level": "", "Name_at_Relevant_Low_Water_Level": "", "Name_of_Sounding_Reference_Datum_Level": "", "Scale_Minimum": 45000, "Source_Date": "20131113", "Source_Indication": "US,U3,SURVY,2013_SEAS_LIDAR_Mapping_Survey", "Source_Dataset": "U37CR149.000", "Feature_ID": "U3 1392979336 00001"}}, {"type": "Feature", "id": 157, "geometry": {"type": "Point", "coordinates": [-86.65762759999996, 36.29659410000005]}, "properties": {"OBJECTID": 157, "Category_of_Waterway_Gauge": "Water Level Staff/Pole", "Object_Name": "Old Hickory Lock and Dam Lower Gauge", "Elevation": "", "Reference_Gravitational_Level": "", "Waterway_Distance": "", "Horizontal_Units": "Statute Miles", "Value_at_Relevant_High_Water_Level": "", "Name_of_Relevant_High_Water_Level": "", "Value_at_Relevant_Low_Water_Level": "", "Name_at_Relevant_Low_Water_Level": "", "Name_of_Sounding_Reference_Datum_Level": "", "Scale_Minimum": 45000, "Source_Date": "20131113", "Source_Indication": "US,U3,SURVY,2013_SEAS_LIDAR_Mapping_Survey", "Source_Dataset": "U37CR149.000", "Feature_ID": "U3 1392979323 00001"}}, {"type": "Feature", "id": 163, "geometry": {"type": "Point", "coordinates": [-86.03120789999997, 36.28684780000003]}, "properties": {"OBJECTID": 163, "Category_of_Waterway_Gauge": "", "Object_Name": "Gauge", "Elevation": "", "Reference_Gravitational_Level": "", "Waterway_Distance": "", "Horizontal_Units": "Statute Miles", "Value_at_Relevant_High_Water_Level": "", "Name_of_Relevant_High_Water_Level": "", "Value_at_Relevant_Low_Water_Level": "", "Name_at_Relevant_Low_Water_Level": "", "Name_of_Sounding_Reference_Datum_Level": "", "Scale_Minimum": 45000, "Source_Date": "20050412", "Source_Indication": "US,U3,USACE,LRN_GIS", "Source_Dataset": "U37CR221.000", "Feature_ID": "U3 1392980183 00001"}}, {"type": "Feature", "id": 164, "geometry": {"type": "Point", "coordinates": [-86.17526999999995, 36.373007200000075]}, "properties": {"OBJECTID": 164, "Category_of_Waterway_Gauge": "Water Level Staff/Pole", "Object_Name": "Coleman-Winston Bridge", "Elevation": "", "Reference_Gravitational_Level": "", "Waterway_Distance": "278.7", "Horizontal_Units": "Statute Miles", "Value_at_Relevant_High_Water_Level": "", "Name_of_Relevant_High_Water_Level": "", "Value_at_Relevant_Low_Water_Level": "", "Name_at_Relevant_Low_Water_Level": "", "Name_of_Sounding_Reference_Datum_Level": "", "Scale_Minimum": 45000, "Source_Date": "20140603", "Source_Indication": "US,U3,SURVY,2014_SEAS_LIDAR_Mapping_Survey", "Source_Dataset": "U37CR221.000", "Feature_ID": "U3 1392980191 00001"}}, {"type": "Feature", "id": 167, "geometry": {"type": "Point", "coordinates": [-85.95443069999999, 36.248707600000046]}, "properties": {"OBJECTID": 167, "Category_of_Waterway_Gauge": "Recording Water Level Gauge", "Object_Name": "NWS Gage at Carthage", "Elevation": "", "Reference_Gravitational_Level": "", "Waterway_Distance": "308.2", "Horizontal_Units": "Statute Miles", "Value_at_Relevant_High_Water_Level": "", "Name_of_Relevant_High_Water_Level": "", "Value_at_Relevant_Low_Water_Level": "", "Name_at_Relevant_Low_Water_Level": "", "Name_of_Sounding_Reference_Datum_Level": "", "Scale_Minimum": 45000, "Source_Date": "20140603", "Source_Indication": "US,U3,SURVY,2014_SEAS_LIDAR_Mapping_Survey", "Source_Dataset": "U37CR307.000", "Feature_ID": "U3 1392989402 00001"}}, {"type": "Feature", "id": 168, "geometry": {"type": "Point", "coordinates": [-85.94204379999996, 36.28971910000007]}, "properties": {"OBJECTID": 168, "Category_of_Waterway_Gauge": "Water Level Staff/Pole", "Object_Name": "Cordell Hull Lock Lower Gauge", "Elevation": "", "Reference_Gravitational_Level": "", "Waterway_Distance": "", "Horizontal_Units": "Statute Miles", "Value_at_Relevant_High_Water_Level": "", "Name_of_Relevant_High_Water_Level": "", "Value_at_Relevant_Low_Water_Level": "", "Name_at_Relevant_Low_Water_Level": "", "Name_of_Sounding_Reference_Datum_Level": "", "Scale_Minimum": 45000, "Source_Date": "20140604", "Source_Indication": "US,U3,SURVY,2014_SEAS_LIDAR_Mapping_Survey", "Source_Dataset": "U37CR307.000", "Feature_ID": "U3 1392989422 00001"}}, {"type": "Feature", "id": 169, "geometry": {"type": "Point", "coordinates": [-85.94320719999996, 36.29082640000007]}, "properties": {"OBJECTID": 169, "Category_of_Waterway_Gauge": "Water Level Staff/Pole", "Object_Name": "Cordell Hull Lock Upper Gauge", "Elevation": "", "Reference_Gravitational_Level": "", "Waterway_Distance": "", "Horizontal_Units": "Statute Miles", "Value_at_Relevant_High_Water_Level": "", "Name_of_Relevant_High_Water_Level": "", "Value_at_Relevant_Low_Water_Level": "", "Name_at_Relevant_Low_Water_Level": "", "Name_of_Sounding_Reference_Datum_Level": "", "Scale_Minimum": 45000, "Source_Date": "20140604", "Source_Indication": "US,U3,SURVY,2014_SEAS_LIDAR_Mapping_Survey", "Source_Dataset": "U37CR307.000", "Feature_ID": "U3 1392989463 00001"}}]}