{"type": "FeatureCollection", "features": [{"type": "Feature", "id": 14, "geometry": {"type": "Polygon", "coordinates": [[[-86.6576, 36.2966], [-86.6578, 36.2964], [-86.6564, 36.2957], [-86.6576, 36.2966]]]}, "properties": {"OBJECTID": 14, "Category_of_Sea_Area": "", "Object_Name": "Old Hickory Lock and Dam", "Information": "", "Scale_Minimum": 60000, "Source_Date": "20131113", "Source_Indication": "US,U3,SURVY,2013_SEAS_LIDAR_Mapping_Survey", "Source_Dataset": "U37CR149.000", "Feature_ID": "U3 1392977283 00001"}}]}