{"type": "FeatureCollection", "features": [{"type": "Feature", "id": 52, "geometry": {"type": "Polygon", "coordinates": [[[-86.603791, 36.241719], [-86.603255, 36.241781], [-86.60292, 36.241786], [-86.602629, 36.241751], [-86.602523, 36.241709], [-86.602383, 36.241571], [-86.602306, 36.241354], [-86.602282, 36.241097], [-86.602292, 36.240841], [-86.60235, 36.240658], [-86.602319, 36.24044], [-86.602457, 36.239751], [-86.602492, 36.239702], [-86.602554, 36.239246], [-86.602601, 36.239175], [-86.602614, 36.239083], [-86.602222, 36.238377], [-86.602175, 36.238221], [-86.60222, 36.238166], [-86.602352, 36.237776], [-86.602332, 36.237616], [-86.602423, 36.23733], [-86.602813, 36.236766], [-86.60271, 36.236712], [-86.602403, 36.237014], [-86.602228, 36.237068], [-86.60175, 36.236797], [-86.601533, 36.236803], [-86.601437, 36.236852], [-86.601393, 36.236915], [-86.601393, 36.237026], [-86.601738, 36.237212], [-86.601814, 36.237319], [-86.601645, 36.237409], [-86.6016, 36.237473], [-86.601553, 36.237658], [-86.601599, 36.237807], [-86.601448, 36.238021], [-86.60123, 36.238037], [-86.600976, 36.237949], [-86.600755, 36.237812], [-86.600486, 36.237564], [-86.600363, 36.237645], [-86.600509, 36.23797], [-86.600663, 36.238201], [-86.600802, 36.23833], [-86.601024, 36.238418], [-86.601216, 36.238548], [-86.601272, 36.238698], [-86.601438, 36.238946], [-86.60134, 36.239408], [-86.601177, 36.239726], [-86.60121, 36.239754], [-86.6012, 36.239802], [-86.600688, 36.24021], [-86.600592, 36.240344], [-86.60072, 36.240649], [-86.600513, 36.24129], [-86.600479, 36.241532], [-86.600531, 36.241716], [-86.600515, 36.24186], [-86.600412, 36.241965], [-86.600243, 36.242038], [-86.599685, 36.242151], [-86.599752, 36.242439], [-86.600138, 36.242373], [-86.600578, 36.242221], [-86.600778, 36.242067], [-86.600861, 36.241927], [-86.600891, 36.241778], [-86.600841, 36.241472], [-86.601075, 36.240677], [-86.60105, 36.240504], [-86.600983, 36.24038], [-86.60151, 36.239945], [-86.601692, 36.239451], [-86.601781, 36.239045], [-86.601794, 36.238944], [-86.601761, 36.238823], [-86.601607, 36.238595], [-86.601524, 36.238402], [-86.601446, 36.238323], [-86.601704, 36.238221], [-86.60182, 36.238108], [-86.601912, 36.237954], [-86.601824, 36.238172], [-86.601832, 36.238297], [-86.601902, 36.238504], [-86.602246, 36.239099], [-86.602202, 36.239198], [-86.602158, 36.239567], [-86.60202, 36.240079], [-86.601964, 36.240457], [-86.601992, 36.24064], [-86.601941, 36.240792], [-86.601928, 36.241125], [-86.601962, 36.241427], [-86.602043, 36.241656], [-86.602209, 36.24187], [-86.602367, 36.241968], [-86.602566, 36.242035], [-86.602919, 36.242074], [-86.603737, 36.242028], [-86.603907, 36.241995], [-86.604027, 36.241935], [-86.603791, 36.241719]]]}, "properties": {"OBJECTID": 52, "Category_of_Berth": "First Class Landing", "Class_of_Dangerous_Cargo": "", "Text_Description": "", "Depth_Range_Value_1": "", "Object_Name": "First Class Landing", "Status": "", "Information": "", "Scale_Minimum": 45000, "Source_Date": "20050412", "Source_Indication": "US,U3,USACE,LRN_GIS", "Source_Dataset": "U37CR221.000", "Feature_ID": "U3 1392979881 00001", "SHAPE_Length": 0.029834534089515325, "SHAPE_Area": 5.058348599990787e-06}}]}