{"type": "FeatureCollection", "features": [{"type": "Feature", "id": 582, "geometry": {"type": "Polygon", "coordinates": [[[-86.614232, 36.305434], [-86.614255, 36.305319], [-86.613682, 36.305375], [-86.613637, 36.305604], [-86.61421, 36.305548], [-86.614232, 36.305434]]]}, "properties": {"OBJECTID": 582, "Category_of_Bridge": "Fixed Bridge", "Vertical_Clearance": "Unknown", "Horizontal_Clearance": "Unknown", "Picture_Representation": "", "Vertical_Clearance_Closed": "", "Vertical_Clearance_Open": "", "Vertical_Datum": "", "Waterway_Distance": "Unknown", "Horizontal_Units": "Statute Miles", "Object_Name": "", "Condition": "", "Information": "", "Scale_Minimum": 300000, "Source_Date": "20050412", "Source_Indication": "US,U3,USACE,LRN_GIS", "Source_Dataset": "U37CR221.000", "Feature_ID": "U3 1392984770 00001"}}, {"type": "Feature", "id": 583, "geometry": {"type": "Polygon", "coordinates": [[[-86.571831, 36.245483], [-86.571795, 36.245467], [-86.571622, 36.245721], [-86.571721, 36.245765], [-86.571893, 36.245511], [-86.571831, 36.245483]]]}, "properties": {"OBJECTID": 583, "Category_of_Bridge": "Fixed Bridge", "Vertical_Clearance": "Unknown", "Horizontal_Clearance": "Unknown", "Picture_Representation": "", "Vertical_Clearance_Closed": "", "Vertical_Clearance_Open": "", "Vertical_Datum": "", "Waterway_Distance": "Unknown", "Horizontal_Units": "Statute Miles", "Object_Name": "", "Condition": "", "Information": "", "Scale_Minimum": 300000, "Source_Date": "20050412", "Source_Indication": "US,U3,USACE,LRN_GIS", "Source_Dataset": "U37CR221.000", "Feature_ID": "U3 1392984772 00001"}}, {"type": "Feature", "id": 584, "geometry": {"type": "Polygon", "coordinates": [[[-86.443764, 36.287043], [-86.443688, 36.287044], [-86.443691, 36.287336], [-86.443849, 36.287334], [-86.443846, 36.287043], [-86.443764, 36.287043]]]}, "properties": {"OBJECTID": 584, "Category_of_Bridge": "Fixed Bridge", "Vertical_Clearance": "Unknown", "Horizontal_Clearance": "Unknown", "Picture_Representation": "", "Vertical_Clearance_Closed": "", "Vertical_Clearance_Open": "", "Vertical_Datum": "", "Waterway_Distance": "Unknown", "Horizontal_Units": "Statute Miles", "Object_Name": "", "Condition": "", "Information": "", "Scale_Minimum": 300000, "Source_Date": "20050412", "Source_Indication": "US,U3,USACE,LRN_GIS", "Source_Dataset": "U37CR221.000", "Feature_ID": "U3 1392984774 00001"}}, {"type": "Feature", "id": 585, "geometry": {"type": "Polygon", "coordinates": [[[-86.468686, 36.323604], [-86.46871, 36.323632], [-86.468903, 36.323526], [-86.468879, 36.323498], [-86.468686, 36.323604]]]}, "properties": {"OBJECTID": 585, "Category_of_Bridge": "Fixed Bridge", "Vertical_Clearance": "Unknown", "Horizontal_Clearance": "Unknown", "Picture_Representation": "", "Vertical_Clearance_Closed": "", "Vertical_Clearance_Open": "", "Vertical_Datum": "", "Waterway_Distance": "Unknown", "Horizontal_Units": "Statute Miles", "Object_Name": "", "Condition": "", "Information": "", "Scale_Minimum": 300000, "Source_Date": "20050412", "Source_Indication": "US,U3,USACE,LRN_GIS", "Source_Dataset": "U37CR221.000", "Feature_ID": "U3 1392984775 00001"}}, {"type": "Feature", "id": 586, "geometry": {"type": "Polygon", "coordinates": [[[-86.512196, 36.349913], [-86.512256, 36.349991], [-86.512706, 36.349766], [-86.512585, 36.349608], [-86.512135, 36.349834], [-86.512196, 36.349913]]]}, "properties": {"OBJECTID": 586, "Category_of_Bridge": "Fixed Bridge", "Vertical_Clearance": "Unknown", "Horizontal_Clearance": "Unknown", "Picture_Representation": "", "Vertical_Clearance_Closed": "", "Vertical_Clearance_Open": "", "Vertical_Datum": "", "Waterway_Distance": "Unknown", "Horizontal_Units": "Statute Miles", "Object_Name": "", "Condition": "", "Information": "", "Scale_Minimum": 300000, "Source_Date": "20050412", "Source_Indication": "US,U3,USACE,LRN_GIS", "Source_Dataset": "U37CR221.000", "Feature_ID": "U3 1392984785 00001"}}, {"type": "Feature", "id": 587, "geometry": {"type": "Polygon", "coordinates": [[[-86.498381, 36.288989], [-86.498338, 36.289017], [-86.498499, 36.289183], [-86.498577, 36.289134], [-86.498417, 36.288967], [-86.498381, 36.288989]]]}, "properties": {"OBJECTID": 587, "Category_of_Bridge": "Fixed Bridge", "Vertical_Clearance": "Unknown", "Horizontal_Clearance": "Unknown", "Picture_Representation": "", "Vertical_Clearance_Closed": "", "Vertical_Clearance_Open": "", "Vertical_Datum": "", "Waterway_Distance": "Unknown", "Horizontal_Units": "Statute Miles", "Object_Name": "", "Condition": "", "Information": "", "Scale_Minimum": 300000, "Source_Date": "20050412", "Source_Indication": "US,U3,USACE,LRN_GIS", "Source_Dataset": "U37CR221.000", "Feature_ID": "U3 1392984787 00001"}}, {"type": "Feature", "id": 588, "geometry": {"type": "Polygon", "coordinates": [[[-86.613191, 36.304755], [-86.612509, 36.304736], [-86.613189, 36.304773], [-86.613191, 36.304755]]]}, "properties": {"OBJECTID": 588, "Category_of_Bridge": "Fixed Bridge", "Vertical_Clearance": "Unknown", "Horizontal_Clearance": "Unknown", "Picture_Representation": "", "Vertical_Clearance_Closed": "", "Vertical_Clearance_Open": "", "Vertical_Datum": "", "Waterway_Distance": "Unknown", "Horizontal_Units": "Statute Miles", "Object_Name": "", "Condition": "", "Information": "", "Scale_Minimum": 300000, "Source_Date": "20050412", "Source_Indication": "US,U3,USACE,LRN_GIS", "Source_Dataset": "U37CR221.000", "Feature_ID": "U3 1392984791 00001"}}, {"type": "Feature", "id": 594, "geometry": {"type": "Polygon", "coordinates": [[[-86.454288, 36.281055], [-86.454271, 36.281087], [-86.454591, 36.281199], [-86.454633, 36.281121], [-86.454313, 36.281009], [-86.454288, 36.281055]]]}, "properties": {"OBJECTID": 594, "Category_of_Bridge": "Fixed Bridge", "Vertical_Clearance": "Unknown", "Horizontal_Clearance": "Unknown", "Picture_Representation": "", "Vertical_Clearance_Closed": "", "Vertical_Clearance_Open": "", "Vertical_Datum": "", "Waterway_Distance": "Unknown", "Horizontal_Units": "Statute Miles", "Object_Name": "", "Condition": "", "Information": "", "Scale_Minimum": 300000, "Source_Date": "20050412", "Source_Indication": "US,U3,USACE,LRN_GIS", "Source_Dataset": "U37CR221.000", "Feature_ID": "U3 1392984803 00001"}}]}