{"type": "FeatureCollection", "features": [{"type": "Feature", "id": 95, "geometry": {"type": "Polygon", "coordinates": [[[-86.620833, 36.242797], [-86.620833, 36.232512], [-86.618928, 36.232303], [-86.613168, 36.233658], [-86.609808, 36.229772], [-86.602641, 36.227699], [-86.597568, 36.228402], [-86.592242, 36.231529], [-86.589279, 36.232003], [-86.590512, 36.235155], [-86.59109, 36.236991], [-86.593668, 36.237175], [-86.593786, 36.238178], [-86.593491, 36.239797], [-86.594996, 36.239499], [-86.594998, 36.240757], [-86.593696, 36.240754], [-86.592848, 36.241295], [-86.592868, 36.24177], [-86.593325, 36.242434], [-86.593407, 36.243116], [-86.593534, 36.243202], [-86.593855, 36.243182], [-86.594151, 36.243021], [-86.594295, 36.242794], [-86.594427, 36.242456], [-86.594436, 36.242292], [-86.594499, 36.242149], [-86.594461, 36.242051], [-86.594522, 36.241937], [-86.594519, 36.24184], [-86.594682, 36.24179], [-86.59474, 36.241681], [-86.594981, 36.241726], [-86.595012, 36.241871], [-86.595098, 36.241959], [-86.595076, 36.242027], [-86.595295, 36.242272], [-86.595311, 36.242355], [-86.595101, 36.242507], [-86.595055, 36.242577], [-86.595047, 36.242667], [-86.595101, 36.242788], [-86.595271, 36.24285], [-86.595467, 36.242852], [-86.596654, 36.242603], [-86.597354, 36.242496], [-86.597594, 36.24252], [-86.598025, 36.242487], [-86.599416, 36.242192], [-86.600021, 36.2421], [-86.600412, 36.241965], [-86.600515, 36.24186], [-86.600535, 36.241792], [-86.600479, 36.241532], [-86.600513, 36.24129], [-86.60072, 36.240649], [-86.600592, 36.240344], [-86.600688, 36.24021], [-86.6012, 36.239802], [-86.60121, 36.239754], [-86.601177, 36.239726], [-86.60134, 36.239408], [-86.601438, 36.238946], [-86.601272, 36.238698], [-86.601216, 36.238548], [-86.601024, 36.238418], [-86.600802, 36.23833], [-86.600663, 36.238201], [-86.600509, 36.23797], [-86.600363, 36.237645], [-86.600486, 36.237564], [-86.600755, 36.237812], [-86.600976, 36.237949], [-86.60123, 36.238037], [-86.601448, 36.238021], [-86.601599, 36.237807], [-86.601553, 36.237658], [-86.6016, 36.237473], [-86.601645, 36.237409], [-86.601814, 36.237319], [-86.601738, 36.237212], [-86.601393, 36.237026], [-86.601393, 36.236915], [-86.601437, 36.236852], [-86.601533, 36.236803], [-86.60172, 36.236786], [-86.602228, 36.237068], [-86.602403, 36.237014], [-86.60271, 36.236712], [-86.602777, 36.236729], [-86.602812, 36.236781], [-86.602423, 36.23733], [-86.602332, 36.237616], [-86.602352, 36.237776], [-86.60222, 36.238166], [-86.602175, 36.238221], [-86.602222, 36.238377], [-86.602614, 36.239083], [-86.602601, 36.239175], [-86.602554, 36.239246], [-86.602492, 36.239702], [-86.602457, 36.239751], [-86.602366, 36.240147], [-86.602319, 36.24044], [-86.60235, 36.240658], [-86.602292, 36.240841], [-86.602282, 36.241097], [-86.602306, 36.241354], [-86.602383, 36.241571], [-86.602443, 36.241652], [-86.602629, 36.241751], [-86.60292, 36.241786], [-86.603255, 36.241781], [-86.603784, 36.241725], [-86.603932, 36.241599], [-86.604496, 36.241402], [-86.604778, 36.241243], [-86.604871, 36.241147], [-86.604947, 36.240955], [-86.605018, 36.240923], [-86.605172, 36.240928], [-86.605281, 36.241042], [-86.605324, 36.241168], [-86.605302, 36.241209], [-86.605359, 36.24131], [-86.605433, 36.241366], [-86.60549, 36.241362], [-86.605577, 36.241437], [-86.60557, 36.241481], [-86.605426, 36.241575], [-86.605368, 36.241658], [-86.605213, 36.241752], [-86.605172, 36.241833], [-86.605309, 36.24193], [-86.605462, 36.241981], [-86.606535, 36.242285], [-86.607493, 36.242466], [-86.60927, 36.242936], [-86.612843, 36.243706], [-86.613174, 36.243822], [-86.613455, 36.243809], [-86.613637, 36.243866], [-86.614164, 36.243885], [-86.614451, 36.243981], [-86.614542, 36.243976], [-86.614685, 36.244043], [-86.615031, 36.244068], [-86.615411, 36.244184], [-86.615505, 36.244268], [-86.615618, 36.244212], [-86.615799, 36.244206], [-86.615849, 36.244157], [-86.615841, 36.244102], [-86.615748, 36.244052], [-86.61526, 36.244026], [-86.615127, 36.243919], [-86.614815, 36.243913], [-86.614009, 36.243768], [-86.613149, 36.243509], [-86.613216, 36.24297], [-86.613277, 36.242878], [-86.613457, 36.242773], [-86.614058, 36.242991], [-86.614541, 36.243075], [-86.614732, 36.243075], [-86.614858, 36.243143], [-86.615644, 36.243298], [-86.615807, 36.243302], [-86.616081, 36.243203], [-86.616153, 36.243222], [-86.616368, 36.24319], [-86.61645, 36.243262], [-86.616851, 36.243452], [-86.617744, 36.243804], [-86.618691, 36.243836], [-86.61974, 36.243802], [-86.619874, 36.243704], [-86.619888, 36.243594], [-86.619875, 36.243274], [-86.61983, 36.243046], [-86.619599, 36.242543], [-86.619474, 36.242387], [-86.619447, 36.242234], [-86.619408, 36.242243], [-86.619369, 36.242157], [-86.619261, 36.241838], [-86.619237, 36.241589], [-86.619089, 36.24143], [-86.618982, 36.241368], [-86.618999, 36.241315], [-86.619218, 36.241341], [-86.619408, 36.241453], [-86.619665, 36.241538], [-86.620043, 36.241949], [-86.620306, 36.242127], [-86.620321, 36.242241], [-86.620296, 36.242252], [-86.620342, 36.242322], [-86.620833, 36.242797]]]}, "properties": {"OBJECTID": 95, "Category_of_Built_Up_Area": "Urban Area", "Object_Name": "Nashville, TN", "Information": "", "Scale_Minimum": 75000, "Source_Date": "20050408", "Source_Indication": "US,U3,USACE,LRN_GIS_Data", "Source_Dataset": "U37CR221.000", "Feature_ID": "U3 1392973037 00001"}}]}