{"type": "FeatureCollection", "features": [{"type": "Feature", "id": 522, "geometry": {"type": "Polygon", "coordinates": [[[-86.552578, 36.320085], [-86.554644, 36.319014], [-86.554822, 36.318888], [-86.554974, 36.318897], [-86.555208, 36.319029], [-86.555277, 36.318996], [-86.555133, 36.318706], [-86.555193, 36.318583], [-86.556207, 36.317671], [-86.556549, 36.317241], [-86.556446, 36.317194], [-86.556131, 36.317588], [-86.55516, 36.31846], [-86.555028, 36.318647], [-86.555016, 36.318723], [-86.555053, 36.318821], [-86.554903, 36.318782], [-86.554762, 36.318805], [-86.55459, 36.318925], [-86.553686, 36.319377], [-86.553126, 36.319701], [-86.552632, 36.319927], [-86.55251, 36.320006], [-86.552578, 36.320085]]]}, "properties": {"OBJECTID": 522, "Object_Name": "", "Periodic_Date_Start": "", "Periodic_Date_End": "", "Scale_Minimum": 60000, "Information": "Natural Rock Wall", "Source_Date": "20050412", "Source_Indication": "US,U3,USACE,LRN_GIS", "Source_Dataset": "U37CR221.000", "Feature_ID": "U3 1392981023 00001"}}, {"type": "Feature", "id": 528, "geometry": {"type": "Polygon", "coordinates": [[[-86.558145, 36.31563], [-86.558226, 36.315515], [-86.558201, 36.315442], [-86.558502, 36.315086], [-86.558544, 36.314984], [-86.559318, 36.314195], [-86.559554, 36.313934], [-86.559558, 36.313885], [-86.559692, 36.313718], [-86.560094, 36.313325], [-86.560152, 36.31319], [-86.560389, 36.312941], [-86.560803, 36.312402], [-86.560823, 36.312321], [-86.560875, 36.312284], [-86.5614, 36.311509], [-86.561296, 36.311464], [-86.560504, 36.312615], [-86.560049, 36.313143], [-86.559984, 36.313266], [-86.5596, 36.313657], [-86.559455, 36.313837], [-86.559435, 36.313902], [-86.55922, 36.314141], [-86.55844, 36.314936], [-86.558393, 36.315041], [-86.558089, 36.31541], [-86.558105, 36.315505], [-86.558043, 36.315581], [-86.558145, 36.31563]]]}, "properties": {"OBJECTID": 528, "Object_Name": "", "Periodic_Date_Start": "", "Periodic_Date_End": "", "Scale_Minimum": 60000, "Information": "Natural Rock Wall", "Source_Date": "20050412", "Source_Indication": "US,U3,USACE,LRN_GIS", "Source_Dataset": "U37CR221.000", "Feature_ID": "U3 1392981037 00001"}}, {"type": "Feature", "id": 529, "geometry": {"type": "Polygon", "coordinates": [[[-86.506475, 36.308715], [-86.506381, 36.308454], [-86.506475, 36.308226], [-86.506598, 36.30808], [-86.506634, 36.308052], [-86.506814, 36.308056], [-86.506937, 36.308165], [-86.507094, 36.308205], [-86.507185, 36.308187], [-86.507307, 36.308108], [-86.507454, 36.30794], [-86.507424, 36.307789], [-86.507295, 36.307754], [-86.507051, 36.307856], [-86.506926, 36.307951], [-86.506806, 36.307976], [-86.506659, 36.307941], [-86.506653, 36.307776], [-86.506592, 36.307574], [-86.506667, 36.307447], [-86.506554, 36.307146], [-86.50657, 36.30698], [-86.506708, 36.306762], [-86.506907, 36.306594], [-86.506986, 36.306454], [-86.506976, 36.306382], [-86.507033, 36.306191], [-86.507131, 36.306015], [-86.507556, 36.305753], [-86.507634, 36.305588], [-86.507756, 36.30554], [-86.507916, 36.305399], [-86.508231, 36.305349], [-86.50822, 36.305254], [-86.507981, 36.305275], [-86.50784, 36.305325], [-86.507679, 36.305462], [-86.507543, 36.305527], [-86.507488, 36.305591], [-86.507468, 36.305685], [-86.507053, 36.305942], [-86.506923, 36.306154], [-86.506864, 36.306438], [-86.506806, 36.30654], [-86.506601, 36.306719], [-86.506465, 36.306935], [-86.506436, 36.307148], [-86.506472, 36.307295], [-86.506545, 36.307425], [-86.506474, 36.307575], [-86.506552, 36.307982], [-86.506371, 36.308178], [-86.506262, 36.308455], [-86.506366, 36.308758], [-86.506475, 36.308715]], [[-86.507316, 36.307851], [-86.507336, 36.307912], [-86.507132, 36.308099], [-86.507061, 36.308109], [-86.506962, 36.308042], [-86.507316, 36.307851]]]}, "properties": {"OBJECTID": 529, "Object_Name": "", "Periodic_Date_Start": "", "Periodic_Date_End": "", "Scale_Minimum": 60000, "Information": "Natural Rock Wall", "Source_Date": "20050412", "Source_Indication": "US,U3,USACE,LRN_GIS", "Source_Dataset": "U37CR221.000", "Feature_ID": "U3 1392981039 00001"}}, {"type": "Feature", "id": 531, "geometry": {"type": "Polygon", "coordinates": [[[-86.606783, 36.293734], [-86.606978, 36.294053], [-86.610792, 36.293441], [-86.610693, 36.293195], [-86.61061, 36.293116], [-86.606783, 36.293734]]]}, "properties": {"OBJECTID": 531, "Object_Name": "", "Periodic_Date_Start": "", "Periodic_Date_End": "", "Scale_Minimum": 60000, "Information": "Pipeline Buffer Zone", "Source_Date": "20050412", "Source_Indication": "US,U3,USACE,LRN_GIS", "Source_Dataset": "U37CR221.000", "Feature_ID": "U3 1392981079 00001"}}, {"type": "Feature", "id": 536, "geometry": {"type": "Polygon", "coordinates": [[[-86.557439, 36.279142], [-86.557269, 36.279251], [-86.557355, 36.279287], [-86.55741, 36.279275], [-86.557466, 36.279197], [-86.557439, 36.279142]]]}, "properties": {"OBJECTID": 536, "Object_Name": "", "Periodic_Date_Start": "", "Periodic_Date_End": "", "Scale_Minimum": 60000, "Information": "Submerged Utility", "Source_Date": "20050412", "Source_Indication": "US,U3,USACE,LRN_GIS", "Source_Dataset": "U37CR221.000", "Feature_ID": "U3 1392981137 00001"}}, {"type": "Feature", "id": 537, "geometry": {"type": "Polygon", "coordinates": [[[-86.576971, 36.314102], [-86.577042, 36.313937], [-86.576933, 36.313938], [-86.576892, 36.313971], [-86.576892, 36.314061], [-86.576971, 36.314102]]]}, "properties": {"OBJECTID": 537, "Object_Name": "", "Periodic_Date_Start": "", "Periodic_Date_End": "", "Scale_Minimum": 60000, "Information": "Submerged Utility", "Source_Date": "20050412", "Source_Indication": "US,U3,USACE,LRN_GIS", "Source_Dataset": "U37CR221.000", "Feature_ID": "U3 1392981139 00001"}}, {"type": "Feature", "id": 538, "geometry": {"type": "Polygon", "coordinates": [[[-86.612248, 36.295548], [-86.612132, 36.295396], [-86.612093, 36.295428], [-86.612078, 36.295473], [-86.612134, 36.295551], [-86.612248, 36.295548]]]}, "properties": {"OBJECTID": 538, "Object_Name": "", "Periodic_Date_Start": "", "Periodic_Date_End": "", "Scale_Minimum": 60000, "Information": "Submerged Utility", "Source_Date": "20050412", "Source_Indication": "US,U3,USACE,LRN_GIS", "Source_Dataset": "U37CR221.000", "Feature_ID": "U3 1392981145 00001"}}, {"type": "Feature", "id": 544, "geometry": {"type": "Polygon", "coordinates": [[[-86.466645, 36.331689], [-86.466979, 36.331519], [-86.464549, 36.328942], [-86.464418, 36.328886], [-86.464291, 36.328938], [-86.464239, 36.329065], [-86.464288, 36.329189], [-86.466645, 36.331689]]]}, "properties": {"OBJECTID": 544, "Object_Name": "", "Periodic_Date_Start": "", "Periodic_Date_End": "", "Scale_Minimum": 60000, "Information": "Pipeline Buffer Zone", "Source_Date": "20050412", "Source_Indication": "US,U3,USACE,LRN_GIS", "Source_Dataset": "U37CR221.000", "Feature_ID": "U3 1392981171 00001"}}, {"type": "Feature", "id": 559, "geometry": {"type": "Polygon", "coordinates": [[[-86.544889, 36.322025], [-86.545371, 36.321961], [-86.546135, 36.321933], [-86.547881, 36.321765], [-86.548459, 36.321654], [-86.549526, 36.32135], [-86.549659, 36.321347], [-86.549819, 36.321296], [-86.549989, 36.321301], [-86.550044, 36.321244], [-86.550766, 36.321051], [-86.550725, 36.320959], [-86.550003, 36.321154], [-86.549928, 36.321213], [-86.549799, 36.321201], [-86.549632, 36.321253], [-86.549503, 36.321255], [-86.548393, 36.32157], [-86.547861, 36.32167], [-86.546115, 36.321838], [-86.545032, 36.321894], [-86.54485, 36.321934], [-86.544889, 36.322025]]]}, "properties": {"OBJECTID": 559, "Object_Name": "", "Periodic_Date_Start": "", "Periodic_Date_End": "", "Scale_Minimum": 60000, "Information": "Natural Rock Wall", "Source_Date": "20050412", "Source_Indication": "US,U3,USACE,LRN_GIS", "Source_Dataset": "U37CR221.000", "Feature_ID": "U3 1392981248 00001"}}, {"type": "Feature", "id": 560, "geometry": {"type": "Polygon", "coordinates": [[[-86.465851, 36.326196], [-86.465514, 36.326487], [-86.464348, 36.327274], [-86.463763, 36.327536], [-86.463484, 36.327634], [-86.463267, 36.327672], [-86.463175, 36.327638], [-86.46305, 36.327481], [-86.462844, 36.327513], [-86.462785, 36.327542], [-86.462715, 36.327716], [-86.4627, 36.327787], [-86.462743, 36.327855], [-86.46273, 36.327882], [-86.461993, 36.328101], [-86.462028, 36.328193], [-86.462769, 36.327979], [-86.46286, 36.327871], [-86.462825, 36.327764], [-86.462873, 36.327625], [-86.462938, 36.327587], [-86.462989, 36.327572], [-86.463152, 36.327745], [-86.463372, 36.327757], [-86.463812, 36.327623], [-86.46441, 36.327356], [-86.464864, 36.327074], [-86.465599, 36.326554], [-86.465931, 36.326266], [-86.465851, 36.326196]]]}, "properties": {"OBJECTID": 560, "Object_Name": "", "Periodic_Date_Start": "", "Periodic_Date_End": "", "Scale_Minimum": 60000, "Information": "Natural Rock Wall", "Source_Date": "20050412", "Source_Indication": "US,U3,USACE,LRN_GIS", "Source_Dataset": "U37CR221.000", "Feature_ID": "U3 1392981249 00001"}}, {"type": "Feature", "id": 566, "geometry": {"type": "Polygon", "coordinates": [[[-86.503138, 36.30888], [-86.503211, 36.308533], [-86.503231, 36.308227], [-86.503589, 36.30758], [-86.503877, 36.307176], [-86.503768, 36.307134], [-86.503319, 36.307804], [-86.503119, 36.308194], [-86.503093, 36.308521], [-86.503018, 36.30885], [-86.50302, 36.308885], [-86.503138, 36.30888]]]}, "properties": {"OBJECTID": 566, "Object_Name": "", "Periodic_Date_Start": "", "Periodic_Date_End": "", "Scale_Minimum": 60000, "Information": "Natural Rock Wall", "Source_Date": "20050412", "Source_Indication": "US,U3,USACE,LRN_GIS", "Source_Dataset": "U37CR221.000", "Feature_ID": "U3 1392981324 00001"}}, {"type": "Feature", "id": 567, "geometry": {"type": "Polygon", "coordinates": [[[-86.540771, 36.30988], [-86.540679, 36.309741], [-86.540612, 36.309515], [-86.540571, 36.309047], [-86.540603, 36.308823], [-86.540573, 36.308745], [-86.540614, 36.308651], [-86.54059, 36.308594], [-86.540616, 36.308573], [-86.540614, 36.308153], [-86.540694, 36.307934], [-86.540657, 36.307643], [-86.540764, 36.307384], [-86.540804, 36.30712], [-86.540868, 36.307083], [-86.540812, 36.306998], [-86.540678, 36.307117], [-86.540651, 36.307352], [-86.540552, 36.307563], [-86.540575, 36.30793], [-86.540495, 36.308146], [-86.540491, 36.308542], [-86.540454, 36.30874], [-86.540478, 36.308849], [-86.540452, 36.309048], [-86.540509, 36.309606], [-86.540567, 36.309772], [-86.540665, 36.309923], [-86.540771, 36.30988]]]}, "properties": {"OBJECTID": 567, "Object_Name": "", "Periodic_Date_Start": "", "Periodic_Date_End": "", "Scale_Minimum": 60000, "Information": "Natural Rock Wall", "Source_Date": "20050412", "Source_Indication": "US,U3,USACE,LRN_GIS", "Source_Dataset": "U37CR221.000", "Feature_ID": "U3 1392981327 00001"}}, {"type": "Feature", "id": 578, "geometry": {"type": "Polygon", "coordinates": [[[-86.513975, 36.298343], [-86.513939, 36.298257], [-86.514013, 36.297614], [-86.514117, 36.297112], [-86.514348, 36.296402], [-86.514787, 36.295464], [-86.514889, 36.295137], [-86.515147, 36.294707], [-86.515445, 36.294044], [-86.515438, 36.29398], [-86.515551, 36.293815], [-86.515689, 36.293368], [-86.515958, 36.292786], [-86.516115, 36.292346], [-86.516292, 36.2923], [-86.51633, 36.292241], [-86.516346, 36.292098], [-86.516253, 36.291939], [-86.516258, 36.291779], [-86.516569, 36.290472], [-86.516652, 36.290279], [-86.516649, 36.289815], [-86.516754, 36.28948], [-86.516838, 36.288794], [-86.516721, 36.288812], [-86.516635, 36.28947], [-86.516531, 36.289803], [-86.516536, 36.290253], [-86.516454, 36.290448], [-86.516142, 36.291757], [-86.516137, 36.291956], [-86.516228, 36.292126], [-86.516216, 36.29221], [-86.516096, 36.29224], [-86.516003, 36.292313], [-86.515844, 36.292757], [-86.515574, 36.293344], [-86.515437, 36.293785], [-86.515326, 36.293947], [-86.51533, 36.294019], [-86.515036, 36.294672], [-86.514777, 36.295104], [-86.514673, 36.295435], [-86.514233, 36.296377], [-86.514002, 36.297089], [-86.513866, 36.297827], [-86.513822, 36.298273], [-86.513873, 36.298392], [-86.513975, 36.298343]]]}, "properties": {"OBJECTID": 578, "Object_Name": "", "Periodic_Date_Start": "", "Periodic_Date_End": "", "Scale_Minimum": 60000, "Information": "Natural Rock Wall", "Source_Date": "20050412", "Source_Indication": "US,U3,USACE,LRN_GIS", "Source_Dataset": "U37CR221.000", "Feature_ID": "U3 1392981347 00001"}}, {"type": "Feature", "id": 582, "geometry": {"type": "Polygon", "coordinates": [[[-86.615535, 36.244253], [-86.615505, 36.244268], [-86.615411, 36.244184], [-86.615031, 36.244068], [-86.614685, 36.244043], [-86.614542, 36.243976], [-86.614451, 36.243981], [-86.614164, 36.243885], [-86.613637, 36.243866], [-86.613455, 36.243809], [-86.613174, 36.243822], [-86.612843, 36.243706], [-86.60927, 36.242936], [-86.607493, 36.242466], [-86.606535, 36.242285], [-86.605357, 36.241946], [-86.605311, 36.242035], [-86.606503, 36.242378], [-86.607458, 36.242558], [-86.609242, 36.24303], [-86.612804, 36.243797], [-86.613152, 36.243917], [-86.613447, 36.243905], [-86.613617, 36.243961], [-86.61414, 36.243983], [-86.614671, 36.244139], [-86.615001, 36.244162], [-86.615325, 36.244271], [-86.615485, 36.244362], [-86.615595, 36.244336], [-86.615535, 36.244253]]]}, "properties": {"OBJECTID": 582, "Object_Name": "", "Periodic_Date_Start": "", "Periodic_Date_End": "", "Scale_Minimum": 60000, "Information": "Natural Rock Wall", "Source_Date": "20050412", "Source_Indication": "US,U3,USACE,LRN_GIS", "Source_Dataset": "U37CR221.000", "Feature_ID": "U3 1392981354 00001"}}, {"type": "Feature", "id": 584, "geometry": {"type": "Polygon", "coordinates": [[[-86.567379, 36.26247], [-86.566188, 36.264317], [-86.565522, 36.265155], [-86.565177, 36.265415], [-86.565259, 36.265483], [-86.565608, 36.265221], [-86.566289, 36.264368], [-86.567483, 36.262515], [-86.567379, 36.26247]]]}, "properties": {"OBJECTID": 584, "Object_Name": "", "Periodic_Date_Start": "", "Periodic_Date_End": "", "Scale_Minimum": 60000, "Information": "Natural Rock Wall", "Source_Date": "20050412", "Source_Indication": "US,U3,USACE,LRN_GIS", "Source_Dataset": "U37CR221.000", "Feature_ID": "U3 1392981360 00001"}}, {"type": "Feature", "id": 585, "geometry": {"type": "Polygon", "coordinates": [[[-86.536529, 36.283916], [-86.536132, 36.283762], [-86.535482, 36.283344], [-86.53503, 36.28311], [-86.534974, 36.282994], [-86.534874, 36.282896], [-86.534636, 36.282783], [-86.534364, 36.282598], [-86.533973, 36.282415], [-86.533843, 36.282282], [-86.533669, 36.282198], [-86.533654, 36.282101], [-86.533484, 36.282023], [-86.533451, 36.281945], [-86.533277, 36.281875], [-86.533271, 36.281785], [-86.533171, 36.281686], [-86.532692, 36.281408], [-86.532581, 36.281317], [-86.532546, 36.281233], [-86.532431, 36.281194], [-86.532299, 36.281079], [-86.53205, 36.280961], [-86.531745, 36.280671], [-86.531411, 36.280462], [-86.531028, 36.280066], [-86.53068, 36.2798], [-86.530745, 36.279604], [-86.530837, 36.279531], [-86.530804, 36.279313], [-86.530684, 36.279192], [-86.530476, 36.279204], [-86.530316, 36.27931], [-86.530056, 36.279642], [-86.529761, 36.279661], [-86.529155, 36.279618], [-86.528817, 36.279523], [-86.528265, 36.27926], [-86.527618, 36.27879], [-86.527194, 36.278438], [-86.526718, 36.278154], [-86.526484, 36.278052], [-86.526406, 36.278124], [-86.526642, 36.278229], [-86.527118, 36.278512], [-86.527536, 36.278859], [-86.528187, 36.279332], [-86.528779, 36.279614], [-86.529116, 36.279709], [-86.529767, 36.279757], [-86.530116, 36.279725], [-86.530199, 36.279666], [-86.530405, 36.279375], [-86.530533, 36.27929], [-86.530624, 36.279277], [-86.530691, 36.279344], [-86.530703, 36.279504], [-86.530596, 36.279647], [-86.530568, 36.279833], [-86.530935, 36.280126], [-86.53133, 36.280533], [-86.531662, 36.280743], [-86.531974, 36.281035], [-86.532216, 36.281154], [-86.532362, 36.281272], [-86.532452, 36.281298], [-86.532491, 36.281379], [-86.532621, 36.281485], [-86.533089, 36.281755], [-86.533161, 36.281825], [-86.533186, 36.281937], [-86.533358, 36.282019], [-86.533394, 36.282086], [-86.533526, 36.282155], [-86.533579, 36.282261], [-86.533763, 36.282355], [-86.533898, 36.282489], [-86.534294, 36.282676], [-86.534561, 36.282858], [-86.534802, 36.282974], [-86.534954, 36.283184], [-86.535414, 36.283423], [-86.536211, 36.283913], [-86.536488, 36.284005], [-86.536529, 36.283916]]]}, "properties": {"OBJECTID": 585, "Object_Name": "", "Periodic_Date_Start": "", "Periodic_Date_End": "", "Scale_Minimum": 60000, "Information": "Natural Rock Wall", "Source_Date": "20050412", "Source_Indication": "US,U3,USACE,LRN_GIS", "Source_Dataset": "U37CR221.000", "Feature_ID": "U3 1392981362 00001"}}, {"type": "Feature", "id": 586, "geometry": {"type": "Polygon", "coordinates": [[[-86.524879, 36.27752], [-86.524707, 36.277472], [-86.524077, 36.277474], [-86.523647, 36.277408], [-86.522242, 36.277323], [-86.522236, 36.277415], [-86.523634, 36.277503], [-86.52408, 36.27757], [-86.524696, 36.277568], [-86.524822, 36.277605], [-86.524879, 36.27752]]]}, "properties": {"OBJECTID": 586, "Object_Name": "", "Periodic_Date_Start": "", "Periodic_Date_End": "", "Scale_Minimum": 60000, "Information": "Natural Rock Wall", "Source_Date": "20050412", "Source_Indication": "US,U3,USACE,LRN_GIS", "Source_Dataset": "U37CR221.000", "Feature_ID": "U3 1392981364 00001"}}]}