{"type": "FeatureCollection", "features": [{"type": "Feature", "id": 30, "geometry": {"type": "Polygon", "coordinates": [[[-86.491538, 36.343299], [-86.491134, 36.343384], [-86.491054, 36.34346], [-86.491161, 36.343384], [-86.491775, 36.343256], [-86.491538, 36.343299]]]}, "properties": {"OBJECTID": 30, "Category_of_Dam": "Dam", "Object_Name": "", "Nature_of_Construction": "", "Information": "", "Scale_Minimum": 45000, "Source_Date": "20040930", "Source_Indication": "US,U3,USACE,LRN_GIS", "Source_Dataset": "U37CR221.000", "Feature_ID": "U3 1392984698 00001"}}]}