{"type": "FeatureCollection", "features": [{"type": "Feature", "id": 993, "geometry": {"type": "Point", "coordinates": [-86.67353619999994, 36.20068450000008]}, "properties": {"OBJECTID": 993, "Category_of_Distance_Mark": "Distance Mark Not Physically Installed", "Horizontal_Units": "Statute Miles", "Waterway_Distance": 205, "Information": "Cumberland (CR)", "Scale_Minimum": 120000, "Source_Date": "20040930", "Source_Indication": "US,U3,USACE,LRN_GIS_Data", "Source_Dataset": "U37CR149.000", "Feature_ID": "U3 1392978543 00001"}}, {"type": "Feature", "id": 995, "geometry": {"type": "Point", "coordinates": [-86.65164049999998, 36.23827330000006]}, "properties": {"OBJECTID": 995, "Category_of_Distance_Mark": "Distance Mark Not Physically Installed", "Horizontal_Units": "Statute Miles", "Waterway_Distance": 210, "Information": "Cumberland (CR)", "Scale_Minimum": 120000, "Source_Date": "20040930", "Source_Indication": "US,U3,USACE,LRN_GIS_Data", "Source_Dataset": "U37CR149.000", "Feature_ID": "U3 1392979253 00001"}}, {"type": "Feature", "id": 1000, "geometry": {"type": "Point", "coordinates": [-86.63993829999998, 36.21272010000007]}, "properties": {"OBJECTID": 1000, "Category_of_Distance_Mark": "Distance Mark Not Physically Installed", "Horizontal_Units": "Statute Miles", "Waterway_Distance": 208, "Information": "Cumberland (CR)", "Scale_Minimum": 120000, "Source_Date": "20040930", "Source_Indication": "US,U3,USACE,LRN_GIS_Data", "Source_Dataset": "U37CR149.000", "Feature_ID": "U3 1392979234 00001"}}, {"type": "Feature", "id": 1002, "geometry": {"type": "Point", "coordinates": [-86.67842399999995, 36.228621400000065]}, "properties": {"OBJECTID": 1002, "Category_of_Distance_Mark": "Distance Mark Not Physically Installed", "Horizontal_Units": "Statute Miles", "Waterway_Distance": 203, "Information": "Cumberland (CR)", "Scale_Minimum": 120000, "Source_Date": "20040930", "Source_Indication": "US,U3,USACE,LRN_GIS_Data", "Source_Dataset": "U37CR149.000", "Feature_ID": "U3 1392979240 00001"}}, {"type": "Feature", "id": 1012, "geometry": {"type": "Point", "coordinates": [-86.67478249999994, 36.26260830000007]}, "properties": {"OBJECTID": 1012, "Category_of_Distance_Mark": "Distance Mark Not Physically Installed", "Horizontal_Units": "Statute Miles", "Waterway_Distance": 212, "Information": "Cumberland (CR)", "Scale_Minimum": 120000, "Source_Date": "20040930", "Source_Indication": "US,U3,USACE,LRN_GIS_Data", "Source_Dataset": "U37CR149.000", "Feature_ID": "U3 1392979262 00001"}}, {"type": "Feature", "id": 1013, "geometry": {"type": "Point", "coordinates": [-86.64176019999996, 36.261212200000045]}, "properties": {"OBJECTID": 1013, "Category_of_Distance_Mark": "Distance Mark Not Physically Installed", "Horizontal_Units": "Statute Miles", "Waterway_Distance": 219, "Information": "Cumberland (CR)", "Scale_Minimum": 120000, "Source_Date": "20040930", "Source_Indication": "US,U3,USACE,LRN_GIS_Data", "Source_Dataset": "U37CR149.000", "Feature_ID": "U3 1392979258 00001"}}, {"type": "Feature", "id": 1017, "geometry": {"type": "Point", "coordinates": [-86.67721739999996, 36.21462500000007]}, "properties": {"OBJECTID": 1017, "Category_of_Distance_Mark": "Distance Mark Not Physically Installed", "Horizontal_Units": "Statute Miles", "Waterway_Distance": 204, "Information": "Cumberland (CR)", "Scale_Minimum": 120000, "Source_Date": "20040930", "Source_Indication": "US,U3,USACE,LRN_GIS_Data", "Source_Dataset": "U37CR149.000", "Feature_ID": "U3 1392979267 00001"}}, {"type": "Feature", "id": 1022, "geometry": {"type": "Point", "coordinates": [-86.64438059999998, 36.20208750000006]}, "properties": {"OBJECTID": 1022, "Category_of_Distance_Mark": "Distance Mark Not Physically Installed", "Horizontal_Units": "Statute Miles", "Waterway_Distance": 207, "Information": "Cumberland (CR)", "Scale_Minimum": 120000, "Source_Date": "20040930", "Source_Indication": "US,U3,USACE,LRN_GIS_Data", "Source_Dataset": "U37CR149.000", "Feature_ID": "U3 1392979272 00001"}}, {"type": "Feature", "id": 1034, "geometry": {"type": "Point", "coordinates": [-86.64745429999994, 36.287491000000045]}, "properties": {"OBJECTID": 1034, "Category_of_Distance_Mark": "Distance Mark Not Physically Installed", "Horizontal_Units": "Statute Miles", "Waterway_Distance": 217, "Information": "Cumberland (CR)", "Scale_Minimum": 120000, "Source_Date": "20040930", "Source_Indication": "US,U3,USACE,LRN_GIS_Data", "Source_Dataset": "U37CR149.000", "Feature_ID": "U3 1392979276 00001"}}, {"type": "Feature", "id": 1038, "geometry": {"type": "Point", "coordinates": [-86.65760239999997, 36.296420100000034]}, "properties": {"OBJECTID": 1038, "Category_of_Distance_Mark": "Distance Mark Not Physically Installed", "Horizontal_Units": "Statute Miles", "Waterway_Distance": 216, "Information": "Cumberland (CR)", "Scale_Minimum": 120000, "Source_Date": "20040930", "Source_Indication": "US,U3,USACE,LRN_GIS_Data", "Source_Dataset": "U37CR149.000", "Feature_ID": "U3 1392979293 00001"}}, {"type": "Feature", "id": 1051, "geometry": {"type": "Point", "coordinates": [-86.64430649999997, 36.22534470000005]}, "properties": {"OBJECTID": 1051, "Category_of_Distance_Mark": "Distance Mark Not Physically Installed", "Horizontal_Units": "Statute Miles", "Waterway_Distance": 209, "Information": "Cumberland (CR)", "Scale_Minimum": 120000, "Source_Date": "20040930", "Source_Indication": "US,U3,USACE,LRN_GIS_Data", "Source_Dataset": "U37CR149.000", "Feature_ID": "U3 1392979289 00001"}}, {"type": "Feature", "id": 1056, "geometry": {"type": "Point", "coordinates": [-86.64399589999994, 36.27654260000003]}, "properties": {"OBJECTID": 1056, "Category_of_Distance_Mark": "Distance Mark Not Physically Installed", "Horizontal_Units": "Statute Miles", "Waterway_Distance": 218, "Information": "Cumberland (CR)", "Scale_Minimum": 120000, "Source_Date": "20040930", "Source_Indication": "US,U3,USACE,LRN_GIS_Data", "Source_Dataset": "U37CR149.000", "Feature_ID": "U3 1392979306 00001"}}, {"type": "Feature", "id": 1058, "geometry": {"type": "Point", "coordinates": [-86.67475069999995, 36.299917900000025]}, "properties": {"OBJECTID": 1058, "Category_of_Distance_Mark": "Distance Mark Not Physically Installed", "Horizontal_Units": "Statute Miles", "Waterway_Distance": 215, "Information": "Cumberland (CR)", "Scale_Minimum": 120000, "Source_Date": "20040930", "Source_Indication": "US,U3,USACE,LRN_GIS_Data", "Source_Dataset": "U37CR149.000", "Feature_ID": "U3 1392979310 00001"}}, {"type": "Feature", "id": 1059, "geometry": {"type": "Point", "coordinates": [-86.63293209999995, 36.252826500000026]}, "properties": {"OBJECTID": 1059, "Category_of_Distance_Mark": "Distance Mark Not Physically Installed", "Horizontal_Units": "Statute Miles", "Waterway_Distance": 220, "Information": "Cumberland (CR)", "Scale_Minimum": 120000, "Source_Date": "20040930", "Source_Indication": "US,U3,USACE,LRN_GIS_Data", "Source_Dataset": "U37CR149.000", "Feature_ID": "U3 1392979309 00001"}}, {"type": "Feature", "id": 1062, "geometry": {"type": "Point", "coordinates": [-86.66253159999997, 36.250861400000076]}, "properties": {"OBJECTID": 1062, "Category_of_Distance_Mark": "Distance Mark Not Physically Installed", "Horizontal_Units": "Statute Miles", "Waterway_Distance": 211, "Information": "Cumberland (CR)", "Scale_Minimum": 120000, "Source_Date": "20040930", "Source_Indication": "US,U3,USACE,LRN_GIS_Data", "Source_Dataset": "U37CR149.000", "Feature_ID": "U3 1392979308 00001"}}, {"type": "Feature", "id": 1065, "geometry": {"type": "Point", "coordinates": [-85.99598779999997, 36.266880300000025]}, "properties": {"OBJECTID": 1065, "Category_of_Distance_Mark": "Distance Mark Not Physically Installed", "Horizontal_Units": "Statute Miles", "Waterway_Distance": 305, "Information": "Cumberland (CR)", "Scale_Minimum": 120000, "Source_Date": "20040930", "Source_Indication": "US,U3,USACE,LRN_GIS", "Source_Dataset": "U37CR221.000", "Feature_ID": "U3 1392980064 00001"}}, {"type": "Feature", "id": 1066, "geometry": {"type": "Point", "coordinates": [-85.97808179999998, 36.26942260000004]}, "properties": {"OBJECTID": 1066, "Category_of_Distance_Mark": "Distance Mark Not Physically Installed", "Horizontal_Units": "Statute Miles", "Waterway_Distance": 306, "Information": "Cumberland (CR)", "Scale_Minimum": 120000, "Source_Date": "20040930", "Source_Indication": "US,U3,USACE,LRN_GIS", "Source_Dataset": "U37CR221.000", "Feature_ID": "U3 1392980066 00001"}}, {"type": "Feature", "id": 1067, "geometry": {"type": "Point", "coordinates": [-86.06974659999997, 36.30496080000006]}, "properties": {"OBJECTID": 1067, "Category_of_Distance_Mark": "Distance Mark Not Physically Installed", "Horizontal_Units": "Statute Miles", "Waterway_Distance": 296, "Information": "Cumberland (CR)", "Scale_Minimum": 120000, "Source_Date": "20040930", "Source_Indication": "US,U3,USACE,LRN_GIS", "Source_Dataset": "U37CR221.000", "Feature_ID": "U3 1392980067 00001"}}, {"type": "Feature", "id": 1068, "geometry": {"type": "Point", "coordinates": [-86.00977069999999, 36.27013150000005]}, "properties": {"OBJECTID": 1068, "Category_of_Distance_Mark": "Distance Mark Not Physically Installed", "Horizontal_Units": "Statute Miles", "Waterway_Distance": 304, "Information": "Cumberland (CR)", "Scale_Minimum": 120000, "Source_Date": "20040930", "Source_Indication": "US,U3,USACE,LRN_GIS", "Source_Dataset": "U37CR221.000", "Feature_ID": "U3 1392980071 00001"}}, {"type": "Feature", "id": 1069, "geometry": {"type": "Point", "coordinates": [-86.02794559999995, 36.290159800000026]}, "properties": {"OBJECTID": 1069, "Category_of_Distance_Mark": "Distance Mark Not Physically Installed", "Horizontal_Units": "Statute Miles", "Waterway_Distance": 300, "Information": "Cumberland (CR)", "Scale_Minimum": 120000, "Source_Date": "20040930", "Source_Indication": "US,U3,USACE,LRN_GIS", "Source_Dataset": "U37CR221.000", "Feature_ID": "U3 1392980072 00001"}}, {"type": "Feature", "id": 1070, "geometry": {"type": "Point", "coordinates": [-86.04255639999997, 36.288652900000045]}, "properties": {"OBJECTID": 1070, "Category_of_Distance_Mark": "Distance Mark Not Physically Installed", "Horizontal_Units": "Statute Miles", "Waterway_Distance": 299, "Information": "Cumberland (CR)", "Scale_Minimum": 120000, "Source_Date": "20040930", "Source_Indication": "US,U3,USACE,LRN_GIS", "Source_Dataset": "U37CR221.000", "Feature_ID": "U3 1392980075 00001"}}, {"type": "Feature", "id": 1071, "geometry": {"type": "Point", "coordinates": [-86.00370269999996, 36.283717900000056]}, "properties": {"OBJECTID": 1071, "Category_of_Distance_Mark": "Distance Mark Not Physically Installed", "Horizontal_Units": "Statute Miles", "Waterway_Distance": 303, "Information": "Cumberland (CR)", "Scale_Minimum": 120000, "Source_Date": "20040930", "Source_Indication": "US,U3,USACE,LRN_GIS", "Source_Dataset": "U37CR221.000", "Feature_ID": "U3 1392980076 00001"}}, {"type": "Feature", "id": 1072, "geometry": {"type": "Point", "coordinates": [-86.01627769999999, 36.30142880000005]}, "properties": {"OBJECTID": 1072, "Category_of_Distance_Mark": "Distance Mark Not Physically Installed", "Horizontal_Units": "Statute Miles", "Waterway_Distance": 301, "Information": "Cumberland (CR)", "Scale_Minimum": 120000, "Source_Date": "20040930", "Source_Indication": "US,U3,USACE,LRN_GIS", "Source_Dataset": "U37CR221.000", "Feature_ID": "U3 1392980078 00001"}}, {"type": "Feature", "id": 1073, "geometry": {"type": "Point", "coordinates": [-86.05014389999997, 36.30143810000004]}, "properties": {"OBJECTID": 1073, "Category_of_Distance_Mark": "Distance Mark Not Physically Installed", "Horizontal_Units": "Statute Miles", "Waterway_Distance": 298, "Information": "Cumberland (CR)", "Scale_Minimum": 120000, "Source_Date": "20040930", "Source_Indication": "US,U3,USACE,LRN_GIS", "Source_Dataset": "U37CR221.000", "Feature_ID": "U3 1392980080 00001"}}, {"type": "Feature", "id": 1074, "geometry": {"type": "Point", "coordinates": [-86.05798449999998, 36.31284610000006]}, "properties": {"OBJECTID": 1074, "Category_of_Distance_Mark": "Distance Mark Not Physically Installed", "Horizontal_Units": "Statute Miles", "Waterway_Distance": 297, "Information": "Cumberland (CR)", "Scale_Minimum": 120000, "Source_Date": "20040930", "Source_Indication": "US,U3,USACE,LRN_GIS", "Source_Dataset": "U37CR221.000", "Feature_ID": "U3 1392980081 00001"}}, {"type": "Feature", "id": 1075, "geometry": {"type": "Point", "coordinates": [-86.00021589999994, 36.29616390000007]}, "properties": {"OBJECTID": 1075, "Category_of_Distance_Mark": "Distance Mark Not Physically Installed", "Horizontal_Units": "Statute Miles", "Waterway_Distance": 302, "Information": "Cumberland (CR)", "Scale_Minimum": 120000, "Source_Date": "20040930", "Source_Indication": "US,U3,USACE,LRN_GIS", "Source_Dataset": "U37CR221.000", "Feature_ID": "U3 1392980082 00001"}}, {"type": "Feature", "id": 1076, "geometry": {"type": "Point", "coordinates": [-86.05613389999996, 36.28427650000003]}, "properties": {"OBJECTID": 1076, "Category_of_Distance_Mark": "Distance Mark Not Physically Installed", "Horizontal_Units": "Statute Miles", "Waterway_Distance": 294, "Information": "Cumberland (CR)", "Scale_Minimum": 120000, "Source_Date": "20040930", "Source_Indication": "US,U3,USACE,LRN_GIS", "Source_Dataset": "U37CR221.000", "Feature_ID": "U3 1392980091 00001"}}, {"type": "Feature", "id": 1077, "geometry": {"type": "Point", "coordinates": [-86.05711809999997, 36.29650420000007]}, "properties": {"OBJECTID": 1077, "Category_of_Distance_Mark": "Distance Mark Not Physically Installed", "Horizontal_Units": "Statute Miles", "Waterway_Distance": 295, "Information": "Cumberland (CR)", "Scale_Minimum": 120000, "Source_Date": "20040930", "Source_Indication": "US,U3,USACE,LRN_GIS", "Source_Dataset": "U37CR221.000", "Feature_ID": "U3 1392980092 00001"}}, {"type": "Feature", "id": 1078, "geometry": {"type": "Point", "coordinates": [-86.07648279999995, 36.26361900000006]}, "properties": {"OBJECTID": 1078, "Category_of_Distance_Mark": "Distance Mark Not Physically Installed", "Horizontal_Units": "Statute Miles", "Waterway_Distance": 292, "Information": "Cumberland (CR)", "Scale_Minimum": 120000, "Source_Date": "20040930", "Source_Indication": "US,U3,USACE,LRN_GIS", "Source_Dataset": "U37CR221.000", "Feature_ID": "U3 1392980093 00001"}}, {"type": "Feature", "id": 1079, "geometry": {"type": "Point", "coordinates": [-86.08823299999995, 36.273320700000056]}, "properties": {"OBJECTID": 1079, "Category_of_Distance_Mark": "Distance Mark Not Physically Installed", "Horizontal_Units": "Statute Miles", "Waterway_Distance": 291, "Information": "Cumberland (CR)", "Scale_Minimum": 120000, "Source_Date": "20040930", "Source_Indication": "US,U3,USACE,LRN_GIS", "Source_Dataset": "U37CR221.000", "Feature_ID": "U3 1392980095 00001"}}, {"type": "Feature", "id": 1080, "geometry": {"type": "Point", "coordinates": [-86.06272769999998, 36.27048720000005]}, "properties": {"OBJECTID": 1080, "Category_of_Distance_Mark": "Distance Mark Not Physically Installed", "Horizontal_Units": "Statute Miles", "Waterway_Distance": 293, "Information": "Cumberland (CR)", "Scale_Minimum": 120000, "Source_Date": "20040930", "Source_Indication": "US,U3,USACE,LRN_GIS", "Source_Dataset": "U37CR221.000", "Feature_ID": "U3 1392980099 00001"}}, {"type": "Feature", "id": 1081, "geometry": {"type": "Point", "coordinates": [-86.17683049999994, 36.326378100000056]}, "properties": {"OBJECTID": 1081, "Category_of_Distance_Mark": "Distance Mark Not Physically Installed", "Horizontal_Units": "Statute Miles", "Waterway_Distance": 275, "Information": "Cumberland (CR)", "Scale_Minimum": 120000, "Source_Date": "20040930", "Source_Indication": "US,U3,USACE,LRN_GIS", "Source_Dataset": "U37CR221.000", "Feature_ID": "U3 1392980102 00001"}}, {"type": "Feature", "id": 1082, "geometry": {"type": "Point", "coordinates": [-86.18374459999995, 36.36787670000007]}, "properties": {"OBJECTID": 1082, "Category_of_Distance_Mark": "Distance Mark Not Physically Installed", "Horizontal_Units": "Statute Miles", "Waterway_Distance": 278, "Information": "Cumberland (CR)", "Scale_Minimum": 120000, "Source_Date": "20040930", "Source_Indication": "US,U3,USACE,LRN_GIS", "Source_Dataset": "U37CR221.000", "Feature_ID": "U3 1392980103 00001"}}, {"type": "Feature", "id": 1083, "geometry": {"type": "Point", "coordinates": [-86.17949069999997, 36.339739500000064]}, "properties": {"OBJECTID": 1083, "Category_of_Distance_Mark": "Distance Mark Not Physically Installed", "Horizontal_Units": "Statute Miles", "Waterway_Distance": 276, "Information": "Cumberland (CR)", "Scale_Minimum": 120000, "Source_Date": "20040930", "Source_Indication": "US,U3,USACE,LRN_GIS", "Source_Dataset": "U37CR221.000", "Feature_ID": "U3 1392980104 00001"}}, {"type": "Feature", "id": 1084, "geometry": {"type": "Point", "coordinates": [-86.19255849999996, 36.32225530000005]}, "properties": {"OBJECTID": 1084, "Category_of_Distance_Mark": "Distance Mark Not Physically Installed", "Horizontal_Units": "Statute Miles", "Waterway_Distance": 274, "Information": "Cumberland (CR)", "Scale_Minimum": 120000, "Source_Date": "20040930", "Source_Indication": "US,U3,USACE,LRN_GIS", "Source_Dataset": "U37CR221.000", "Feature_ID": "U3 1392980105 00001"}}, {"type": "Feature", "id": 1085, "geometry": {"type": "Point", "coordinates": [-86.15303859999995, 36.34877190000003]}, "properties": {"OBJECTID": 1085, "Category_of_Distance_Mark": "Distance Mark Not Physically Installed", "Horizontal_Units": "Statute Miles", "Waterway_Distance": 281, "Information": "Cumberland (CR)", "Scale_Minimum": 120000, "Source_Date": "20040930", "Source_Indication": "US,U3,USACE,LRN_GIS", "Source_Dataset": "U37CR221.000", "Feature_ID": "U3 1392980106 00001"}}, {"type": "Feature", "id": 1086, "geometry": {"type": "Point", "coordinates": [-86.08402649999994, 36.30905190000004]}, "properties": {"OBJECTID": 1086, "Category_of_Distance_Mark": "Distance Mark Not Physically Installed", "Horizontal_Units": "Statute Miles", "Waterway_Distance": 288, "Information": "Cumberland (CR)", "Scale_Minimum": 120000, "Source_Date": "20040930", "Source_Indication": "US,U3,USACE,LRN_GIS", "Source_Dataset": "U37CR221.000", "Feature_ID": "U3 1392980107 00001"}}, {"type": "Feature", "id": 1087, "geometry": {"type": "Point", "coordinates": [-86.16952859999998, 36.37202750000006]}, "properties": {"OBJECTID": 1087, "Category_of_Distance_Mark": "Distance Mark Not Physically Installed", "Horizontal_Units": "Statute Miles", "Waterway_Distance": 279, "Information": "Cumberland (CR)", "Scale_Minimum": 120000, "Source_Date": "20040930", "Source_Indication": "US,U3,USACE,LRN_GIS", "Source_Dataset": "U37CR221.000", "Feature_ID": "U3 1392980108 00001"}}, {"type": "Feature", "id": 1088, "geometry": {"type": "Point", "coordinates": [-86.10062779999998, 36.34218150000004]}, "properties": {"OBJECTID": 1088, "Category_of_Distance_Mark": "Distance Mark Not Physically Installed", "Horizontal_Units": "Statute Miles", "Waterway_Distance": 284, "Information": "Cumberland (CR)", "Scale_Minimum": 120000, "Source_Date": "20040930", "Source_Indication": "US,U3,USACE,LRN_GIS", "Source_Dataset": "U37CR221.000", "Feature_ID": "U3 1392980109 00001"}}, {"type": "Feature", "id": 1089, "geometry": {"type": "Point", "coordinates": [-86.06810939999997, 36.33550520000006]}, "properties": {"OBJECTID": 1089, "Category_of_Distance_Mark": "Distance Mark Not Physically Installed", "Horizontal_Units": "Statute Miles", "Waterway_Distance": 286, "Information": "Cumberland (CR)", "Scale_Minimum": 120000, "Source_Date": "20040930", "Source_Indication": "US,U3,USACE,LRN_GIS", "Source_Dataset": "U37CR221.000", "Feature_ID": "U3 1392980112 00001"}}, {"type": "Feature", "id": 1090, "geometry": {"type": "Point", "coordinates": [-86.13518369999997, 36.34894330000003]}, "properties": {"OBJECTID": 1090, "Category_of_Distance_Mark": "Distance Mark Not Physically Installed", "Horizontal_Units": "Statute Miles", "Waterway_Distance": 282, "Information": "Cumberland (CR)", "Scale_Minimum": 120000, "Source_Date": "20040930", "Source_Indication": "US,U3,USACE,LRN_GIS", "Source_Dataset": "U37CR221.000", "Feature_ID": "U3 1392980113 00001"}}, {"type": "Feature", "id": 1091, "geometry": {"type": "Point", "coordinates": [-86.09508449999998, 36.28620500000005]}, "properties": {"OBJECTID": 1091, "Category_of_Distance_Mark": "Distance Mark Not Physically Installed", "Horizontal_Units": "Statute Miles", "Waterway_Distance": 290, "Information": "Cumberland (CR)", "Scale_Minimum": 120000, "Source_Date": "20040930", "Source_Indication": "US,U3,USACE,LRN_GIS", "Source_Dataset": "U37CR221.000", "Feature_ID": "U3 1392980114 00001"}}, {"type": "Feature", "id": 1092, "geometry": {"type": "Point", "coordinates": [-86.16196249999996, 36.35934200000003]}, "properties": {"OBJECTID": 1092, "Category_of_Distance_Mark": "Distance Mark Not Physically Installed", "Horizontal_Units": "Statute Miles", "Waterway_Distance": 280, "Information": "Cumberland (CR)", "Scale_Minimum": 120000, "Source_Date": "20040930", "Source_Indication": "US,U3,USACE,LRN_GIS", "Source_Dataset": "U37CR221.000", "Feature_ID": "U3 1392980115 00001"}}, {"type": "Feature", "id": 1093, "geometry": {"type": "Point", "coordinates": [-86.09430119999996, 36.29934540000005]}, "properties": {"OBJECTID": 1093, "Category_of_Distance_Mark": "Distance Mark Not Physically Installed", "Horizontal_Units": "Statute Miles", "Waterway_Distance": 289, "Information": "Cumberland (CR)", "Scale_Minimum": 120000, "Source_Date": "20040930", "Source_Indication": "US,U3,USACE,LRN_GIS", "Source_Dataset": "U37CR221.000", "Feature_ID": "U3 1392980116 00001"}}, {"type": "Feature", "id": 1094, "geometry": {"type": "Point", "coordinates": [-86.18353799999994, 36.35451090000004]}, "properties": {"OBJECTID": 1094, "Category_of_Distance_Mark": "Distance Mark Not Physically Installed", "Horizontal_Units": "Statute Miles", "Waterway_Distance": 277, "Information": "Cumberland (CR)", "Scale_Minimum": 120000, "Source_Date": "20040930", "Source_Indication": "US,U3,USACE,LRN_GIS", "Source_Dataset": "U37CR221.000", "Feature_ID": "U3 1392980117 00001"}}, {"type": "Feature", "id": 1095, "geometry": {"type": "Point", "coordinates": [-86.08152129999996, 36.34176140000005]}, "properties": {"OBJECTID": 1095, "Category_of_Distance_Mark": "Distance Mark Not Physically Installed", "Horizontal_Units": "Statute Miles", "Waterway_Distance": 285, "Information": "Cumberland (CR)", "Scale_Minimum": 120000, "Source_Date": "20040930", "Source_Indication": "US,U3,USACE,LRN_GIS", "Source_Dataset": "U37CR221.000", "Feature_ID": "U3 1392980118 00001"}}, {"type": "Feature", "id": 1096, "geometry": {"type": "Point", "coordinates": [-86.07272999999998, 36.32077920000006]}, "properties": {"OBJECTID": 1096, "Category_of_Distance_Mark": "Distance Mark Not Physically Installed", "Horizontal_Units": "Statute Miles", "Waterway_Distance": 287, "Information": "Cumberland (CR)", "Scale_Minimum": 120000, "Source_Date": "20040930", "Source_Indication": "US,U3,USACE,LRN_GIS", "Source_Dataset": "U37CR221.000", "Feature_ID": "U3 1392980119 00001"}}, {"type": "Feature", "id": 1097, "geometry": {"type": "Point", "coordinates": [-86.11717579999998, 36.34588310000004]}, "properties": {"OBJECTID": 1097, "Category_of_Distance_Mark": "Distance Mark Not Physically Installed", "Horizontal_Units": "Statute Miles", "Waterway_Distance": 283, "Information": "Cumberland (CR)", "Scale_Minimum": 120000, "Source_Date": "20040930", "Source_Indication": "US,U3,USACE,LRN_GIS", "Source_Dataset": "U37CR221.000", "Feature_ID": "U3 1392980120 00001"}}, {"type": "Feature", "id": 1098, "geometry": {"type": "Point", "coordinates": [-86.56334629999998, 36.27131920000005]}, "properties": {"OBJECTID": 1098, "Category_of_Distance_Mark": "Distance Mark Not Physically Installed", "Horizontal_Units": "Statute Miles", "Waterway_Distance": 225, "Information": "Cumberland (CR)", "Scale_Minimum": 120000, "Source_Date": "20040930", "Source_Indication": "US,U3,USACE,LRN_GIS", "Source_Dataset": "U37CR221.000", "Feature_ID": "U3 1392980121 00001"}}, {"type": "Feature", "id": 1099, "geometry": {"type": "Point", "coordinates": [-86.57120819999994, 36.25992820000005]}, "properties": {"OBJECTID": 1099, "Category_of_Distance_Mark": "Distance Mark Not Physically Installed", "Horizontal_Units": "Statute Miles", "Waterway_Distance": 224, "Information": "Cumberland (CR)", "Scale_Minimum": 120000, "Source_Date": "20040930", "Source_Indication": "US,U3,USACE,LRN_GIS", "Source_Dataset": "U37CR221.000", "Feature_ID": "U3 1392980122 00001"}}, {"type": "Feature", "id": 1100, "geometry": {"type": "Point", "coordinates": [-86.55933139999996, 36.28526400000004]}, "properties": {"OBJECTID": 1100, "Category_of_Distance_Mark": "Distance Mark Not Physically Installed", "Horizontal_Units": "Statute Miles", "Waterway_Distance": 226, "Information": "Cumberland (CR)", "Scale_Minimum": 120000, "Source_Date": "20040930", "Source_Indication": "US,U3,USACE,LRN_GIS", "Source_Dataset": "U37CR221.000", "Feature_ID": "U3 1392980123 00001"}}, {"type": "Feature", "id": 1101, "geometry": {"type": "Point", "coordinates": [-86.60109929999999, 36.24453440000008]}, "properties": {"OBJECTID": 1101, "Category_of_Distance_Mark": "Distance Mark Not Physically Installed", "Horizontal_Units": "Statute Miles", "Waterway_Distance": 222, "Information": "Cumberland (CR)", "Scale_Minimum": 120000, "Source_Date": "20040930", "Source_Indication": "US,U3,USACE,LRN_GIS", "Source_Dataset": "U37CR221.000", "Feature_ID": "U3 1392980124 00001"}}, {"type": "Feature", "id": 1102, "geometry": {"type": "Point", "coordinates": [-86.56415319999996, 36.299902400000065]}, "properties": {"OBJECTID": 1102, "Category_of_Distance_Mark": "Distance Mark Not Physically Installed", "Horizontal_Units": "Statute Miles", "Waterway_Distance": 227, "Information": "Cumberland (CR)", "Scale_Minimum": 120000, "Source_Date": "20040930", "Source_Indication": "US,U3,USACE,LRN_GIS", "Source_Dataset": "U37CR221.000", "Feature_ID": "U3 1392980125 00001"}}, {"type": "Feature", "id": 1103, "geometry": {"type": "Point", "coordinates": [-86.54008179999994, 36.309956800000066]}, "properties": {"OBJECTID": 1103, "Category_of_Distance_Mark": "Distance Mark Not Physically Installed", "Horizontal_Units": "Statute Miles", "Waterway_Distance": 230, "Information": "Cumberland (CR)", "Scale_Minimum": 120000, "Source_Date": "20040930", "Source_Indication": "US,U3,USACE,LRN_GIS", "Source_Dataset": "U37CR221.000", "Feature_ID": "U3 1392980126 00001"}}, {"type": "Feature", "id": 1104, "geometry": {"type": "Point", "coordinates": [-86.22369209999994, 36.37141230000003]}, "properties": {"OBJECTID": 1104, "Category_of_Distance_Mark": "Distance Mark Not Physically Installed", "Horizontal_Units": "Statute Miles", "Waterway_Distance": 269, "Information": "Cumberland (CR)", "Scale_Minimum": 120000, "Source_Date": "20040930", "Source_Indication": "US,U3,USACE,LRN_GIS", "Source_Dataset": "U37CR221.000", "Feature_ID": "U3 1392980127 00001"}}, {"type": "Feature", "id": 1105, "geometry": {"type": "Point", "coordinates": [-86.53968119999996, 36.295494500000075]}, "properties": {"OBJECTID": 1105, "Category_of_Distance_Mark": "Distance Mark Not Physically Installed", "Horizontal_Units": "Statute Miles", "Waterway_Distance": 231, "Information": "Cumberland (CR)", "Scale_Minimum": 120000, "Source_Date": "20040930", "Source_Indication": "US,U3,USACE,LRN_GIS", "Source_Dataset": "U37CR221.000", "Feature_ID": "U3 1392980128 00001"}}, {"type": "Feature", "id": 1106, "geometry": {"type": "Point", "coordinates": [-86.53176459999997, 36.283073100000024]}, "properties": {"OBJECTID": 1106, "Category_of_Distance_Mark": "Distance Mark Not Physically Installed", "Horizontal_Units": "Statute Miles", "Waterway_Distance": 232, "Information": "Cumberland (CR)", "Scale_Minimum": 120000, "Source_Date": "20040930", "Source_Indication": "US,U3,USACE,LRN_GIS", "Source_Dataset": "U37CR221.000", "Feature_ID": "U3 1392980129 00001"}}, {"type": "Feature", "id": 1107, "geometry": {"type": "Point", "coordinates": [-86.61735209999995, 36.24635930000005]}, "properties": {"OBJECTID": 1107, "Category_of_Distance_Mark": "Distance Mark Not Physically Installed", "Horizontal_Units": "Statute Miles", "Waterway_Distance": 221, "Information": "Cumberland (CR)", "Scale_Minimum": 120000, "Source_Date": "20040930", "Source_Indication": "US,U3,USACE,LRN_GIS", "Source_Dataset": "U37CR221.000", "Feature_ID": "U3 1392980130 00001"}}, {"type": "Feature", "id": 1108, "geometry": {"type": "Point", "coordinates": [-86.58436449999994, 36.24859350000003]}, "properties": {"OBJECTID": 1108, "Category_of_Distance_Mark": "Distance Mark Not Physically Installed", "Horizontal_Units": "Statute Miles", "Waterway_Distance": 223, "Information": "Cumberland (CR)", "Scale_Minimum": 120000, "Source_Date": "20040930", "Source_Indication": "US,U3,USACE,LRN_GIS", "Source_Dataset": "U37CR221.000", "Feature_ID": "U3 1392980131 00001"}}, {"type": "Feature", "id": 1109, "geometry": {"type": "Point", "coordinates": [-86.20437469999996, 36.33274450000005]}, "properties": {"OBJECTID": 1109, "Category_of_Distance_Mark": "Distance Mark Not Physically Installed", "Horizontal_Units": "Statute Miles", "Waterway_Distance": 273, "Information": "Cumberland (CR)", "Scale_Minimum": 120000, "Source_Date": "20040930", "Source_Indication": "US,U3,USACE,LRN_GIS", "Source_Dataset": "U37CR221.000", "Feature_ID": "U3 1392980132 00001"}}, {"type": "Feature", "id": 1110, "geometry": {"type": "Point", "coordinates": [-86.20619709999994, 36.345249900000056]}, "properties": {"OBJECTID": 1110, "Category_of_Distance_Mark": "Distance Mark Not Physically Installed", "Horizontal_Units": "Statute Miles", "Waterway_Distance": 272, "Information": "Cumberland (CR)", "Scale_Minimum": 120000, "Source_Date": "20040930", "Source_Indication": "US,U3,USACE,LRN_GIS", "Source_Dataset": "U37CR221.000", "Feature_ID": "U3 1392980133 00001"}}, {"type": "Feature", "id": 1111, "geometry": {"type": "Point", "coordinates": [-86.55943189999994, 36.312449800000024]}, "properties": {"OBJECTID": 1111, "Category_of_Distance_Mark": "Distance Mark Not Physically Installed", "Horizontal_Units": "Statute Miles", "Waterway_Distance": 228, "Information": "Cumberland (CR)", "Scale_Minimum": 120000, "Source_Date": "20040930", "Source_Indication": "US,U3,USACE,LRN_GIS", "Source_Dataset": "U37CR221.000", "Feature_ID": "U3 1392980134 00001"}}, {"type": "Feature", "id": 1112, "geometry": {"type": "Point", "coordinates": [-86.54743679999996, 36.32097740000006]}, "properties": {"OBJECTID": 1112, "Category_of_Distance_Mark": "Distance Mark Not Physically Installed", "Horizontal_Units": "Statute Miles", "Waterway_Distance": 229, "Information": "Cumberland (CR)", "Scale_Minimum": 120000, "Source_Date": "20040930", "Source_Indication": "US,U3,USACE,LRN_GIS", "Source_Dataset": "U37CR221.000", "Feature_ID": "U3 1392980135 00001"}}, {"type": "Feature", "id": 1113, "geometry": {"type": "Point", "coordinates": [-86.20800399999996, 36.36003890000006]}, "properties": {"OBJECTID": 1113, "Category_of_Distance_Mark": "Distance Mark Not Physically Installed", "Horizontal_Units": "Statute Miles", "Waterway_Distance": 271, "Information": "Cumberland (CR)", "Scale_Minimum": 120000, "Source_Date": "20040930", "Source_Indication": "US,U3,USACE,LRN_GIS", "Source_Dataset": "U37CR221.000", "Feature_ID": "U3 1392980137 00001"}}, {"type": "Feature", "id": 1114, "geometry": {"type": "Point", "coordinates": [-86.21003169999994, 36.374227000000076]}, "properties": {"OBJECTID": 1114, "Category_of_Distance_Mark": "Distance Mark Not Physically Installed", "Horizontal_Units": "Statute Miles", "Waterway_Distance": 270, "Information": "Cumberland (CR)", "Scale_Minimum": 120000, "Source_Date": "20040930", "Source_Indication": "US,U3,USACE,LRN_GIS", "Source_Dataset": "U37CR221.000", "Feature_ID": "U3 1392980138 00001"}}, {"type": "Feature", "id": 1115, "geometry": {"type": "Point", "coordinates": [-86.37451999999996, 36.35317630000003]}, "properties": {"OBJECTID": 1115, "Category_of_Distance_Mark": "Distance Mark Not Physically Installed", "Horizontal_Units": "Statute Miles", "Waterway_Distance": 247, "Information": "Cumberland (CR)", "Scale_Minimum": 120000, "Source_Date": "20040930", "Source_Indication": "US,U3,USACE,LRN_GIS", "Source_Dataset": "U37CR221.000", "Feature_ID": "U3 1392980140 00001"}}, {"type": "Feature", "id": 1116, "geometry": {"type": "Point", "coordinates": [-86.48955879999994, 36.312861000000055]}, "properties": {"OBJECTID": 1116, "Category_of_Distance_Mark": "Distance Mark Not Physically Installed", "Horizontal_Units": "Statute Miles", "Waterway_Distance": 236, "Information": "Cumberland (CR)", "Scale_Minimum": 120000, "Source_Date": "20040930", "Source_Indication": "US,U3,USACE,LRN_GIS", "Source_Dataset": "U37CR221.000", "Feature_ID": "U3 1392980141 00001"}}, {"type": "Feature", "id": 1117, "geometry": {"type": "Point", "coordinates": [-86.50413919999994, 36.30621690000004]}, "properties": {"OBJECTID": 1117, "Category_of_Distance_Mark": "Distance Mark Not Physically Installed", "Horizontal_Units": "Statute Miles", "Waterway_Distance": 235, "Information": "Cumberland (CR)", "Scale_Minimum": 120000, "Source_Date": "20040930", "Source_Indication": "US,U3,USACE,LRN_GIS", "Source_Dataset": "U37CR221.000", "Feature_ID": "U3 1392980142 00001"}}, {"type": "Feature", "id": 1118, "geometry": {"type": "Point", "coordinates": [-86.47412139999994, 36.32184300000006]}, "properties": {"OBJECTID": 1118, "Category_of_Distance_Mark": "Distance Mark Not Physically Installed", "Horizontal_Units": "Statute Miles", "Waterway_Distance": 237, "Information": "Cumberland (CR)", "Scale_Minimum": 120000, "Source_Date": "20040930", "Source_Indication": "US,U3,USACE,LRN_GIS", "Source_Dataset": "U37CR221.000", "Feature_ID": "U3 1392980143 00001"}}, {"type": "Feature", "id": 1119, "geometry": {"type": "Point", "coordinates": [-86.46079529999997, 36.33131010000005]}, "properties": {"OBJECTID": 1119, "Category_of_Distance_Mark": "Distance Mark Not Physically Installed", "Horizontal_Units": "Statute Miles", "Waterway_Distance": 238, "Information": "Cumberland (CR)", "Scale_Minimum": 120000, "Source_Date": "20040930", "Source_Indication": "US,U3,USACE,LRN_GIS", "Source_Dataset": "U37CR221.000", "Feature_ID": "U3 1392980144 00001"}}, {"type": "Feature", "id": 1120, "geometry": {"type": "Point", "coordinates": [-86.44448099999994, 36.33768320000007]}, "properties": {"OBJECTID": 1120, "Category_of_Distance_Mark": "Distance Mark Not Physically Installed", "Horizontal_Units": "Statute Miles", "Waterway_Distance": 239, "Information": "Cumberland (CR)", "Scale_Minimum": 120000, "Source_Date": "20040930", "Source_Indication": "US,U3,USACE,LRN_GIS", "Source_Dataset": "U37CR221.000", "Feature_ID": "U3 1392980145 00001"}}, {"type": "Feature", "id": 1121, "geometry": {"type": "Point", "coordinates": [-86.38937629999998, 36.31386070000008]}, "properties": {"OBJECTID": 1121, "Category_of_Distance_Mark": "Distance Mark Not Physically Installed", "Horizontal_Units": "Statute Miles", "Waterway_Distance": 244, "Information": "Cumberland (CR)", "Scale_Minimum": 120000, "Source_Date": "20040930", "Source_Indication": "US,U3,USACE,LRN_GIS", "Source_Dataset": "U37CR221.000", "Feature_ID": "U3 1392980146 00001"}}, {"type": "Feature", "id": 1122, "geometry": {"type": "Point", "coordinates": [-86.51890619999995, 36.28133850000006]}, "properties": {"OBJECTID": 1122, "Category_of_Distance_Mark": "Distance Mark Not Physically Installed", "Horizontal_Units": "Statute Miles", "Waterway_Distance": 233, "Information": "Cumberland (CR)", "Scale_Minimum": 120000, "Source_Date": "20040930", "Source_Indication": "US,U3,USACE,LRN_GIS", "Source_Dataset": "U37CR221.000", "Feature_ID": "U3 1392980147 00001"}}, {"type": "Feature", "id": 1123, "geometry": {"type": "Point", "coordinates": [-86.41387969999994, 36.31232180000006]}, "properties": {"OBJECTID": 1123, "Category_of_Distance_Mark": "Distance Mark Not Physically Installed", "Horizontal_Units": "Statute Miles", "Waterway_Distance": 242, "Information": "Cumberland (CR)", "Scale_Minimum": 120000, "Source_Date": "20040930", "Source_Indication": "US,U3,USACE,LRN_GIS", "Source_Dataset": "U37CR221.000", "Feature_ID": "U3 1392980148 00001"}}, {"type": "Feature", "id": 1124, "geometry": {"type": "Point", "coordinates": [-86.38909649999994, 36.33136760000008]}, "properties": {"OBJECTID": 1124, "Category_of_Distance_Mark": "Distance Mark Not Physically Installed", "Horizontal_Units": "Statute Miles", "Waterway_Distance": 245, "Information": "Cumberland (CR)", "Scale_Minimum": 120000, "Source_Date": "20040930", "Source_Indication": "US,U3,USACE,LRN_GIS", "Source_Dataset": "U37CR221.000", "Feature_ID": "U3 1392980149 00001"}}, {"type": "Feature", "id": 1125, "geometry": {"type": "Point", "coordinates": [-86.42753409999995, 36.33778920000003]}, "properties": {"OBJECTID": 1125, "Category_of_Distance_Mark": "Distance Mark Not Physically Installed", "Horizontal_Units": "Statute Miles", "Waterway_Distance": 240, "Information": "Cumberland (CR)", "Scale_Minimum": 120000, "Source_Date": "20040930", "Source_Indication": "US,U3,USACE,LRN_GIS", "Source_Dataset": "U37CR221.000", "Feature_ID": "U3 1392980150 00001"}}, {"type": "Feature", "id": 1126, "geometry": {"type": "Point", "coordinates": [-86.34740329999994, 36.34570780000007]}, "properties": {"OBJECTID": 1126, "Category_of_Distance_Mark": "Distance Mark Not Physically Installed", "Horizontal_Units": "Statute Miles", "Waterway_Distance": 249, "Information": "Cumberland (CR)", "Scale_Minimum": 120000, "Source_Date": "20040930", "Source_Indication": "US,U3,USACE,LRN_GIS", "Source_Dataset": "U37CR221.000", "Feature_ID": "U3 1392980151 00001"}}, {"type": "Feature", "id": 1127, "geometry": {"type": "Point", "coordinates": [-86.38368069999996, 36.34154010000003]}, "properties": {"OBJECTID": 1127, "Category_of_Distance_Mark": "Distance Mark Not Physically Installed", "Horizontal_Units": "Statute Miles", "Waterway_Distance": 246, "Information": "Cumberland (CR)", "Scale_Minimum": 120000, "Source_Date": "20040930", "Source_Indication": "US,U3,USACE,LRN_GIS", "Source_Dataset": "U37CR221.000", "Feature_ID": "U3 1392980152 00001"}}, {"type": "Feature", "id": 1128, "geometry": {"type": "Point", "coordinates": [-86.34569959999999, 36.33144160000006]}, "properties": {"OBJECTID": 1128, "Category_of_Distance_Mark": "Distance Mark Not Physically Installed", "Horizontal_Units": "Statute Miles", "Waterway_Distance": 250, "Information": "Cumberland (CR)", "Scale_Minimum": 120000, "Source_Date": "20040930", "Source_Indication": "US,U3,USACE,LRN_GIS", "Source_Dataset": "U37CR221.000", "Feature_ID": "U3 1392980153 00001"}}, {"type": "Feature", "id": 1129, "geometry": {"type": "Point", "coordinates": [-86.41710159999997, 36.327937500000075]}, "properties": {"OBJECTID": 1129, "Category_of_Distance_Mark": "Distance Mark Not Physically Installed", "Horizontal_Units": "Statute Miles", "Waterway_Distance": 241, "Information": "Cumberland (CR)", "Scale_Minimum": 120000, "Source_Date": "20040930", "Source_Indication": "US,U3,USACE,LRN_GIS", "Source_Dataset": "U37CR221.000", "Feature_ID": "U3 1392980154 00001"}}, {"type": "Feature", "id": 1130, "geometry": {"type": "Point", "coordinates": [-86.51398199999994, 36.294767800000045]}, "properties": {"OBJECTID": 1130, "Category_of_Distance_Mark": "Distance Mark Not Physically Installed", "Horizontal_Units": "Statute Miles", "Waterway_Distance": 234, "Information": "Cumberland (CR)", "Scale_Minimum": 120000, "Source_Date": "20040930", "Source_Indication": "US,U3,USACE,LRN_GIS", "Source_Dataset": "U37CR221.000", "Feature_ID": "U3 1392980155 00001"}}, {"type": "Feature", "id": 1131, "geometry": {"type": "Point", "coordinates": [-86.40061579999997, 36.30596730000008]}, "properties": {"OBJECTID": 1131, "Category_of_Distance_Mark": "Distance Mark Not Physically Installed", "Horizontal_Units": "Statute Miles", "Waterway_Distance": 243, "Information": "Cumberland (CR)", "Scale_Minimum": 120000, "Source_Date": "20040930", "Source_Indication": "US,U3,USACE,LRN_GIS", "Source_Dataset": "U37CR221.000", "Feature_ID": "U3 1392980156 00001"}}, {"type": "Feature", "id": 1132, "geometry": {"type": "Point", "coordinates": [-86.35879759999995, 36.35583740000004]}, "properties": {"OBJECTID": 1132, "Category_of_Distance_Mark": "Distance Mark Not Physically Installed", "Horizontal_Units": "Statute Miles", "Waterway_Distance": 248, "Information": "Cumberland (CR)", "Scale_Minimum": 120000, "Source_Date": "20040930", "Source_Indication": "US,U3,USACE,LRN_GIS", "Source_Dataset": "U37CR221.000", "Feature_ID": "U3 1392980157 00001"}}, {"type": "Feature", "id": 1133, "geometry": {"type": "Point", "coordinates": [-86.35886119999998, 36.30898440000004]}, "properties": {"OBJECTID": 1133, "Category_of_Distance_Mark": "Distance Mark Not Physically Installed", "Horizontal_Units": "Statute Miles", "Waterway_Distance": 252, "Information": "Cumberland (CR)", "Scale_Minimum": 120000, "Source_Date": "20040930", "Source_Indication": "US,U3,USACE,LRN_GIS", "Source_Dataset": "U37CR221.000", "Feature_ID": "U3 1392980158 00001"}}, {"type": "Feature", "id": 1134, "geometry": {"type": "Point", "coordinates": [-86.32690829999996, 36.31887820000003]}, "properties": {"OBJECTID": 1134, "Category_of_Distance_Mark": "Distance Mark Not Physically Installed", "Horizontal_Units": "Statute Miles", "Waterway_Distance": 254, "Information": "Cumberland (CR)", "Scale_Minimum": 120000, "Source_Date": "20040930", "Source_Indication": "US,U3,USACE,LRN_GIS", "Source_Dataset": "U37CR221.000", "Feature_ID": "U3 1392980159 00001"}}, {"type": "Feature", "id": 1135, "geometry": {"type": "Point", "coordinates": [-86.24842059999997, 36.308581100000026]}, "properties": {"OBJECTID": 1135, "Category_of_Distance_Mark": "Distance Mark Not Physically Installed", "Horizontal_Units": "Statute Miles", "Waterway_Distance": 264, "Information": "Cumberland (CR)", "Scale_Minimum": 120000, "Source_Date": "20040930", "Source_Indication": "US,U3,USACE,LRN_GIS", "Source_Dataset": "U37CR221.000", "Feature_ID": "U3 1392980160 00001"}}, {"type": "Feature", "id": 1136, "geometry": {"type": "Point", "coordinates": [-86.24464999999998, 36.33628600000003]}, "properties": {"OBJECTID": 1136, "Category_of_Distance_Mark": "Distance Mark Not Physically Installed", "Horizontal_Units": "Statute Miles", "Waterway_Distance": 266, "Information": "Cumberland (CR)", "Scale_Minimum": 120000, "Source_Date": "20040930", "Source_Indication": "US,U3,USACE,LRN_GIS", "Source_Dataset": "U37CR221.000", "Feature_ID": "U3 1392980161 00001"}}, {"type": "Feature", "id": 1137, "geometry": {"type": "Point", "coordinates": [-86.27494919999998, 36.34861710000007]}, "properties": {"OBJECTID": 1137, "Category_of_Distance_Mark": "Distance Mark Not Physically Installed", "Horizontal_Units": "Statute Miles", "Waterway_Distance": 259, "Information": "Cumberland (CR)", "Scale_Minimum": 120000, "Source_Date": "20040930", "Source_Indication": "US,U3,USACE,LRN_GIS", "Source_Dataset": "U37CR221.000", "Feature_ID": "U3 1392980162 00001"}}, {"type": "Feature", "id": 1138, "geometry": {"type": "Point", "coordinates": [-86.22349259999999, 36.35732230000008]}, "properties": {"OBJECTID": 1138, "Category_of_Distance_Mark": "Distance Mark Not Physically Installed", "Horizontal_Units": "Statute Miles", "Waterway_Distance": 268, "Information": "Cumberland (CR)", "Scale_Minimum": 120000, "Source_Date": "20040930", "Source_Indication": "US,U3,USACE,LRN_GIS", "Source_Dataset": "U37CR221.000", "Feature_ID": "U3 1392980163 00001"}}, {"type": "Feature", "id": 1139, "geometry": {"type": "Point", "coordinates": [-86.31055289999995, 36.31398450000006]}, "properties": {"OBJECTID": 1139, "Category_of_Distance_Mark": "Distance Mark Not Physically Installed", "Horizontal_Units": "Statute Miles", "Waterway_Distance": 255, "Information": "Cumberland (CR)", "Scale_Minimum": 120000, "Source_Date": "20040930", "Source_Indication": "US,U3,USACE,LRN_GIS", "Source_Dataset": "U37CR221.000", "Feature_ID": "U3 1392980164 00001"}}, {"type": "Feature", "id": 1140, "geometry": {"type": "Point", "coordinates": [-86.29762949999997, 36.31770190000003]}, "properties": {"OBJECTID": 1140, "Category_of_Distance_Mark": "Distance Mark Not Physically Installed", "Horizontal_Units": "Statute Miles", "Waterway_Distance": 256, "Information": "Cumberland (CR)", "Scale_Minimum": 120000, "Source_Date": "20040930", "Source_Indication": "US,U3,USACE,LRN_GIS", "Source_Dataset": "U37CR221.000", "Feature_ID": "U3 1392980165 00001"}}, {"type": "Feature", "id": 1141, "geometry": {"type": "Point", "coordinates": [-86.23374199999995, 36.34570310000004]}, "properties": {"OBJECTID": 1141, "Category_of_Distance_Mark": "Distance Mark Not Physically Installed", "Horizontal_Units": "Statute Miles", "Waterway_Distance": 267, "Information": "Cumberland (CR)", "Scale_Minimum": 120000, "Source_Date": "20040930", "Source_Indication": "US,U3,USACE,LRN_GIS", "Source_Dataset": "U37CR221.000", "Feature_ID": "U3 1392980167 00001"}}, {"type": "Feature", "id": 1142, "geometry": {"type": "Point", "coordinates": [-86.24772309999997, 36.32272290000003]}, "properties": {"OBJECTID": 1142, "Category_of_Distance_Mark": "Distance Mark Not Physically Installed", "Horizontal_Units": "Statute Miles", "Waterway_Distance": 265, "Information": "Cumberland (CR)", "Scale_Minimum": 120000, "Source_Date": "20040930", "Source_Indication": "US,U3,USACE,LRN_GIS", "Source_Dataset": "U37CR221.000", "Feature_ID": "U3 1392980168 00001"}}, {"type": "Feature", "id": 1143, "geometry": {"type": "Point", "coordinates": [-86.29709589999999, 36.33287290000004]}, "properties": {"OBJECTID": 1143, "Category_of_Distance_Mark": "Distance Mark Not Physically Installed", "Horizontal_Units": "Statute Miles", "Waterway_Distance": 257, "Information": "Cumberland (CR)", "Scale_Minimum": 120000, "Source_Date": "20040930", "Source_Indication": "US,U3,USACE,LRN_GIS", "Source_Dataset": "U37CR221.000", "Feature_ID": "U3 1392980169 00001"}}, {"type": "Feature", "id": 1144, "geometry": {"type": "Point", "coordinates": [-86.26552569999996, 36.33634880000005]}, "properties": {"OBJECTID": 1144, "Category_of_Distance_Mark": "Distance Mark Not Physically Installed", "Horizontal_Units": "Statute Miles", "Waterway_Distance": 260, "Information": "Cumberland (CR)", "Scale_Minimum": 120000, "Source_Date": "20040930", "Source_Indication": "US,U3,USACE,LRN_GIS", "Source_Dataset": "U37CR221.000", "Feature_ID": "U3 1392980170 00001"}}, {"type": "Feature", "id": 1145, "geometry": {"type": "Point", "coordinates": [-86.34351609999999, 36.31519870000005]}, "properties": {"OBJECTID": 1145, "Category_of_Distance_Mark": "Distance Mark Not Physically Installed", "Horizontal_Units": "Statute Miles", "Waterway_Distance": 253, "Information": "Cumberland (CR)", "Scale_Minimum": 120000, "Source_Date": "20040930", "Source_Indication": "US,U3,USACE,LRN_GIS", "Source_Dataset": "U37CR221.000", "Feature_ID": "U3 1392980171 00001"}}, {"type": "Feature", "id": 1146, "geometry": {"type": "Point", "coordinates": [-86.26811799999996, 36.32153550000004]}, "properties": {"OBJECTID": 1146, "Category_of_Distance_Mark": "Distance Mark Not Physically Installed", "Horizontal_Units": "Statute Miles", "Waterway_Distance": 261, "Information": "Cumberland (CR)", "Scale_Minimum": 120000, "Source_Date": "20040930", "Source_Indication": "US,U3,USACE,LRN_GIS", "Source_Dataset": "U37CR221.000", "Feature_ID": "U3 1392980172 00001"}}, {"type": "Feature", "id": 1147, "geometry": {"type": "Point", "coordinates": [-86.29000539999998, 36.34488740000006]}, "properties": {"OBJECTID": 1147, "Category_of_Distance_Mark": "Distance Mark Not Physically Installed", "Horizontal_Units": "Statute Miles", "Waterway_Distance": 258, "Information": "Cumberland (CR)", "Scale_Minimum": 120000, "Source_Date": "20040930", "Source_Indication": "US,U3,USACE,LRN_GIS", "Source_Dataset": "U37CR221.000", "Feature_ID": "U3 1392980173 00001"}}, {"type": "Feature", "id": 1148, "geometry": {"type": "Point", "coordinates": [-86.27219059999999, 36.308199900000034]}, "properties": {"OBJECTID": 1148, "Category_of_Distance_Mark": "Distance Mark Not Physically Installed", "Horizontal_Units": "Statute Miles", "Waterway_Distance": 262, "Information": "Cumberland (CR)", "Scale_Minimum": 120000, "Source_Date": "20040930", "Source_Indication": "US,U3,USACE,LRN_GIS", "Source_Dataset": "U37CR221.000", "Feature_ID": "U3 1392980174 00001"}}, {"type": "Feature", "id": 1149, "geometry": {"type": "Point", "coordinates": [-86.26140419999996, 36.29989630000006]}, "properties": {"OBJECTID": 1149, "Category_of_Distance_Mark": "Distance Mark Not Physically Installed", "Horizontal_Units": "Statute Miles", "Waterway_Distance": 263, "Information": "Cumberland (CR)", "Scale_Minimum": 120000, "Source_Date": "20040930", "Source_Indication": "US,U3,USACE,LRN_GIS", "Source_Dataset": "U37CR221.000", "Feature_ID": "U3 1392980175 00001"}}, {"type": "Feature", "id": 1150, "geometry": {"type": "Point", "coordinates": [-86.35603189999995, 36.32030530000003]}, "properties": {"OBJECTID": 1150, "Category_of_Distance_Mark": "Distance Mark Not Physically Installed", "Horizontal_Units": "Statute Miles", "Waterway_Distance": 251, "Information": "Cumberland (CR)", "Scale_Minimum": 120000, "Source_Date": "20040930", "Source_Indication": "US,U3,USACE,LRN_GIS", "Source_Dataset": "U37CR221.000", "Feature_ID": "U3 1392980176 00001"}}, {"type": "Feature", "id": 1161, "geometry": {"type": "Point", "coordinates": [-85.93823749999996, 36.28521880000005]}, "properties": {"OBJECTID": 1161, "Category_of_Distance_Mark": "Distance Mark Not Physically Installed", "Horizontal_Units": "Statute Miles", "Waterway_Distance": 313, "Information": "Cumberland (CR)", "Scale_Minimum": 120000, "Source_Date": "20040930", "Source_Indication": "US,U3,USACE,LRN_GIS", "Source_Dataset": "U37CR307.000", "Feature_ID": "U3 1392989273 00001"}}, {"type": "Feature", "id": 1167, "geometry": {"type": "Point", "coordinates": [-85.92894809999996, 36.24678880000005]}, "properties": {"OBJECTID": 1167, "Category_of_Distance_Mark": "Distance Mark Not Physically Installed", "Horizontal_Units": "Statute Miles", "Waterway_Distance": 310, "Information": "Cumberland (CR)", "Scale_Minimum": 120000, "Source_Date": "20040930", "Source_Indication": "US,U3,USACE,LRN_GIS", "Source_Dataset": "U37CR307.000", "Feature_ID": "U3 1392989287 00001"}}, {"type": "Feature", "id": 1168, "geometry": {"type": "Point", "coordinates": [-85.94418549999995, 36.24112620000005]}, "properties": {"OBJECTID": 1168, "Category_of_Distance_Mark": "Distance Mark Not Physically Installed", "Horizontal_Units": "Statute Miles", "Waterway_Distance": 309, "Information": "Cumberland (CR)", "Scale_Minimum": 120000, "Source_Date": "20040930", "Source_Indication": "US,U3,USACE,LRN_GIS", "Source_Dataset": "U37CR307.000", "Feature_ID": "U3 1392989294 00001"}}, {"type": "Feature", "id": 1184, "geometry": {"type": "Point", "coordinates": [-85.92090069999995, 36.30711540000004]}, "properties": {"OBJECTID": 1184, "Category_of_Distance_Mark": "Distance Mark Not Physically Installed", "Horizontal_Units": "Statute Miles", "Waterway_Distance": 316, "Information": "Cumberland (CR)", "Scale_Minimum": 120000, "Source_Date": "20040930", "Source_Indication": "US,U3,USACE,LRN_GIS", "Source_Dataset": "U37CR307.000", "Feature_ID": "U3 1392989351 00001"}}, {"type": "Feature", "id": 1185, "geometry": {"type": "Point", "coordinates": [-85.94890779999997, 36.29650010000006]}, "properties": {"OBJECTID": 1185, "Category_of_Distance_Mark": "Distance Mark Not Physically Installed", "Horizontal_Units": "Statute Miles", "Waterway_Distance": 314, "Information": "Cumberland (CR)", "Scale_Minimum": 120000, "Source_Date": "20040930", "Source_Indication": "US,U3,USACE,LRN_GIS", "Source_Dataset": "U37CR307.000", "Feature_ID": "U3 1392989356 00001"}}, {"type": "Feature", "id": 1192, "geometry": {"type": "Point", "coordinates": [-85.96185519999995, 36.264789300000075]}, "properties": {"OBJECTID": 1192, "Category_of_Distance_Mark": "Distance Mark Not Physically Installed", "Horizontal_Units": "Statute Miles", "Waterway_Distance": 307, "Information": "Cumberland (CR)", "Scale_Minimum": 120000, "Source_Date": "20040930", "Source_Indication": "US,U3,USACE,LRN_GIS", "Source_Dataset": "U37CR307.000", "Feature_ID": "U3 1392989377 00001"}}, {"type": "Feature", "id": 1197, "geometry": {"type": "Point", "coordinates": [-85.93744029999993, 36.305925100000024]}, "properties": {"OBJECTID": 1197, "Category_of_Distance_Mark": "Distance Mark Not Physically Installed", "Horizontal_Units": "Statute Miles", "Waterway_Distance": 315, "Information": "Cumberland (CR)", "Scale_Minimum": 120000, "Source_Date": "20040930", "Source_Indication": "US,U3,USACE,LRN_GIS", "Source_Dataset": "U37CR307.000", "Feature_ID": "U3 1392989408 00001"}}, {"type": "Feature", "id": 1202, "geometry": {"type": "Point", "coordinates": [-85.92422889999995, 36.26095150000003]}, "properties": {"OBJECTID": 1202, "Category_of_Distance_Mark": "Distance Mark Not Physically Installed", "Horizontal_Units": "Statute Miles", "Waterway_Distance": 311, "Information": "Cumberland (CR)", "Scale_Minimum": 120000, "Source_Date": "20040930", "Source_Indication": "US,U3,USACE,LRN_GIS", "Source_Dataset": "U37CR307.000", "Feature_ID": "U3 1392989432 00001"}}, {"type": "Feature", "id": 1204, "geometry": {"type": "Point", "coordinates": [-85.95586679999997, 36.24983130000004]}, "properties": {"OBJECTID": 1204, "Category_of_Distance_Mark": "Distance Mark Not Physically Installed", "Horizontal_Units": "Statute Miles", "Waterway_Distance": 308, "Information": "Cumberland (CR)", "Scale_Minimum": 120000, "Source_Date": "20040930", "Source_Indication": "US,U3,USACE,LRN_GIS", "Source_Dataset": "U37CR307.000", "Feature_ID": "U3 1392989440 00001"}}, {"type": "Feature", "id": 1205, "geometry": {"type": "Point", "coordinates": [-85.92510239999996, 36.27593440000004]}, "properties": {"OBJECTID": 1205, "Category_of_Distance_Mark": "Distance Mark Not Physically Installed", "Horizontal_Units": "Statute Miles", "Waterway_Distance": 312, "Information": "Cumberland (CR)", "Scale_Minimum": 120000, "Source_Date": "20040930", "Source_Indication": "US,U3,USACE,LRN_GIS", "Source_Dataset": "U37CR307.000", "Feature_ID": "U3 1392989446 00001"}}]}