{"type": "FeatureCollection", "features": [{"type": "Feature", "id": 26, "geometry": {"type": "Polygon", "coordinates": [[[-86.608545, 36.287034], [-86.608185, 36.286921], [-86.608008, 36.286759], [-86.607854, 36.286457], [-86.607828, 36.28631], [-86.60773, 36.286072], [-86.607708, 36.285908], [-86.607533, 36.285661], [-86.607423, 36.285413], [-86.607333, 36.285294], [-86.607239, 36.284805], [-86.607179, 36.284737], [-86.607094, 36.28473], [-86.606143, 36.284947], [-86.605692, 36.285159], [-86.605288, 36.285723], [-86.60537, 36.286315], [-86.605573, 36.286843], [-86.605996, 36.287189], [-86.606383, 36.287555], [-86.606916, 36.287788], [-86.60745, 36.287858], [-86.60779, 36.287788], [-86.608076, 36.287548], [-86.608545, 36.287034]]]}, "properties": {"OBJECTID": 26, "Category_of_Harbour_Facility": "Yacht Harbor/Marina", "Object_Name": "Creekwood Marina", "Information": "", "Scale_Minimum": 60000, "Source_Date": "20050412", "Source_Indication": "US,U3,USACE,LRN_GIS", "Source_Dataset": "U37CR221.000", "Feature_ID": "U3 1392981115 00001"}}, {"type": "Feature", "id": 27, "geometry": {"type": "Polygon", "coordinates": [[[-86.60824, 36.261702], [-86.60797, 36.261446], [-86.607919, 36.261269], [-86.607963, 36.261198], [-86.608193, 36.261009], [-86.608679, 36.26094], [-86.608669, 36.260713], [-86.608559, 36.260673], [-86.608574, 36.260626], [-86.608526, 36.260598], [-86.608484, 36.26061], [-86.60842, 36.260433], [-86.608423, 36.260311], [-86.608444, 36.260268], [-86.60872, 36.260099], [-86.609007, 36.259805], [-86.609049, 36.259655], [-86.609012, 36.259608], [-86.608403, 36.259936], [-86.608079, 36.26021], [-86.606314, 36.260799], [-86.606314, 36.261328], [-86.606493, 36.262178], [-86.606766, 36.262518], [-86.607243, 36.262387], [-86.608062, 36.261975], [-86.60824, 36.261702]]]}, "properties": {"OBJECTID": 27, "Category_of_Harbour_Facility": "Yacht Harbor/Marina", "Object_Name": "Drake's Creek Marina", "Information": "", "Scale_Minimum": 60000, "Source_Date": "20050412", "Source_Indication": "US,U3,USACE,LRN_GIS", "Source_Dataset": "U37CR221.000", "Feature_ID": "U3 1392981117 00001"}}, {"type": "Feature", "id": 28, "geometry": {"type": "Polygon", "coordinates": [[[-86.504727, 36.279594], [-86.504727, 36.279829], [-86.504645, 36.279972], [-86.504522, 36.280051], [-86.50381, 36.28031], [-86.503504, 36.280324], [-86.503166, 36.280387], [-86.502856, 36.280348], [-86.502528, 36.280385], [-86.502476, 36.280998], [-86.504091, 36.281439], [-86.504341, 36.281336], [-86.504724, 36.281275], [-86.504924, 36.281157], [-86.505001, 36.281077], [-86.505345, 36.280178], [-86.505421, 36.280066], [-86.505482, 36.280023], [-86.50555, 36.280026], [-86.505425, 36.279829], [-86.50514, 36.279659], [-86.50489, 36.279589], [-86.504727, 36.279594]]]}, "properties": {"OBJECTID": 28, "Category_of_Harbour_Facility": "Yacht Harbor/Marina", "Object_Name": "Cedar Creek Club", "Information": "", "Scale_Minimum": 60000, "Source_Date": "20050412", "Source_Indication": "US,U3,USACE,LRN_GIS", "Source_Dataset": "U37CR221.000", "Feature_ID": "U3 1392981228 00001"}}, {"type": "Feature", "id": 29, "geometry": {"type": "Polygon", "coordinates": [[[-86.511132, 36.274041], [-86.511102, 36.27393], [-86.511127, 36.273807], [-86.511269, 36.273536], [-86.511494, 36.273413], [-86.511653, 36.273429], [-86.51186, 36.273342], [-86.511672, 36.272858], [-86.511389, 36.272572], [-86.510541, 36.272278], [-86.5101, 36.272321], [-86.509581, 36.273386], [-86.509547, 36.273715], [-86.50975, 36.273871], [-86.509897, 36.27407], [-86.509853, 36.274358], [-86.510475, 36.274333], [-86.511014, 36.274577], [-86.511259, 36.274575], [-86.51134, 36.27448], [-86.511242, 36.274399], [-86.511265, 36.274246], [-86.511132, 36.274041]]]}, "properties": {"OBJECTID": 29, "Category_of_Harbour_Facility": "Yacht Harbor/Marina", "Object_Name": "Cedar Creek Boat Dock", "Information": "", "Scale_Minimum": 60000, "Source_Date": "20050412", "Source_Indication": "US,U3,USACE,LRN_GIS", "Source_Dataset": "U37CR221.000", "Feature_ID": "U3 1392981229 00001"}}, {"type": "Feature", "id": 30, "geometry": {"type": "Polygon", "coordinates": [[[-86.477435, 36.346545], [-86.477464, 36.346809], [-86.477231, 36.347087], [-86.477107, 36.347378], [-86.476854, 36.347641], [-86.476514, 36.347853], [-86.476506, 36.347896], [-86.476156, 36.347952], [-86.475406, 36.34788], [-86.474938, 36.347798], [-86.474896, 36.347826], [-86.474867, 36.347868], [-86.474876, 36.34793], [-86.474934, 36.348003], [-86.475192, 36.348169], [-86.475305, 36.348282], [-86.475587, 36.348353], [-86.475757, 36.348467], [-86.475863, 36.348644], [-86.475658, 36.348892], [-86.474849, 36.349384], [-86.474671, 36.349562], [-86.47486, 36.349645], [-86.475318, 36.34947], [-86.475973, 36.349149], [-86.476495, 36.348847], [-86.476755, 36.348581], [-86.477379, 36.348285], [-86.478422, 36.347692], [-86.478841, 36.347414], [-86.478793, 36.347233], [-86.47862, 36.347009], [-86.478383, 36.34684], [-86.477435, 36.346545]]]}, "properties": {"OBJECTID": 30, "Category_of_Harbour_Facility": "Yacht Harbor/Marina", "Object_Name": "Gallatin Marina", "Information": "", "Scale_Minimum": 60000, "Source_Date": "20050412", "Source_Indication": "US,U3,USACE,LRN_GIS", "Source_Dataset": "U37CR221.000", "Feature_ID": "U3 1392981234 00001"}}, {"type": "Feature", "id": 31, "geometry": {"type": "Polygon", "coordinates": [[[-86.56519, 36.253328], [-86.563694, 36.252995], [-86.562983, 36.253129], [-86.562448, 36.253943], [-86.562658, 36.254501], [-86.562948, 36.254945], [-86.564159, 36.255591], [-86.56458, 36.255732], [-86.565274, 36.255846], [-86.565809, 36.256055], [-86.566222, 36.256041], [-86.566511, 36.255853], [-86.566573, 36.255649], [-86.566456, 36.255595], [-86.566115, 36.25527], [-86.565863, 36.254944], [-86.56579, 36.254693], [-86.565722, 36.254688], [-86.565714, 36.254651], [-86.565825, 36.254615], [-86.565837, 36.254523], [-86.565816, 36.254521], [-86.565872, 36.254235], [-86.56603, 36.253998], [-86.56519, 36.253328]]]}, "properties": {"OBJECTID": 31, "Category_of_Harbour_Facility": "Yacht Harbor/Marina", "Object_Name": "Harbor Island Yacht Club", "Information": "", "Scale_Minimum": 60000, "Source_Date": "20050412", "Source_Indication": "US,U3,USACE,LRN_GIS", "Source_Dataset": "U37CR221.000", "Feature_ID": "U3 1392981452 00001"}}]}