{"type": "FeatureCollection", "features": [{"type": "Feature", "id": 27, "geometry": {"type": "Point", "coordinates": [-86.33943409999995, 36.37662820000003]}, "properties": {"OBJECTID": 27, "Category_of_Harbour_Facility": "Yacht Harbor/Marina", "Object_Name": "Shady Cove Resort", "Information": "", "Scale_Minimum": 60000, "Source_Date": "20050412", "Source_Indication": "US,U3,USACE,LRN_GIS", "Source_Dataset": "U37CR221.000", "Feature_ID": "U3 1392979987 00001"}}, {"type": "Feature", "id": 28, "geometry": {"type": "Point", "coordinates": [-86.43074309999997, 36.336230700000044]}, "properties": {"OBJECTID": 28, "Category_of_Harbour_Facility": "Yacht Harbor/Marina", "Object_Name": "Cherokee Boat Dock", "Information": "", "Scale_Minimum": 60000, "Source_Date": "20050412", "Source_Indication": "US,U3,USACE,LRN_GIS", "Source_Dataset": "U37CR221.000", "Feature_ID": "U3 1392980865 00001"}}]}