{"type": "FeatureCollection", "features": [{"type": "Feature", "id": 501, "geometry": {"type": "Point", "coordinates": [-86.475043, 36.319902]}, "properties": {"OBJECTID": 501, "Category_of_Lateral_Mark": "Starboard-Hand Lateral Mark", "Beacon_Shape": "Stake_Pole_Perch_Post", "Color": "Red", "Color_Pattern": "", "Object_Name": "Spencer Creek Light (236.8)", "Direction_of_Impact": "", "Condition": "", "Information": "LDB", "Scale_Minimum": 60000, "Source_Date": "20100829", "Source_Indication": "US,U3,SURVY,Seaside_Engineering_&_Surveying_Inc.", "Source_Dataset": "U37CR221.000", "Feature_ID": "U3 1392980057 00001"}}, {"type": "Feature", "id": 502, "geometry": {"type": "Point", "coordinates": [-86.586834, 36.246274]}, "properties": {"OBJECTID": 502, "Category_of_Lateral_Mark": "Starboard-Hand Lateral Mark", "Beacon_Shape": "Stake_Pole_Perch_Post", "Color": "Red", "Color_Pattern": "", "Object_Name": "Drakes Creek Lt (222.7)", "Direction_of_Impact": "", "Condition": "", "Information": "LDB", "Scale_Minimum": 60000, "Source_Date": "20100829", "Source_Indication": "US,U3,SURVY,Seaside_Engineering_&_Surveying,_Inc.", "Source_Dataset": "U37CR221.000", "Feature_ID": "U3 1392980061 00001"}}, {"type": "Feature", "id": 504, "geometry": {"type": "Point", "coordinates": [-86.522257, 36.277314]}, "properties": {"OBJECTID": 504, "Category_of_Lateral_Mark": "Starboard-Hand Lateral Mark", "Beacon_Shape": "Stake_Pole_Perch_Post", "Color": "Red", "Color_Pattern": "", "Object_Name": "Cages Bend Lt (232.6)", "Direction_of_Impact": "", "Condition": "", "Information": "LDB", "Scale_Minimum": 60000, "Source_Date": "20100829", "Source_Indication": "US,U3,SURVY,Seaside_Engineering_&_Surveying,_Inc.", "Source_Dataset": "U37CR221.000", "Feature_ID": "U3 1392980069 00001"}}, {"type": "Feature", "id": 507, "geometry": {"type": "Point", "coordinates": [-86.557597, 36.278809]}, "properties": {"OBJECTID": 507, "Category_of_Lateral_Mark": "Starboard-Hand Lateral Mark", "Beacon_Shape": "Stake_Pole_Perch_Post", "Color": "Red", "Color_Pattern": "", "Object_Name": "Lindsley Island Lower Lt (225.6)", "Direction_of_Impact": "", "Condition": "", "Information": "LDB", "Scale_Minimum": 60000, "Source_Date": "20100829", "Source_Indication": "US,U3,SURVY,Seaside_Engineering_&_Surveying,_Inc.", "Source_Dataset": "U37CR221.000", "Feature_ID": "U3 1392980094 00001"}}, {"type": "Feature", "id": 508, "geometry": {"type": "Point", "coordinates": [-86.565145, 36.3073]}, "properties": {"OBJECTID": 508, "Category_of_Lateral_Mark": "Port-Hand Lateral Mark", "Beacon_Shape": "Stake_Pole_Perch_Post", "Color": "Green", "Color_Pattern": "", "Object_Name": "Blue Grass Light (227.6)", "Direction_of_Impact": "", "Condition": "", "Information": "RDB", "Scale_Minimum": 60000, "Source_Date": "20100829", "Source_Indication": "US,U3,SURVY,Seaside_Engineering_&_Surveying,_Inc.", "Source_Dataset": "U37CR221.000", "Feature_ID": "U3 1392980096 00001"}}, {"type": "Feature", "id": 509, "geometry": {"type": "Point", "coordinates": [-86.553724, 36.3195]}, "properties": {"OBJECTID": 509, "Category_of_Lateral_Mark": "Port-Hand Lateral Mark", "Beacon_Shape": "Stake_Pole_Perch_Post", "Color": "Green", "Color_Pattern": "", "Object_Name": "Saundersville Light (228.6)", "Direction_of_Impact": "", "Condition": "", "Information": "RDB", "Scale_Minimum": 60000, "Source_Date": "20100829", "Source_Indication": "US,U3,SURVY,Seaside_Engineering_&_Surveying,_Inc.", "Source_Dataset": "U37CR221.000", "Feature_ID": "U3 1392980100 00001"}}, {"type": "Feature", "id": 510, "geometry": {"type": "Point", "coordinates": [-86.543655, 36.322251]}, "properties": {"OBJECTID": 510, "Category_of_Lateral_Mark": "Port-Hand Lateral Mark", "Beacon_Shape": "Stake_Pole_Perch_Post", "Color": "Green", "Color_Pattern": "", "Object_Name": "Lindsley Bend Light (229.2)", "Direction_of_Impact": "", "Condition": "", "Information": "RDB", "Scale_Minimum": 60000, "Source_Date": "20100829", "Source_Indication": "US,U3,SURVY,Seaside_Engineering_&_Surveying,_Inc.", "Source_Dataset": "U37CR221.000", "Feature_ID": "U3 1392980101 00001"}}, {"type": "Feature", "id": 511, "geometry": {"type": "Point", "coordinates": [-86.608851, 36.24282]}, "properties": {"OBJECTID": 511, "Category_of_Lateral_Mark": "Starboard-Hand Lateral Mark", "Beacon_Shape": "Stake_Pole_Perch_Post", "Color": "Red", "Color_Pattern": "", "Object_Name": "Rock Quarry Light (221.4)", "Direction_of_Impact": "", "Condition": "", "Information": "LDB", "Scale_Minimum": 60000, "Source_Date": "20100828", "Source_Indication": "US,U3,SURVY,Seaside_Engineering_&_Surveying,_Inc.", "Source_Dataset": "U37CR221.000", "Feature_ID": "U3 1392980110 00001"}}, {"type": "Feature", "id": 512, "geometry": {"type": "Point", "coordinates": [-86.56764, 36.261998]}, "properties": {"OBJECTID": 512, "Category_of_Lateral_Mark": "Starboard-Hand Lateral Mark", "Beacon_Shape": "Stake_Pole_Perch_Post", "Color": "Red", "Color_Pattern": "", "Object_Name": "Nokes Branch Light (224.3)", "Direction_of_Impact": "", "Condition": "", "Information": "LDB", "Scale_Minimum": 60000, "Source_Date": "20100829", "Source_Indication": "US,U3,SURVY,Seaside_Engineering_&_Surveying,_Inc.", "Source_Dataset": "U37CR221.000", "Feature_ID": "U3 1392980139 00001"}}, {"type": "Feature", "id": 513, "geometry": {"type": "Point", "coordinates": [-86.504633, 36.306412]}, "properties": {"OBJECTID": 513, "Category_of_Lateral_Mark": "Port-Hand Lateral Mark", "Beacon_Shape": "Stake_Pole_Perch_Post", "Color": "Green", "Color_Pattern": "", "Object_Name": "Abstons Bluff Light (235.0)", "Direction_of_Impact": "", "Condition": "", "Information": "RDB", "Scale_Minimum": 60000, "Source_Date": "20100829", "Source_Indication": "US,U3,SURVY,Seaside_Engineering_&_Surveying,_Inc.", "Source_Dataset": "U37CR221.000", "Feature_ID": "U3 1392980822 00001"}}]}