{"type": "FeatureCollection", "features": [{"type": "Feature", "id": 1301, "geometry": {"type": "Point", "coordinates": [-86.475043, 36.319902]}, "properties": {"OBJECTID": 1301, "Category_of_Light": "Unknown", "Color": "Red", "Light_Characteristics": "Flashing", "Signal_Group": "(2)", "Signal_Period": "5 Seconds", "Multiplicity_of_Lights": "", "Condition": "", "Orientation": "", "Object_Name": "", "Information": "LDB", "Status": "Public", "Scale_Minimum": 60000, "Source_Date": "20251215", "Source_Indication": "US,U3,LIGHT,USCG_Light_List_No_3600", "Source_Dataset": "U37CR221.000", "Height": "", "Value_of_Nominal_Range": "", "Feature_ID": "U3 1392980054 00001", "Exhibition_Condition_of_Light": ""}}, {"type": "Feature", "id": 1302, "geometry": {"type": "Point", "coordinates": [-86.586834, 36.246274]}, "properties": {"OBJECTID": 1302, "Category_of_Light": "Unknown", "Color": "Red", "Light_Characteristics": "Flashing", "Signal_Group": "(2)", "Signal_Period": "5 Seconds", "Multiplicity_of_Lights": "", "Condition": "", "Orientation": "", "Object_Name": "", "Information": "LDB", "Status": "Public", "Scale_Minimum": 60000, "Source_Date": "20251215", "Source_Indication": "US,U3,LIGHT,USCG_Light_List_No_3695", "Source_Dataset": "U37CR221.000", "Height": "", "Value_of_Nominal_Range": "", "Feature_ID": "U3 1392980062 00001", "Exhibition_Condition_of_Light": ""}}, {"type": "Feature", "id": 1304, "geometry": {"type": "Point", "coordinates": [-86.522257, 36.277314]}, "properties": {"OBJECTID": 1304, "Category_of_Light": "Unknown", "Color": "White", "Light_Characteristics": "Flashing", "Signal_Group": "(2)", "Signal_Period": "5 Seconds", "Multiplicity_of_Lights": "", "Condition": "", "Orientation": "", "Object_Name": "", "Information": "LDB", "Status": "Public", "Scale_Minimum": 60000, "Source_Date": "20251215", "Source_Indication": "US,U3,LIGHT,USCG_Light_List_No_3655", "Source_Dataset": "U37CR221.000", "Height": "", "Value_of_Nominal_Range": "", "Feature_ID": "U3 1392980074 00001", "Exhibition_Condition_of_Light": ""}}, {"type": "Feature", "id": 1306, "geometry": {"type": "Point", "coordinates": [-86.565145, 36.3073]}, "properties": {"OBJECTID": 1306, "Category_of_Light": "Unknown", "Color": "White", "Light_Characteristics": "Flashing", "Signal_Group": "()", "Signal_Period": "4 Seconds", "Multiplicity_of_Lights": "", "Condition": "", "Orientation": "", "Object_Name": "", "Information": "RDB", "Status": "Public", "Scale_Minimum": 60000, "Source_Date": "20251215", "Source_Indication": "US,U3,LIGHT,USCG_Light_List_No_3670", "Source_Dataset": "U37CR221.000", "Height": "", "Value_of_Nominal_Range": "", "Feature_ID": "U3 1392980085 00001", "Exhibition_Condition_of_Light": ""}}, {"type": "Feature", "id": 1307, "geometry": {"type": "Point", "coordinates": [-86.557597, 36.278809]}, "properties": {"OBJECTID": 1307, "Category_of_Light": "Unknown", "Color": "Red", "Light_Characteristics": "Flashing", "Signal_Group": "(2)", "Signal_Period": "5 Seconds", "Multiplicity_of_Lights": "", "Condition": "", "Orientation": "", "Object_Name": "", "Information": "LDB", "Status": "Public", "Scale_Minimum": 60000, "Source_Date": "20251215", "Source_Indication": "US,U3,LIGHT,USCG_Light_List_No_3680", "Source_Dataset": "U37CR221.000", "Height": "", "Value_of_Nominal_Range": "", "Feature_ID": "U3 1392980089 00001", "Exhibition_Condition_of_Light": ""}}, {"type": "Feature", "id": 1308, "geometry": {"type": "Point", "coordinates": [-86.553724, 36.3195]}, "properties": {"OBJECTID": 1308, "Category_of_Light": "Unknown", "Color": "Green", "Light_Characteristics": "Flashing", "Signal_Group": "()", "Signal_Period": "4 Seconds", "Multiplicity_of_Lights": "", "Condition": "", "Orientation": "", "Object_Name": "", "Information": "RDB", "Status": "Public", "Scale_Minimum": 60000, "Source_Date": "20251215", "Source_Indication": "US,U3,LIGHT,USCG_Light_List_No_3665", "Source_Dataset": "U37CR221.000", "Height": "", "Value_of_Nominal_Range": "", "Feature_ID": "U3 1392980097 00001", "Exhibition_Condition_of_Light": ""}}, {"type": "Feature", "id": 1309, "geometry": {"type": "Point", "coordinates": [-86.543655, 36.322251]}, "properties": {"OBJECTID": 1309, "Category_of_Light": "Unknown", "Color": "Green", "Light_Characteristics": "Flashing", "Signal_Group": "()", "Signal_Period": "4 Seconds", "Multiplicity_of_Lights": "", "Condition": "", "Orientation": "", "Object_Name": "", "Information": "RDB", "Status": "Public", "Scale_Minimum": 60000, "Source_Date": "20251215", "Source_Indication": "US,U3,LIGHT,USCG_Light_List_No_3660", "Source_Dataset": "U37CR221.000", "Height": "", "Value_of_Nominal_Range": "", "Feature_ID": "U3 1392980098 00001", "Exhibition_Condition_of_Light": ""}}, {"type": "Feature", "id": 1310, "geometry": {"type": "Point", "coordinates": [-86.608851, 36.24282]}, "properties": {"OBJECTID": 1310, "Category_of_Light": "Unknown", "Color": "Red", "Light_Characteristics": "Flashing", "Signal_Group": "(2)", "Signal_Period": "5 Seconds", "Multiplicity_of_Lights": "", "Condition": "", "Orientation": "", "Object_Name": "", "Information": "LDB", "Status": "Public", "Scale_Minimum": 60000, "Source_Date": "20251215", "Source_Indication": "US,U3,LIGHT,USCG_Light_List_No_3720", "Source_Dataset": "U37CR221.000", "Height": "", "Value_of_Nominal_Range": "", "Feature_ID": "U3 1392980111 00001", "Exhibition_Condition_of_Light": ""}}, {"type": "Feature", "id": 1311, "geometry": {"type": "Point", "coordinates": [-86.56764, 36.261998]}, "properties": {"OBJECTID": 1311, "Category_of_Light": "Unknown", "Color": "Red", "Light_Characteristics": "Flashing", "Signal_Group": "(2)", "Signal_Period": "5 Seconds", "Multiplicity_of_Lights": "", "Condition": "", "Orientation": "", "Object_Name": "", "Information": "LDB", "Status": "Public", "Scale_Minimum": 60000, "Source_Date": "20251215", "Source_Indication": "US,U3,LIGHT,USCG_Light_List_No_3690", "Source_Dataset": "U37CR221.000", "Height": "", "Value_of_Nominal_Range": "", "Feature_ID": "U3 1392980136 00001", "Exhibition_Condition_of_Light": ""}}, {"type": "Feature", "id": 1314, "geometry": {"type": "Point", "coordinates": [-86.559067, 36.275437]}, "properties": {"OBJECTID": 1314, "Category_of_Light": "Unknown", "Color": "Red", "Light_Characteristics": "Flashing", "Signal_Group": "(2)", "Signal_Period": "6 Seconds", "Multiplicity_of_Lights": "", "Condition": "", "Orientation": "", "Object_Name": "", "Information": "LDB", "Status": "Private", "Scale_Minimum": 60000, "Source_Date": "20251215", "Source_Indication": "US,U3,LIGHT,USCG_Light_List_No_3685", "Source_Dataset": "U37CR221.000", "Height": "", "Value_of_Nominal_Range": "", "Feature_ID": "U3 1392980179 00001", "Exhibition_Condition_of_Light": ""}}, {"type": "Feature", "id": 1324, "geometry": {"type": "Point", "coordinates": [-86.490061, 36.311157]}, "properties": {"OBJECTID": 1324, "Category_of_Light": "Unknown", "Color": "Red", "Light_Characteristics": "Flashing", "Signal_Group": "(2)", "Signal_Period": "6 Seconds", "Multiplicity_of_Lights": "", "Condition": "", "Orientation": "", "Object_Name": "", "Information": "LDB", "Status": "Private", "Scale_Minimum": 60000, "Source_Date": "20251215", "Source_Indication": "US,U3,LIGHT,USCG_Light_List_No_3640", "Source_Dataset": "U37CR221.000", "Height": "", "Value_of_Nominal_Range": "", "Feature_ID": "U3 1392980351 00001", "Exhibition_Condition_of_Light": ""}}, {"type": "Feature", "id": 1326, "geometry": {"type": "Point", "coordinates": [-86.490252, 36.311059]}, "properties": {"OBJECTID": 1326, "Category_of_Light": "Unknown", "Color": "Red", "Light_Characteristics": "Flashing", "Signal_Group": "(2)", "Signal_Period": "6 Seconds", "Multiplicity_of_Lights": "", "Condition": "", "Orientation": "", "Object_Name": "", "Information": "LDB", "Status": "Private", "Scale_Minimum": 60000, "Source_Date": "20251215", "Source_Indication": "US,U3,LIGHT,USCG_Light_List_No_3640", "Source_Dataset": "U37CR221.000", "Height": "", "Value_of_Nominal_Range": "", "Feature_ID": "U3 1392980357 00001", "Exhibition_Condition_of_Light": ""}}, {"type": "Feature", "id": 1329, "geometry": {"type": "Point", "coordinates": [-86.491701, 36.31351]}, "properties": {"OBJECTID": 1329, "Category_of_Light": "Unknown", "Color": "Green", "Light_Characteristics": "Flashing", "Signal_Group": "()", "Signal_Period": "6 Seconds", "Multiplicity_of_Lights": "", "Condition": "", "Orientation": "", "Object_Name": "", "Information": "RDB", "Status": "Private", "Scale_Minimum": 60000, "Source_Date": "20251215", "Source_Indication": "US,U3,LIGHT,USCG_Light_List_No_3635", "Source_Dataset": "U37CR221.000", "Height": "", "Value_of_Nominal_Range": "", "Feature_ID": "U3 1392980825 00001", "Exhibition_Condition_of_Light": ""}}, {"type": "Feature", "id": 1331, "geometry": {"type": "Point", "coordinates": [-86.504633, 36.306412]}, "properties": {"OBJECTID": 1331, "Category_of_Light": "Unknown", "Color": "Green", "Light_Characteristics": "Flashing", "Signal_Group": "()", "Signal_Period": "4 Seconds", "Multiplicity_of_Lights": "", "Condition": "", "Orientation": "", "Object_Name": "", "Information": "RDB", "Status": "Public", "Scale_Minimum": 60000, "Source_Date": "20251215", "Source_Indication": "US,U3,LIGHT,USCG_Light_List_No_3645", "Source_Dataset": "U37CR221.000", "Height": "", "Value_of_Nominal_Range": "", "Feature_ID": "U3 1392980829 00001", "Exhibition_Condition_of_Light": ""}}, {"type": "Feature", "id": 1333, "geometry": {"type": "Point", "coordinates": [-86.491889, 36.313414]}, "properties": {"OBJECTID": 1333, "Category_of_Light": "Unknown", "Color": "Green", "Light_Characteristics": "Flashing", "Signal_Group": "()", "Signal_Period": "6 Seconds", "Multiplicity_of_Lights": "", "Condition": "", "Orientation": "", "Object_Name": "", "Information": "RDB", "Status": "Private", "Scale_Minimum": 60000, "Source_Date": "20251215", "Source_Indication": "US,U3,LIGHT,USCG_Light_List_No_3635", "Source_Dataset": "U37CR221.000", "Height": "", "Value_of_Nominal_Range": "", "Feature_ID": "U3 1392980847 00001", "Exhibition_Condition_of_Light": ""}}]}