{"type": "FeatureCollection", "features": [{"type": "Feature", "id": 36, "geometry": {"type": "LineString", "coordinates": [[-86.656526, 36.295665], [-86.656391, 36.295744], [-86.656344, 36.295871]]}, "properties": {"OBJECTID": 36, "Category_of_Gate": "Lock Gate", "Horizontal_Clearance": "26.6", "Vertical_Clearance": "", "Object_Name": "", "Information": "", "Scale_Minimum": 22000, "Source_Date": "20131113", "Source_Indication": "US,U3,SURVY,2013_SEAS_LIDAR_Mapping_Survey", "Source_Dataset": "U37CR149.000", "Feature_ID": "U3 1392978377 00001"}}, {"type": "Feature", "id": 38, "geometry": {"type": "LineString", "coordinates": [[-86.657583, 36.296587], [-86.657633, 36.296455], [-86.65777, 36.296375]]}, "properties": {"OBJECTID": 38, "Category_of_Gate": "Lock Gate", "Horizontal_Clearance": "25.6", "Vertical_Clearance": "", "Object_Name": "", "Information": "", "Scale_Minimum": 22000, "Source_Date": "20131113", "Source_Indication": "US,U3,SURVY,2013_SEAS_LIDAR_Mapping_Survey", "Source_Dataset": "U37CR149.000", "Feature_ID": "U3 1392978374 00001"}}, {"type": "Feature", "id": 39, "geometry": {"type": "LineString", "coordinates": [[-85.943075, 36.290674], [-85.942985, 36.290794], [-85.942824, 36.290846]]}, "properties": {"OBJECTID": 39, "Category_of_Gate": "Lock Gate", "Horizontal_Clearance": "25.6", "Vertical_Clearance": "", "Object_Name": "", "Information": "", "Scale_Minimum": 22000, "Source_Date": "20140604", "Source_Indication": "US,U3,SURVY,2014_SEAS_LIDAR_Mapping_Survey", "Source_Dataset": "U37CR307.000", "Feature_ID": "U3 1392989201 00001"}}, {"type": "Feature", "id": 40, "geometry": {"type": "LineString", "coordinates": [[-85.942086, 36.289732], [-85.941996, 36.289853], [-85.941835, 36.289905]]}, "properties": {"OBJECTID": 40, "Category_of_Gate": "Lock Gate", "Horizontal_Clearance": "25.6", "Vertical_Clearance": "", "Object_Name": "", "Information": "", "Scale_Minimum": 22000, "Source_Date": "20140604", "Source_Indication": "US,U3,SURVY,2014_SEAS_LIDAR_Mapping_Survey", "Source_Dataset": "U37CR307.000", "Feature_ID": "U3 1392989204 00001"}}]}