{"type": "FeatureCollection", "features": [{"type": "Feature", "id": 30, "geometry": {"type": "Polygon", "coordinates": [[[-86.656526, 36.295665], [-86.656391, 36.295744], [-86.656344, 36.295871], [-86.657577, 36.296587], [-86.657633, 36.296455], [-86.65777, 36.296375], [-86.656526, 36.295665]]]}, "properties": {"OBJECTID": 30, "Horizontal_Clearance_Length": "121", "Horizontal_Clearance_Width": "26.5", "Horizontal_Length": "", "Horizontal_Width": "", "Object_Name": "Old Hickory Lock", "Status": "", "Information": "LOCK: 397' x 84'.  PHONE:  615-847-3281.  HOURS:  6am - 2am.", "Scale_Minimum": 30000, "Text_Description": "U3CR216201.TXT", "Source_Date": "20131113", "Source_Indication": "US,U3,SURVY,2013_SEAS_LIDAR_Mapping_Survey", "Source_Dataset": "U37CR149.000", "Feature_ID": "U3 1392973086 00001"}}, {"type": "Feature", "id": 32, "geometry": {"type": "Polygon", "coordinates": [[[-85.942086, 36.289732], [-85.941996, 36.289853], [-85.941835, 36.289905], [-85.941962, 36.289998], [-85.942824, 36.290846], [-85.942985, 36.290794], [-85.943075, 36.290674], [-85.943045, 36.290673], [-85.942086, 36.289732]]]}, "properties": {"OBJECTID": 32, "Horizontal_Clearance_Length": "121.92", "Horizontal_Clearance_Width": "25.6", "Horizontal_Length": "", "Horizontal_Width": "", "Object_Name": "Cordell Hull Lock", "Status": "", "Information": "LOCK:  400' x 84'.  PHONE:  615-874-3281.  HOURS: Reservation Only 7:30am - 2:30pm, M-F.", "Scale_Minimum": 30000, "Text_Description": "U3CR313501.TXT", "Source_Date": "20140604", "Source_Indication": "US,U3,SURVY,2014_SEAS_LIDAR_Mapping_Survey", "Source_Dataset": "U37CR307.000", "Feature_ID": "U3 1392990217 00001"}}]}