{"type": "FeatureCollection", "features": [{"type": "Feature", "id": 580, "geometry": {"type": "Polygon", "coordinates": [[[-86.666569, 36.299978], [-86.666623, 36.300021], [-86.666676, 36.299977], [-86.666622, 36.299935], [-86.666569, 36.299978]]]}, "properties": {"OBJECTID": 580, "Category_of_Mooring_Facility": "Post/Pile", "Nature_of_Construction": "Concreted/Metal", "Object_Name": "Federal Mooring Cell (215.6)", "Water_Level": "Always Dry", "Condition": "", "Information": "", "Scale_Minimum": 30000, "Source_Date": "20151021", "Source_Indication": "US,U3,SURVY,2015_Seaside_Engineering_And_Surveying_SEAS_LIDAR_Mapping_Survey", "Source_Dataset": "U37CR149.000", "Feature_ID": "U3 1392977090 00001"}}, {"type": "Feature", "id": 583, "geometry": {"type": "Polygon", "coordinates": [[[-86.665612, 36.299789], [-86.665665, 36.299832], [-86.665718, 36.299789], [-86.665665, 36.299746], [-86.665612, 36.299789]]]}, "properties": {"OBJECTID": 583, "Category_of_Mooring_Facility": "Post/Pile", "Nature_of_Construction": "Concreted/Metal", "Object_Name": "Federal Mooring Cell (215.6)", "Water_Level": "Always Dry", "Condition": "", "Information": "", "Scale_Minimum": 30000, "Source_Date": "20151021", "Source_Indication": "US,U3,SURVY,2015_Seaside_Engineering_And_Surveying_SEAS_LIDAR_Mapping_Survey", "Source_Dataset": "U37CR149.000", "Feature_ID": "U3 1392977098 00001"}}, {"type": "Feature", "id": 594, "geometry": {"type": "Polygon", "coordinates": [[[-86.654137, 36.291548], [-86.65419, 36.291591], [-86.654242, 36.291548], [-86.654189, 36.291505], [-86.654137, 36.291548]]]}, "properties": {"OBJECTID": 594, "Category_of_Mooring_Facility": "Post/Pile", "Nature_of_Construction": "Concreted/Metal", "Object_Name": "Federal Mooring Cell (216.5)", "Water_Level": "Always Dry", "Condition": "", "Information": "", "Scale_Minimum": 30000, "Source_Date": "20151021", "Source_Indication": "US,U3,SURVY,2015_Seaside_Engineering_And_Surveying_SEAS_LIDAR_Mapping_Survey", "Source_Dataset": "U37CR149.000", "Feature_ID": "U3 1392977103 00001"}}, {"type": "Feature", "id": 602, "geometry": {"type": "Polygon", "coordinates": [[[-86.654526, 36.292291], [-86.654579, 36.292333], [-86.654631, 36.29229], [-86.654578, 36.292248], [-86.654526, 36.292291]]]}, "properties": {"OBJECTID": 602, "Category_of_Mooring_Facility": "Post/Pile", "Nature_of_Construction": "Concreted/Metal", "Object_Name": "Federal Mooring Cell (216.5)", "Water_Level": "Always Dry", "Condition": "", "Information": "", "Scale_Minimum": 30000, "Source_Date": "20151021", "Source_Indication": "US,U3,SURVY,2015_Seaside_Engineering_And_Surveying_SEAS_LIDAR_Mapping_Survey", "Source_Dataset": "U37CR149.000", "Feature_ID": "U3 1392977105 00001"}}, {"type": "Feature", "id": 618, "geometry": {"type": "Polygon", "coordinates": [[[-86.389944, 36.3156], [-86.38998, 36.315629], [-86.390016, 36.3156], [-86.38998, 36.315571], [-86.389944, 36.3156]]]}, "properties": {"OBJECTID": 618, "Category_of_Mooring_Facility": "Post/Pile", "Nature_of_Construction": "", "Object_Name": "", "Water_Level": "", "Condition": "", "Information": "", "Scale_Minimum": 30000, "Source_Date": "20040930", "Source_Indication": "US,U3,USACE,LRN_GIS", "Source_Dataset": "U37CR221.000", "Feature_ID": "U3 1392981101 00001"}}, {"type": "Feature", "id": 619, "geometry": {"type": "Polygon", "coordinates": [[[-86.416322, 36.326382], [-86.416358, 36.326411], [-86.416394, 36.326382], [-86.416358, 36.326353], [-86.416322, 36.326382]]]}, "properties": {"OBJECTID": 619, "Category_of_Mooring_Facility": "Post/Pile", "Nature_of_Construction": "", "Object_Name": "", "Water_Level": "", "Condition": "", "Information": "", "Scale_Minimum": 30000, "Source_Date": "20040930", "Source_Indication": "US,U3,USACE,LRN_GIS", "Source_Dataset": "U37CR221.000", "Feature_ID": "U3 1392981172 00001"}}, {"type": "Feature", "id": 620, "geometry": {"type": "Polygon", "coordinates": [[[-86.176117, 36.374159], [-86.176137, 36.374175], [-86.176157, 36.374158], [-86.176117, 36.374159]]]}, "properties": {"OBJECTID": 620, "Category_of_Mooring_Facility": "Post/Pile", "Nature_of_Construction": "", "Object_Name": "", "Water_Level": "", "Condition": "", "Information": "", "Scale_Minimum": 30000, "Source_Date": "20040930", "Source_Indication": "US,U3,USACE,LRN_GIS", "Source_Dataset": "U37CR221.000", "Feature_ID": "U3 1392981179 00001"}}, {"type": "Feature", "id": 621, "geometry": {"type": "Polygon", "coordinates": [[[-86.416449, 36.326908], [-86.416483, 36.326936], [-86.416518, 36.326908], [-86.416483, 36.32688], [-86.416449, 36.326908]]]}, "properties": {"OBJECTID": 621, "Category_of_Mooring_Facility": "Post/Pile", "Nature_of_Construction": "", "Object_Name": "", "Water_Level": "", "Condition": "", "Information": "", "Scale_Minimum": 30000, "Source_Date": "20040930", "Source_Indication": "US,U3,USACE,LRN_GIS", "Source_Dataset": "U37CR221.000", "Feature_ID": "U3 1392981183 00001"}}, {"type": "Feature", "id": 622, "geometry": {"type": "Polygon", "coordinates": [[[-86.416078, 36.32533], [-86.416114, 36.325359], [-86.416149, 36.32533], [-86.416113, 36.325301], [-86.416078, 36.32533]]]}, "properties": {"OBJECTID": 622, "Category_of_Mooring_Facility": "Post/Pile", "Nature_of_Construction": "", "Object_Name": "", "Water_Level": "", "Condition": "", "Information": "", "Scale_Minimum": 30000, "Source_Date": "20040930", "Source_Indication": "US,U3,USACE,LRN_GIS", "Source_Dataset": "U37CR221.000", "Feature_ID": "U3 1392981187 00001"}}, {"type": "Feature", "id": 623, "geometry": {"type": "Polygon", "coordinates": [[[-86.41558, 36.323223], [-86.415615, 36.323252], [-86.415651, 36.323223], [-86.415615, 36.323194], [-86.41558, 36.323223]]]}, "properties": {"OBJECTID": 623, "Category_of_Mooring_Facility": "Post/Pile", "Nature_of_Construction": "", "Object_Name": "", "Water_Level": "", "Condition": "", "Information": "", "Scale_Minimum": 30000, "Source_Date": "20040930", "Source_Indication": "US,U3,USACE,LRN_GIS", "Source_Dataset": "U37CR221.000", "Feature_ID": "U3 1392981189 00001"}}, {"type": "Feature", "id": 624, "geometry": {"type": "Polygon", "coordinates": [[[-86.415318, 36.322173], [-86.415364, 36.32221], [-86.41541, 36.322172], [-86.415363, 36.322135], [-86.415318, 36.322173]]]}, "properties": {"OBJECTID": 624, "Category_of_Mooring_Facility": "Post/Pile", "Nature_of_Construction": "", "Object_Name": "", "Water_Level": "", "Condition": "", "Information": "", "Scale_Minimum": 30000, "Source_Date": "20040930", "Source_Indication": "US,U3,USACE,LRN_GIS", "Source_Dataset": "U37CR221.000", "Feature_ID": "U3 1392981192 00001"}}, {"type": "Feature", "id": 625, "geometry": {"type": "Polygon", "coordinates": [[[-86.415934, 36.324804], [-86.415978, 36.324839], [-86.416021, 36.324804], [-86.415978, 36.324769], [-86.415934, 36.324804]]]}, "properties": {"OBJECTID": 625, "Category_of_Mooring_Facility": "Post/Pile", "Nature_of_Construction": "", "Object_Name": "", "Water_Level": "", "Condition": "", "Information": "", "Scale_Minimum": 30000, "Source_Date": "20040930", "Source_Indication": "US,U3,USACE,LRN_GIS", "Source_Dataset": "U37CR221.000", "Feature_ID": "U3 1392981193 00001"}}, {"type": "Feature", "id": 626, "geometry": {"type": "Polygon", "coordinates": [[[-86.415826, 36.324278], [-86.415865, 36.324306], [-86.415896, 36.324275], [-86.415861, 36.32425], [-86.415826, 36.324278]]]}, "properties": {"OBJECTID": 626, "Category_of_Mooring_Facility": "Post/Pile", "Nature_of_Construction": "", "Object_Name": "", "Water_Level": "", "Condition": "", "Information": "", "Scale_Minimum": 30000, "Source_Date": "20040930", "Source_Indication": "US,U3,USACE,LRN_GIS", "Source_Dataset": "U37CR221.000", "Feature_ID": "U3 1392981194 00001"}}, {"type": "Feature", "id": 627, "geometry": {"type": "Polygon", "coordinates": [[[-86.415197, 36.321645], [-86.415243, 36.321682], [-86.415289, 36.321645], [-86.415243, 36.321608], [-86.415197, 36.321645]]]}, "properties": {"OBJECTID": 627, "Category_of_Mooring_Facility": "Post/Pile", "Nature_of_Construction": "", "Object_Name": "", "Water_Level": "", "Condition": "", "Information": "", "Scale_Minimum": 30000, "Source_Date": "20040930", "Source_Indication": "US,U3,USACE,LRN_GIS", "Source_Dataset": "U37CR221.000", "Feature_ID": "U3 1392981195 00001"}}, {"type": "Feature", "id": 628, "geometry": {"type": "Polygon", "coordinates": [[[-86.415461, 36.322705], [-86.415496, 36.322733], [-86.415531, 36.322705], [-86.415496, 36.322677], [-86.415461, 36.322705]]]}, "properties": {"OBJECTID": 628, "Category_of_Mooring_Facility": "Post/Pile", "Nature_of_Construction": "", "Object_Name": "", "Water_Level": "", "Condition": "", "Information": "", "Scale_Minimum": 30000, "Source_Date": "20040930", "Source_Indication": "US,U3,USACE,LRN_GIS", "Source_Dataset": "U37CR221.000", "Feature_ID": "U3 1392981198 00001"}}, {"type": "Feature", "id": 629, "geometry": {"type": "Polygon", "coordinates": [[[-86.414948, 36.320567], [-86.414993, 36.320603], [-86.415038, 36.320567], [-86.414993, 36.32053], [-86.414948, 36.320567]]]}, "properties": {"OBJECTID": 629, "Category_of_Mooring_Facility": "Post/Pile", "Nature_of_Construction": "", "Object_Name": "", "Water_Level": "", "Condition": "", "Information": "", "Scale_Minimum": 30000, "Source_Date": "20040930", "Source_Indication": "US,U3,USACE,LRN_GIS", "Source_Dataset": "U37CR221.000", "Feature_ID": "U3 1392981199 00001"}}, {"type": "Feature", "id": 630, "geometry": {"type": "Polygon", "coordinates": [[[-86.416202, 36.325855], [-86.416237, 36.325884], [-86.416272, 36.325855], [-86.416237, 36.325827], [-86.416202, 36.325855]]]}, "properties": {"OBJECTID": 630, "Category_of_Mooring_Facility": "Post/Pile", "Nature_of_Construction": "", "Object_Name": "", "Water_Level": "", "Condition": "", "Information": "", "Scale_Minimum": 30000, "Source_Date": "20040930", "Source_Indication": "US,U3,USACE,LRN_GIS", "Source_Dataset": "U37CR221.000", "Feature_ID": "U3 1392981204 00001"}}, {"type": "Feature", "id": 631, "geometry": {"type": "Polygon", "coordinates": [[[-86.415704, 36.32375], [-86.415739, 36.323778], [-86.415774, 36.323747], [-86.415739, 36.323722], [-86.415704, 36.32375]]]}, "properties": {"OBJECTID": 631, "Category_of_Mooring_Facility": "Post/Pile", "Nature_of_Construction": "", "Object_Name": "", "Water_Level": "", "Condition": "", "Information": "", "Scale_Minimum": 30000, "Source_Date": "20040930", "Source_Indication": "US,U3,USACE,LRN_GIS", "Source_Dataset": "U37CR221.000", "Feature_ID": "U3 1392981205 00001"}}, {"type": "Feature", "id": 632, "geometry": {"type": "Polygon", "coordinates": [[[-86.390019, 36.316325], [-86.389998, 36.316285], [-86.38995, 36.316305], [-86.389976, 36.316342], [-86.390019, 36.316325]]]}, "properties": {"OBJECTID": 632, "Category_of_Mooring_Facility": "Post/Pile", "Nature_of_Construction": "", "Object_Name": "", "Water_Level": "", "Condition": "", "Information": "", "Scale_Minimum": 30000, "Source_Date": "20040930", "Source_Indication": "US,U3,USACE,LRN_GIS", "Source_Dataset": "U37CR221.000", "Feature_ID": "U3 1392981216 00001"}}, {"type": "Feature", "id": 633, "geometry": {"type": "Polygon", "coordinates": [[[-86.390009, 36.316668], [-86.390008, 36.316623], [-86.389952, 36.316632], [-86.38996, 36.31667], [-86.390009, 36.316668]]]}, "properties": {"OBJECTID": 633, "Category_of_Mooring_Facility": "Post/Pile", "Nature_of_Construction": "", "Object_Name": "", "Water_Level": "", "Condition": "", "Information": "", "Scale_Minimum": 30000, "Source_Date": "20040930", "Source_Indication": "US,U3,USACE,LRN_GIS", "Source_Dataset": "U37CR221.000", "Feature_ID": "U3 1392981217 00001"}}]}