{"type": "FeatureCollection", "features": [{"type": "Feature", "id": 313, "geometry": {"type": "LineString", "coordinates": [[-86.674959, 36.264075], [-86.676495, 36.262974]]}, "properties": {"OBJECTID": 313, "Vertical_Clearance": "29.9", "Vertical_Datum": "", "Waterway_Distance": "212.1", "Horizontal_Units": "Statute Miles", "Object_Name": "", "Condition": "", "Information": "", "Scale_Minimum": 90000, "Source_Date": "20050408", "Source_Indication": "US,U3,USACE,LRN_GIS_Data", "Source_Dataset": "U37CR149.000", "Feature_ID": "U3 1392977952 00001"}}, {"type": "Feature", "id": 316, "geometry": {"type": "LineString", "coordinates": [[-86.679047, 36.227468], [-86.676909, 36.227755]]}, "properties": {"OBJECTID": 316, "Vertical_Clearance": "29.9", "Vertical_Datum": "", "Waterway_Distance": "203.1", "Horizontal_Units": "Statute Miles", "Object_Name": "", "Condition": "", "Information": "", "Scale_Minimum": 90000, "Source_Date": "20050408", "Source_Indication": "US,U3,USACE,LRN_GIS_Data", "Source_Dataset": "U37CR149.000", "Feature_ID": "U3 1392977970 00001"}}, {"type": "Feature", "id": 317, "geometry": {"type": "LineString", "coordinates": [[-86.677139, 36.266045], [-86.679662, 36.265774]]}, "properties": {"OBJECTID": 317, "Vertical_Clearance": "34.4", "Vertical_Datum": "", "Waterway_Distance": "212.5", "Horizontal_Units": "Statute Miles", "Object_Name": "", "Condition": "", "Information": "", "Scale_Minimum": 90000, "Source_Date": "20050408", "Source_Indication": "US,U3,USACE,LRN_GIS_Data", "Source_Dataset": "U37CR149.000", "Feature_ID": "U3 1392977969 00001"}}, {"type": "Feature", "id": 318, "geometry": {"type": "LineString", "coordinates": [[-86.661146, 36.297273], [-86.659014, 36.29955]]}, "properties": {"OBJECTID": 318, "Vertical_Clearance": "33.5", "Vertical_Datum": "", "Waterway_Distance": "215.8", "Horizontal_Units": "Statute Miles", "Object_Name": "", "Condition": "", "Information": "", "Scale_Minimum": 90000, "Source_Date": "20050408", "Source_Indication": "US,U3,USACE,LRN_GIS_Data", "Source_Dataset": "U37CR149.000", "Feature_ID": "U3 1392977967 00001"}}, {"type": "Feature", "id": 330, "geometry": {"type": "LineString", "coordinates": [[-86.393644, 36.312134], [-86.384875, 36.306427]]}, "properties": {"OBJECTID": 330, "Vertical_Clearance": "26.2", "Vertical_Datum": "", "Waterway_Distance": "243.7", "Horizontal_Units": "Statute Miles", "Object_Name": "", "Condition": "", "Information": "", "Scale_Minimum": 90000, "Source_Date": "20050412", "Source_Indication": "US,U3,USACE,LRN_GIS", "Source_Dataset": "U37CR221.000", "Feature_ID": "U3 1392979523 00001"}}, {"type": "Feature", "id": 331, "geometry": {"type": "LineString", "coordinates": [[-86.398583, 36.314635], [-86.39735, 36.313843], [-86.394482, 36.311881]]}, "properties": {"OBJECTID": 331, "Vertical_Clearance": "Unknown", "Vertical_Datum": "", "Waterway_Distance": "243.7", "Horizontal_Units": "Statute Miles", "Object_Name": "", "Condition": "", "Information": "", "Scale_Minimum": 90000, "Source_Date": "20050412", "Source_Indication": "US,U3,USACE,LRN_GIS", "Source_Dataset": "U37CR221.000", "Feature_ID": "U3 1392979529 00001"}}, {"type": "Feature", "id": 332, "geometry": {"type": "LineString", "coordinates": [[-86.398093, 36.313102], [-86.394995, 36.310641]]}, "properties": {"OBJECTID": 332, "Vertical_Clearance": "Unknown", "Vertical_Datum": "", "Waterway_Distance": "243.6", "Horizontal_Units": "Statute Miles", "Object_Name": "", "Condition": "", "Information": "", "Scale_Minimum": 90000, "Source_Date": "20050412", "Source_Indication": "US,U3,USACE,LRN_GIS", "Source_Dataset": "U37CR221.000", "Feature_ID": "U3 1392979531 00001"}}, {"type": "Feature", "id": 333, "geometry": {"type": "LineString", "coordinates": [[-86.3853, 36.306181], [-86.39407, 36.312005]]}, "properties": {"OBJECTID": 333, "Vertical_Clearance": "26.2", "Vertical_Datum": "", "Waterway_Distance": "243.7", "Horizontal_Units": "Statute Miles", "Object_Name": "", "Condition": "", "Information": "", "Scale_Minimum": 90000, "Source_Date": "20050412", "Source_Indication": "US,U3,USACE,LRN_GIS", "Source_Dataset": "U37CR221.000", "Feature_ID": "U3 1392979533 00001"}}, {"type": "Feature", "id": 334, "geometry": {"type": "LineString", "coordinates": [[-86.398195, 36.315036], [-86.396943, 36.314278], [-86.393644, 36.312134]]}, "properties": {"OBJECTID": 334, "Vertical_Clearance": "Unknown", "Vertical_Datum": "", "Waterway_Distance": "243.7", "Horizontal_Units": "Statute Miles", "Object_Name": "", "Condition": "", "Information": "", "Scale_Minimum": 90000, "Source_Date": "20050412", "Source_Indication": "US,U3,USACE,LRN_GIS", "Source_Dataset": "U37CR221.000", "Feature_ID": "U3 1392979534 00001"}}, {"type": "Feature", "id": 335, "geometry": {"type": "LineString", "coordinates": [[-86.39407, 36.312005], [-86.397161, 36.314058], [-86.398519, 36.314713]]}, "properties": {"OBJECTID": 335, "Vertical_Clearance": "Unknown", "Vertical_Datum": "", "Waterway_Distance": "243.7", "Horizontal_Units": "Statute Miles", "Object_Name": "", "Condition": "", "Information": "", "Scale_Minimum": 90000, "Source_Date": "20050412", "Source_Indication": "US,U3,USACE,LRN_GIS", "Source_Dataset": "U37CR221.000", "Feature_ID": "U3 1392979537 00001"}}, {"type": "Feature", "id": 336, "geometry": {"type": "LineString", "coordinates": [[-86.387318, 36.304565], [-86.394995, 36.310641]]}, "properties": {"OBJECTID": 336, "Vertical_Clearance": "26.2", "Vertical_Datum": "", "Waterway_Distance": "243.6", "Horizontal_Units": "Statute Miles", "Object_Name": "", "Condition": "", "Information": "", "Scale_Minimum": 90000, "Source_Date": "20050412", "Source_Indication": "US,U3,USACE,LRN_GIS", "Source_Dataset": "U37CR221.000", "Feature_ID": "U3 1392979538 00001"}}, {"type": "Feature", "id": 337, "geometry": {"type": "LineString", "coordinates": [[-86.394475, 36.310801], [-86.397789, 36.313415], [-86.398996, 36.314238]]}, "properties": {"OBJECTID": 337, "Vertical_Clearance": "Unknown", "Vertical_Datum": "", "Waterway_Distance": "243.6", "Horizontal_Units": "Statute Miles", "Object_Name": "", "Condition": "", "Information": "", "Scale_Minimum": 90000, "Source_Date": "20050412", "Source_Indication": "US,U3,USACE,LRN_GIS", "Source_Dataset": "U37CR221.000", "Feature_ID": "U3 1392979540 00001"}}, {"type": "Feature", "id": 338, "geometry": {"type": "LineString", "coordinates": [[-86.491862, 36.313531], [-86.495011, 36.318012], [-86.497702, 36.318294]]}, "properties": {"OBJECTID": 338, "Vertical_Clearance": "16.5", "Vertical_Datum": "", "Waterway_Distance": "235.9", "Horizontal_Units": "Statute Miles", "Object_Name": "", "Condition": "", "Information": "", "Scale_Minimum": 90000, "Source_Date": "20050412", "Source_Indication": "US,U3,USACE,LRN_GIS", "Source_Dataset": "U37CR221.000", "Feature_ID": "U3 1392979902 00001"}}, {"type": "Feature", "id": 339, "geometry": {"type": "LineString", "coordinates": [[-86.394482, 36.311881], [-86.385725, 36.305921]]}, "properties": {"OBJECTID": 339, "Vertical_Clearance": "26.2", "Vertical_Datum": "", "Waterway_Distance": "243.7", "Horizontal_Units": "Statute Miles", "Object_Name": "", "Condition": "", "Information": "", "Scale_Minimum": 90000, "Source_Date": "20050412", "Source_Indication": "US,U3,USACE,LRN_GIS", "Source_Dataset": "U37CR221.000", "Feature_ID": "U3 1392979904 00001"}}, {"type": "Feature", "id": 340, "geometry": {"type": "LineString", "coordinates": [[-86.515861, 36.255256], [-86.518312, 36.25534]]}, "properties": {"OBJECTID": 340, "Vertical_Clearance": "Unknown", "Vertical_Datum": "", "Waterway_Distance": "Unknown", "Horizontal_Units": "Statute Miles", "Object_Name": "", "Condition": "", "Information": "", "Scale_Minimum": 90000, "Source_Date": "20040930", "Source_Indication": "US,U3,USACE,LRN_GIS", "Source_Dataset": "U37CR221.000", "Feature_ID": "U3 1392979906 00001"}}, {"type": "Feature", "id": 341, "geometry": {"type": "LineString", "coordinates": [[-86.386899, 36.304805], [-86.394468, 36.310787]]}, "properties": {"OBJECTID": 341, "Vertical_Clearance": "26.2", "Vertical_Datum": "", "Waterway_Distance": "243.6", "Horizontal_Units": "Statute Miles", "Object_Name": "", "Condition": "", "Information": "", "Scale_Minimum": 90000, "Source_Date": "20050412", "Source_Indication": "US,U3,USACE,LRN_GIS", "Source_Dataset": "U37CR221.000", "Feature_ID": "U3 1392979911 00001"}}, {"type": "Feature", "id": 342, "geometry": {"type": "LineString", "coordinates": [[-86.495419, 36.264732], [-86.495648, 36.266828]]}, "properties": {"OBJECTID": 342, "Vertical_Clearance": "Unknown", "Vertical_Datum": "", "Waterway_Distance": "Unknown", "Horizontal_Units": "Statute Miles", "Object_Name": "", "Condition": "", "Information": "", "Scale_Minimum": 90000, "Source_Date": "20040930", "Source_Indication": "US,U3,USACE,LRN_GIS", "Source_Dataset": "U37CR221.000", "Feature_ID": "U3 1392979913 00001"}}, {"type": "Feature", "id": 343, "geometry": {"type": "LineString", "coordinates": [[-86.357118, 36.271837], [-86.359144, 36.274792]]}, "properties": {"OBJECTID": 343, "Vertical_Clearance": "12.2", "Vertical_Datum": "", "Waterway_Distance": "Unknown", "Horizontal_Units": "Statute Miles", "Object_Name": "", "Condition": "", "Information": "", "Scale_Minimum": 90000, "Source_Date": "20050412", "Source_Indication": "US,U3,USACE,LRN_GIS", "Source_Dataset": "U37CR221.000", "Feature_ID": "U3 1392979915 00001"}}, {"type": "Feature", "id": 344, "geometry": {"type": "LineString", "coordinates": [[-86.489078, 36.307553], [-86.489265, 36.309842], [-86.490099, 36.311022]]}, "properties": {"OBJECTID": 344, "Vertical_Clearance": "16.5", "Vertical_Datum": "", "Waterway_Distance": "235.9", "Horizontal_Units": "Statute Miles", "Object_Name": "", "Condition": "", "Information": "", "Scale_Minimum": 90000, "Source_Date": "20050412", "Source_Indication": "US,U3,USACE,LRN_GIS", "Source_Dataset": "U37CR221.000", "Feature_ID": "U3 1392979916 00001"}}, {"type": "Feature", "id": 345, "geometry": {"type": "LineString", "coordinates": [[-86.490099, 36.311022], [-86.491862, 36.313531]]}, "properties": {"OBJECTID": 345, "Vertical_Clearance": "25", "Vertical_Datum": "", "Waterway_Distance": "235.9", "Horizontal_Units": "Statute Miles", "Object_Name": "", "Condition": "", "Information": "", "Scale_Minimum": 90000, "Source_Date": "20050412", "Source_Indication": "US,U3,USACE,LRN_GIS", "Source_Dataset": "U37CR221.000", "Feature_ID": "U3 1392979917 00001"}}, {"type": "Feature", "id": 346, "geometry": {"type": "LineString", "coordinates": [[-86.518309, 36.255367], [-86.515803, 36.255348]]}, "properties": {"OBJECTID": 346, "Vertical_Clearance": "Unknown", "Vertical_Datum": "", "Waterway_Distance": "Unknown", "Horizontal_Units": "Statute Miles", "Object_Name": "", "Condition": "", "Information": "", "Scale_Minimum": 90000, "Source_Date": "20040930", "Source_Indication": "US,U3,USACE,LRN_GIS", "Source_Dataset": "U37CR221.000", "Feature_ID": "U3 1392979918 00001"}}, {"type": "Feature", "id": 347, "geometry": {"type": "LineString", "coordinates": [[-86.614331, 36.305565], [-86.613592, 36.30567], [-86.614294, 36.305945]]}, "properties": {"OBJECTID": 347, "Vertical_Clearance": "Unknown", "Vertical_Datum": "", "Waterway_Distance": "Unknown", "Horizontal_Units": "Statute Miles", "Object_Name": "", "Condition": "", "Information": "", "Scale_Minimum": 90000, "Source_Date": "20040930", "Source_Indication": "US,U3,USACE,LRN_GIS", "Source_Dataset": "U37CR221.000", "Feature_ID": "U3 1392979919 00001"}}, {"type": "Feature", "id": 348, "geometry": {"type": "LineString", "coordinates": [[-86.093413, 36.287396], [-86.097456, 36.287019]]}, "properties": {"OBJECTID": 348, "Vertical_Clearance": "27.7", "Vertical_Datum": "", "Waterway_Distance": "289.9", "Horizontal_Units": "Statute Miles", "Object_Name": "", "Condition": "", "Information": "", "Scale_Minimum": 90000, "Source_Date": "20050412", "Source_Indication": "US,U3,USACE,LRN_GIS", "Source_Dataset": "U37CR221.000", "Feature_ID": "U3 1392979920 00001"}}, {"type": "Feature", "id": 349, "geometry": {"type": "LineString", "coordinates": [[-86.056324, 36.282823], [-86.059947, 36.283566]]}, "properties": {"OBJECTID": 349, "Vertical_Clearance": "28.3", "Vertical_Datum": "", "Waterway_Distance": "293.9", "Horizontal_Units": "Statute Miles", "Object_Name": "", "Condition": "", "Information": "", "Scale_Minimum": 90000, "Source_Date": "20050412", "Source_Indication": "US,U3,USACE,LRN_GIS", "Source_Dataset": "U37CR221.000", "Feature_ID": "U3 1392979921 00001"}}, {"type": "Feature", "id": 350, "geometry": {"type": "LineString", "coordinates": [[-86.472572, 36.356595], [-86.476763, 36.35708]]}, "properties": {"OBJECTID": 350, "Vertical_Clearance": "Unknown", "Vertical_Datum": "", "Waterway_Distance": "Unknown", "Horizontal_Units": "Statute Miles", "Object_Name": "", "Condition": "", "Information": "", "Scale_Minimum": 90000, "Source_Date": "20040930", "Source_Indication": "US,U3,USACE,LRN_GIS", "Source_Dataset": "U37CR221.000", "Feature_ID": "U3 1392979922 00001"}}, {"type": "Feature", "id": 351, "geometry": {"type": "LineString", "coordinates": [[-86.353414, 36.316032], [-86.355627, 36.314139], [-86.36007, 36.310466], [-86.364342, 36.306857]]}, "properties": {"OBJECTID": 351, "Vertical_Clearance": "25.9", "Vertical_Datum": "", "Waterway_Distance": "251.9", "Horizontal_Units": "Statute Miles", "Object_Name": "", "Condition": "", "Information": "", "Scale_Minimum": 90000, "Source_Date": "20050412", "Source_Indication": "US,U3,USACE,LRN_GIS", "Source_Dataset": "U37CR221.000", "Feature_ID": "U3 1392979923 00001"}}, {"type": "Feature", "id": 352, "geometry": {"type": "LineString", "coordinates": [[-86.476775, 36.356992], [-86.472608, 36.356515]]}, "properties": {"OBJECTID": 352, "Vertical_Clearance": "Unknown", "Vertical_Datum": "", "Waterway_Distance": "Unknown", "Horizontal_Units": "Statute Miles", "Object_Name": "", "Condition": "", "Information": "", "Scale_Minimum": 90000, "Source_Date": "20040930", "Source_Indication": "US,U3,USACE,LRN_GIS", "Source_Dataset": "U37CR221.000", "Feature_ID": "U3 1392979924 00001"}}, {"type": "Feature", "id": 353, "geometry": {"type": "LineString", "coordinates": [[-86.476737, 36.36338], [-86.478678, 36.362581]]}, "properties": {"OBJECTID": 353, "Vertical_Clearance": "Unknown", "Vertical_Datum": "", "Waterway_Distance": "Unknown", "Horizontal_Units": "Statute Miles", "Object_Name": "", "Condition": "", "Information": "", "Scale_Minimum": 90000, "Source_Date": "20040930", "Source_Indication": "US,U3,USACE,LRN_GIS", "Source_Dataset": "U37CR221.000", "Feature_ID": "U3 1392979925 00001"}}, {"type": "Feature", "id": 354, "geometry": {"type": "LineString", "coordinates": [[-86.478675, 36.362597], [-86.476741, 36.363417]]}, "properties": {"OBJECTID": 354, "Vertical_Clearance": "Unknown", "Vertical_Datum": "", "Waterway_Distance": "Unknown", "Horizontal_Units": "Statute Miles", "Object_Name": "", "Condition": "", "Information": "", "Scale_Minimum": 90000, "Source_Date": "20040930", "Source_Indication": "US,U3,USACE,LRN_GIS", "Source_Dataset": "U37CR221.000", "Feature_ID": "U3 1392979926 00001"}}, {"type": "Feature", "id": 355, "geometry": {"type": "LineString", "coordinates": [[-86.001168, 36.291565], [-85.99528, 36.29261]]}, "properties": {"OBJECTID": 355, "Vertical_Clearance": "32.9", "Vertical_Datum": "", "Waterway_Distance": "302.3", "Horizontal_Units": "Statute Miles", "Object_Name": "", "Condition": "", "Information": "", "Scale_Minimum": 90000, "Source_Date": "20050412", "Source_Indication": "US,U3,USACE,LRN_GIS", "Source_Dataset": "U37CR221.000", "Feature_ID": "U3 1392979927 00001"}}, {"type": "Feature", "id": 356, "geometry": {"type": "LineString", "coordinates": [[-86.070363, 36.26281], [-86.068199, 36.259988]]}, "properties": {"OBJECTID": 356, "Vertical_Clearance": "11.6", "Vertical_Datum": "", "Waterway_Distance": "Unknown", "Horizontal_Units": "Statute Miles", "Object_Name": "", "Condition": "", "Information": "", "Scale_Minimum": 90000, "Source_Date": "20040930", "Source_Indication": "US,U3,USACE,LRN_GIS", "Source_Dataset": "U37CR221.000", "Feature_ID": "U3 1392979928 00001"}}, {"type": "Feature", "id": 357, "geometry": {"type": "LineString", "coordinates": [[-86.482152, 36.365993], [-86.481265, 36.365122]]}, "properties": {"OBJECTID": 357, "Vertical_Clearance": "Unknown", "Vertical_Datum": "", "Waterway_Distance": "Unknown", "Horizontal_Units": "Statute Miles", "Object_Name": "", "Condition": "", "Information": "", "Scale_Minimum": 90000, "Source_Date": "20040930", "Source_Indication": "US,U3,USACE,LRN_GIS", "Source_Dataset": "U37CR221.000", "Feature_ID": "U3 1392979929 00001"}}, {"type": "Feature", "id": 358, "geometry": {"type": "LineString", "coordinates": [[-86.47674, 36.363443], [-86.478693, 36.362622]]}, "properties": {"OBJECTID": 358, "Vertical_Clearance": "Unknown", "Vertical_Datum": "", "Waterway_Distance": "Unknown", "Horizontal_Units": "Statute Miles", "Object_Name": "", "Condition": "", "Information": "", "Scale_Minimum": 90000, "Source_Date": "20040930", "Source_Indication": "US,U3,USACE,LRN_GIS", "Source_Dataset": "U37CR221.000", "Feature_ID": "U3 1392979930 00001"}}, {"type": "Feature", "id": 359, "geometry": {"type": "LineString", "coordinates": [[-86.472419, 36.361493], [-86.471321, 36.360468]]}, "properties": {"OBJECTID": 359, "Vertical_Clearance": "Unknown", "Vertical_Datum": "", "Waterway_Distance": "Unknown", "Horizontal_Units": "Statute Miles", "Object_Name": "", "Condition": "", "Information": "", "Scale_Minimum": 90000, "Source_Date": "20040930", "Source_Indication": "US,U3,USACE,LRN_GIS", "Source_Dataset": "U37CR221.000", "Feature_ID": "U3 1392979931 00001"}}, {"type": "Feature", "id": 360, "geometry": {"type": "LineString", "coordinates": [[-86.321267, 36.291899], [-86.326433, 36.291779]]}, "properties": {"OBJECTID": 360, "Vertical_Clearance": "13.1", "Vertical_Datum": "", "Waterway_Distance": "Unknown", "Horizontal_Units": "Statute Miles", "Object_Name": "", "Condition": "", "Information": "", "Scale_Minimum": 90000, "Source_Date": "20050412", "Source_Indication": "US,U3,USACE,LRN_GIS", "Source_Dataset": "U37CR221.000", "Feature_ID": "U3 1392979932 00001"}}, {"type": "Feature", "id": 361, "geometry": {"type": "LineString", "coordinates": [[-86.070363, 36.26281], [-86.067687, 36.264134]]}, "properties": {"OBJECTID": 361, "Vertical_Clearance": "14.9", "Vertical_Datum": "", "Waterway_Distance": "Unknown", "Horizontal_Units": "Statute Miles", "Object_Name": "", "Condition": "", "Information": "", "Scale_Minimum": 90000, "Source_Date": "20040930", "Source_Indication": "US,U3,USACE,LRN_GIS", "Source_Dataset": "U37CR221.000", "Feature_ID": "U3 1392979933 00001"}}, {"type": "Feature", "id": 362, "geometry": {"type": "LineString", "coordinates": [[-86.374472, 36.289278], [-86.376479, 36.291782]]}, "properties": {"OBJECTID": 362, "Vertical_Clearance": "11.6", "Vertical_Datum": "", "Waterway_Distance": "Unknown", "Horizontal_Units": "Statute Miles", "Object_Name": "", "Condition": "", "Information": "", "Scale_Minimum": 90000, "Source_Date": "20050412", "Source_Indication": "US,U3,USACE,LRN_GIS", "Source_Dataset": "U37CR221.000", "Feature_ID": "U3 1392979934 00001"}}, {"type": "Feature", "id": 363, "geometry": {"type": "LineString", "coordinates": [[-86.359389, 36.27458], [-86.357505, 36.271833]]}, "properties": {"OBJECTID": 363, "Vertical_Clearance": "11.6", "Vertical_Datum": "", "Waterway_Distance": "Unknown", "Horizontal_Units": "Statute Miles", "Object_Name": "", "Condition": "", "Information": "", "Scale_Minimum": 90000, "Source_Date": "20050412", "Source_Indication": "US,U3,USACE,LRN_GIS", "Source_Dataset": "U37CR221.000", "Feature_ID": "U3 1392979935 00001"}}, {"type": "Feature", "id": 364, "geometry": {"type": "LineString", "coordinates": [[-86.398247, 36.312487], [-86.39995, 36.310804], [-86.402795, 36.308824], [-86.406095, 36.310101], [-86.408568, 36.31195], [-86.411388, 36.313974], [-86.413614, 36.316643], [-86.413926, 36.320054], [-86.415069, 36.32645], [-86.417497, 36.336251]]}, "properties": {"OBJECTID": 364, "Vertical_Clearance": "Unknown", "Vertical_Datum": "", "Waterway_Distance": "Unknown", "Horizontal_Units": "Statute Miles", "Object_Name": "", "Condition": "", "Information": "", "Scale_Minimum": 90000, "Source_Date": "20050412", "Source_Indication": "US,U3,USACE,LRN_GIS", "Source_Dataset": "U37CR221.000", "Feature_ID": "U3 1392979936 00001"}}, {"type": "Feature", "id": 365, "geometry": {"type": "LineString", "coordinates": [[-86.3865, 36.366793], [-86.389433, 36.365813]]}, "properties": {"OBJECTID": 365, "Vertical_Clearance": "Unknown", "Vertical_Datum": "", "Waterway_Distance": "Unknown", "Horizontal_Units": "Statute Miles", "Object_Name": "", "Condition": "", "Information": "", "Scale_Minimum": 90000, "Source_Date": "20040930", "Source_Indication": "US,U3,USACE,LRN_GIS", "Source_Dataset": "U37CR221.000", "Feature_ID": "U3 1392979937 00001"}}, {"type": "Feature", "id": 366, "geometry": {"type": "LineString", "coordinates": [[-86.520566, 36.351035], [-86.518161, 36.346648]]}, "properties": {"OBJECTID": 366, "Vertical_Clearance": "Unknown", "Vertical_Datum": "", "Waterway_Distance": "Unknown", "Horizontal_Units": "Statute Miles", "Object_Name": "", "Condition": "", "Information": "", "Scale_Minimum": 90000, "Source_Date": "20050412", "Source_Indication": "US,U3,USACE,LRN_GIS", "Source_Dataset": "U37CR221.000", "Feature_ID": "U3 1392979938 00001"}}, {"type": "Feature", "id": 367, "geometry": {"type": "LineString", "coordinates": [[-86.375708, 36.288904], [-86.377911, 36.289651]]}, "properties": {"OBJECTID": 367, "Vertical_Clearance": "11.6", "Vertical_Datum": "", "Waterway_Distance": "Unknown", "Horizontal_Units": "Statute Miles", "Object_Name": "", "Condition": "", "Information": "", "Scale_Minimum": 90000, "Source_Date": "20050412", "Source_Indication": "US,U3,USACE,LRN_GIS", "Source_Dataset": "U37CR221.000", "Feature_ID": "U3 1392979939 00001"}}, {"type": "Feature", "id": 368, "geometry": {"type": "LineString", "coordinates": [[-86.39995, 36.310804], [-86.398566, 36.312562], [-86.398292, 36.313496], [-86.399131, 36.314093]]}, "properties": {"OBJECTID": 368, "Vertical_Clearance": "Unknown", "Vertical_Datum": "", "Waterway_Distance": "Unknown", "Horizontal_Units": "Statute Miles", "Object_Name": "", "Condition": "", "Information": "", "Scale_Minimum": 90000, "Source_Date": "20050412", "Source_Indication": "US,U3,USACE,LRN_GIS", "Source_Dataset": "U37CR221.000", "Feature_ID": "U3 1392979940 00001"}}, {"type": "Feature", "id": 369, "geometry": {"type": "LineString", "coordinates": [[-86.374705, 36.289085], [-86.377244, 36.291128]]}, "properties": {"OBJECTID": 369, "Vertical_Clearance": "11.6", "Vertical_Datum": "", "Waterway_Distance": "Unknown", "Horizontal_Units": "Statute Miles", "Object_Name": "", "Condition": "", "Information": "", "Scale_Minimum": 90000, "Source_Date": "20050412", "Source_Indication": "US,U3,USACE,LRN_GIS", "Source_Dataset": "U37CR221.000", "Feature_ID": "U3 1392979941 00001"}}, {"type": "Feature", "id": 370, "geometry": {"type": "LineString", "coordinates": [[-86.375599, 36.289242], [-86.378825, 36.290322]]}, "properties": {"OBJECTID": 370, "Vertical_Clearance": "11.6", "Vertical_Datum": "", "Waterway_Distance": "Unknown", "Horizontal_Units": "Statute Miles", "Object_Name": "", "Condition": "", "Information": "", "Scale_Minimum": 90000, "Source_Date": "20050412", "Source_Indication": "US,U3,USACE,LRN_GIS", "Source_Dataset": "U37CR221.000", "Feature_ID": "U3 1392979942 00001"}}, {"type": "Feature", "id": 371, "geometry": {"type": "LineString", "coordinates": [[-86.389454, 36.365857], [-86.386525, 36.366825]]}, "properties": {"OBJECTID": 371, "Vertical_Clearance": "Unknown", "Vertical_Datum": "", "Waterway_Distance": "Unknown", "Horizontal_Units": "Statute Miles", "Object_Name": "", "Condition": "", "Information": "", "Scale_Minimum": 90000, "Source_Date": "20040930", "Source_Indication": "US,U3,USACE,LRN_GIS", "Source_Dataset": "U37CR221.000", "Feature_ID": "U3 1392979943 00001"}}, {"type": "Feature", "id": 372, "geometry": {"type": "LineString", "coordinates": [[-85.954433, 36.25013], [-85.956671, 36.248162]]}, "properties": {"OBJECTID": 372, "Vertical_Clearance": "30.5", "Vertical_Datum": "", "Waterway_Distance": "308.2", "Horizontal_Units": "Statute Miles", "Object_Name": "", "Condition": "", "Information": "", "Scale_Minimum": 90000, "Source_Date": "20050414", "Source_Indication": "US,U3,USACE,LRN_GIS", "Source_Dataset": "U37CR307.000", "Feature_ID": "U3 1392989947 00001"}}, {"type": "Feature", "id": 373, "geometry": {"type": "LineString", "coordinates": [[-85.960156, 36.266596], [-85.960691, 36.266262], [-85.961222, 36.265743], [-85.962804, 36.264577], [-85.960758, 36.260426], [-85.960422, 36.258394], [-85.960981, 36.256042]]}, "properties": {"OBJECTID": 373, "Vertical_Clearance": "30.2", "Vertical_Datum": "", "Waterway_Distance": "307", "Horizontal_Units": "Statute Miles", "Object_Name": "", "Condition": "", "Information": "", "Scale_Minimum": 90000, "Source_Date": "20050414", "Source_Indication": "US,U3,USACE,LRN_GIS", "Source_Dataset": "U37CR307.000", "Feature_ID": "U3 1392990022 00001"}}, {"type": "Feature", "id": 382, "geometry": {"type": "LineString", "coordinates": [[-85.947098, 36.29042], [-85.942498, 36.293388]]}, "properties": {"OBJECTID": 382, "Vertical_Clearance": "30.2", "Vertical_Datum": "", "Waterway_Distance": "313.6", "Horizontal_Units": "Statute Miles", "Object_Name": "", "Condition": "", "Information": "", "Scale_Minimum": 90000, "Source_Date": "20050414", "Source_Indication": "US,U3,USACE,LRN_GIS", "Source_Dataset": "U37CR307.000", "Feature_ID": "U3 1392990153 00001"}}, {"type": "Feature", "id": 383, "geometry": {"type": "LineString", "coordinates": [[-85.94199, 36.243951], [-85.942248, 36.2416], [-85.943075, 36.238789]]}, "properties": {"OBJECTID": 383, "Vertical_Clearance": "34.7", "Vertical_Datum": "", "Waterway_Distance": "309.2", "Horizontal_Units": "Statute Miles", "Object_Name": "", "Condition": "", "Information": "", "Scale_Minimum": 90000, "Source_Date": "20050414", "Source_Indication": "US,U3,USACE,LRN_GIS", "Source_Dataset": "U37CR307.000", "Feature_ID": "U3 1392990204 00001"}}, {"type": "Feature", "id": 385, "geometry": {"type": "LineString", "coordinates": [[-85.946789, 36.283628], [-85.943225, 36.282279], [-85.935705, 36.284756], [-85.930928, 36.286364], [-85.928172, 36.283791], [-85.918422, 36.274974], [-85.917333, 36.273597], [-85.914813, 36.270863], [-85.911651, 36.267274], [-85.909683, 36.265122], [-85.905839, 36.260689], [-85.902506, 36.258417], [-85.893363, 36.251993], [-85.885898, 36.246695], [-85.876349, 36.244744]]}, "properties": {"OBJECTID": 385, "Vertical_Clearance": "32.9", "Vertical_Datum": "", "Waterway_Distance": "312.9", "Horizontal_Units": "Statute Miles", "Object_Name": "", "Condition": "", "Information": "", "Scale_Minimum": 90000, "Source_Date": "20050414", "Source_Indication": "US,U3,USACE,LRN_GIS", "Source_Dataset": "U37CR307.000", "Feature_ID": "U3 1392990374 00001"}}]}