{"type": "FeatureCollection", "features": [{"type": "Feature", "id": 393, "geometry": {"type": "Point", "coordinates": [-86.65596459999995, 36.29509290000004]}, "properties": {"OBJECTID": 393, "Object_Name": "Old Hickory Lock & Dam  (216.2)", "Information": "", "Condition": "", "Scale_Minimum": 60000, "Source_Date": "20131113", "Source_Indication": "US,U3,SURVY,2013_SEAS_LIDAR_Mapping_Survey", "Source_Dataset": "U37CR149.000", "Festure_ID": null}}, {"type": "Feature", "id": 399, "geometry": {"type": "Point", "coordinates": [-86.65488569999997, 36.29509020000006]}, "properties": {"OBJECTID": 399, "Object_Name": "Old Hickory Lock & Dam  (216.2)", "Information": "", "Condition": "", "Scale_Minimum": 60000, "Source_Date": "20131113", "Source_Indication": "US,U3,SURVY,2013_SEAS_LIDAR_Mapping_Survey", "Source_Dataset": "U37CR149.000", "Festure_ID": null}}, {"type": "Feature", "id": 400, "geometry": {"type": "Point", "coordinates": [-86.65868809999995, 36.297252300000025]}, "properties": {"OBJECTID": 400, "Object_Name": "Old Hickory Lock & Dam  (216.2)", "Information": "", "Condition": "", "Scale_Minimum": 60000, "Source_Date": "20131113", "Source_Indication": "US,U3,SURVY,2013_SEAS_LIDAR_Mapping_Survey", "Source_Dataset": "U37CR149.000", "Festure_ID": null}}, {"type": "Feature", "id": 402, "geometry": {"type": "Point", "coordinates": [-86.65817439999995, 36.296527800000035]}, "properties": {"OBJECTID": 402, "Object_Name": "Old Hickory Lock & Dam  (216.2)", "Information": "", "Condition": "", "Scale_Minimum": 60000, "Source_Date": "20131113", "Source_Indication": "US,U3,SURVY,2013_SEAS_LIDAR_Mapping_Survey", "Source_Dataset": "U37CR149.000", "Festure_ID": null}}, {"type": "Feature", "id": 414, "geometry": {"type": "Point", "coordinates": [-86.63624969999995, 36.24996050000004]}, "properties": {"OBJECTID": 414, "Object_Name": "Lakewood Marina Lt. (219.9)", "Information": "", "Condition": "", "Scale_Minimum": 60000, "Source_Date": "20100828", "Source_Indication": "US,U3,SURVY,Seaside_Engineering_&_Surveying,_Inc.", "Source_Dataset": "U37CR149.000", "Festure_ID": null}}, {"type": "Feature", "id": 420, "geometry": {"type": "Point", "coordinates": [-86.63955019999997, 36.25328560000003]}, "properties": {"OBJECTID": 420, "Object_Name": "Lakewood Marina Lt. (219.9)", "Information": "", "Condition": "", "Scale_Minimum": 60000, "Source_Date": "20100828", "Source_Indication": "US,U3,SURVY,Seaside_Engineering_&_Surveying,_Inc.", "Source_Dataset": "U37CR149.000", "Festure_ID": null}}, {"type": "Feature", "id": 425, "geometry": {"type": "Point", "coordinates": [-86.63709069999999, 36.25215070000007]}, "properties": {"OBJECTID": 425, "Object_Name": "Lakewood Marina Lt. (219.9)", "Information": "", "Condition": "", "Scale_Minimum": 60000, "Source_Date": "20100828", "Source_Indication": "US,U3,SURVY,Seaside_Engineering_&_Surveying,_Inc.", "Source_Dataset": "U37CR149.000", "Festure_ID": null}}, {"type": "Feature", "id": 430, "geometry": {"type": "Point", "coordinates": [-86.63838659999999, 36.253192100000035]}, "properties": {"OBJECTID": 430, "Object_Name": "Lakewood Marina Lt. (219.9)", "Information": "", "Condition": "", "Scale_Minimum": 60000, "Source_Date": "20100828", "Source_Indication": "US,U3,SURVY,Seaside_Engineering_&_Surveying,_Inc.", "Source_Dataset": "U37CR149.000", "Festure_ID": null}}, {"type": "Feature", "id": 434, "geometry": {"type": "Point", "coordinates": [-86.38995889999995, 36.31665870000006]}, "properties": {"OBJECTID": 434, "Object_Name": "Gallatin Plant Dock Lt (244.1)", "Information": "", "Condition": "", "Scale_Minimum": 60000, "Source_Date": "20100829", "Source_Indication": "US,U3,SURVY,Seaside_Engineering_&_Surveying,_Inc.", "Source_Dataset": "U37CR221.000", "Festure_ID": null}}, {"type": "Feature", "id": 435, "geometry": {"type": "Point", "coordinates": [-86.41501449999998, 36.320563900000025]}, "properties": {"OBJECTID": 435, "Object_Name": "Unknown", "Information": "", "Condition": "", "Scale_Minimum": 60000, "Source_Date": "20100829", "Source_Indication": "US,U3,SURVY,Seaside_Engineering_&_Surveying,_Inc.", "Source_Dataset": "U37CR221.000", "Festure_ID": null}}, {"type": "Feature", "id": 436, "geometry": {"type": "Point", "coordinates": [-86.55906669999996, 36.27543680000008]}, "properties": {"OBJECTID": 436, "Object_Name": "Utility Intake Lt (225.2)", "Information": "", "Condition": "", "Scale_Minimum": 60000, "Source_Date": "20100829", "Source_Indication": "US,U3,SURVY,Seaside_Engineering_&_Surveying,_Inc.", "Source_Dataset": "U37CR221.000", "Festure_ID": null}}, {"type": "Feature", "id": 437, "geometry": {"type": "Point", "coordinates": [-86.38995339999997, 36.316153400000076]}, "properties": {"OBJECTID": 437, "Object_Name": "Gallatin Plant Dock Lt (244.1)", "Information": "", "Condition": "", "Scale_Minimum": 60000, "Source_Date": "20100829", "Source_Indication": "US,U3,SURVY,Seaside_Engineering_&_Surveying,_Inc.", "Source_Dataset": "U37CR221.000", "Festure_ID": null}}, {"type": "Feature", "id": 438, "geometry": {"type": "Point", "coordinates": [-86.38995359999996, 36.31558770000004]}, "properties": {"OBJECTID": 438, "Object_Name": "Gallatin Plant Dock Lt (244.1)", "Information": "", "Condition": "", "Scale_Minimum": 60000, "Source_Date": "20100829", "Source_Indication": "US,U3,SURVY,Seaside_Engineering_&_Surveying,_Inc.", "Source_Dataset": "U37CR221.000", "Festure_ID": null}}, {"type": "Feature", "id": 439, "geometry": {"type": "Point", "coordinates": [-86.49006059999994, 36.31115680000005]}, "properties": {"OBJECTID": 439, "Object_Name": "TVA Transmission Tower Lt (235.7)", "Information": "", "Condition": "", "Scale_Minimum": 60000, "Source_Date": "20100829", "Source_Indication": "US,U3,SURVY,Seaside_Engineering_&_Surveying,_Inc.", "Source_Dataset": "U37CR221.000", "Festure_ID": null}}, {"type": "Feature", "id": 440, "geometry": {"type": "Point", "coordinates": [-86.38996369999995, 36.31606640000007]}, "properties": {"OBJECTID": 440, "Object_Name": "Gallatin Plant Dock Lt (244.1)", "Information": "", "Condition": "", "Scale_Minimum": 60000, "Source_Date": "20100829", "Source_Indication": "US,U3,SURVY,Seaside_Engineering_&_Surveying,_Inc.", "Source_Dataset": "U37CR221.000", "Festure_ID": null}}, {"type": "Feature", "id": 441, "geometry": {"type": "Point", "coordinates": [-86.49025199999994, 36.31105940000003]}, "properties": {"OBJECTID": 441, "Object_Name": "TVA Transmission Tower Lt (235.7)", "Information": "", "Condition": "", "Scale_Minimum": 60000, "Source_Date": "20100829", "Source_Indication": "US,U3,SURVY,Seaside_Engineering_&_Surveying,_Inc.", "Source_Dataset": "U37CR221.000", "Festure_ID": null}}, {"type": "Feature", "id": 442, "geometry": {"type": "Point", "coordinates": [-86.38995809999994, 36.31630050000007]}, "properties": {"OBJECTID": 442, "Object_Name": "Gallatin Plant Dock Lt (244.1)", "Information": "", "Condition": "", "Scale_Minimum": 60000, "Source_Date": "20100829", "Source_Indication": "US,U3,SURVY,Seaside_Engineering_&_Surveying,_Inc.", "Source_Dataset": "U37CR221.000", "Festure_ID": null}}, {"type": "Feature", "id": 443, "geometry": {"type": "Point", "coordinates": [-86.49170059999994, 36.313510000000065]}, "properties": {"OBJECTID": 443, "Object_Name": "TVA Transmission Tower Lt (235.7)", "Information": "", "Condition": "", "Scale_Minimum": 60000, "Source_Date": "20100829", "Source_Indication": "US,U3,SURVY,Seaside_Engineering_&_Surveying,_Inc.", "Source_Dataset": "U37CR221.000", "Festure_ID": null}}, {"type": "Feature", "id": 444, "geometry": {"type": "Point", "coordinates": [-86.38995699999998, 36.316634100000044]}, "properties": {"OBJECTID": 444, "Object_Name": "Gallatin Plant Dock Lt (244.1)", "Information": "", "Condition": "", "Scale_Minimum": 60000, "Source_Date": "20100829", "Source_Indication": "US,U3,SURVY,Seaside_Engineering_&_Surveying,_Inc.", "Source_Dataset": "U37CR221.000", "Festure_ID": null}}, {"type": "Feature", "id": 445, "geometry": {"type": "Point", "coordinates": [-86.49188919999995, 36.31341420000007]}, "properties": {"OBJECTID": 445, "Object_Name": "TVA Transmission Tower Lt (235.7)", "Information": "", "Condition": "", "Scale_Minimum": 60000, "Source_Date": "20100829", "Source_Indication": "US,U3,SURVY,Seaside_Engineering_&_Surveying,_Inc.", "Source_Dataset": "U37CR221.000", "Festure_ID": null}}, {"type": "Feature", "id": 446, "geometry": {"type": "Point", "coordinates": [-86.38995429999994, 36.316324200000054]}, "properties": {"OBJECTID": 446, "Object_Name": "Gallatin Plant Dock Lt (244.1)", "Information": "", "Condition": "", "Scale_Minimum": 60000, "Source_Date": "20100829", "Source_Indication": "US,U3,SURVY,Seaside_Engineering_&_Surveying,_Inc.", "Source_Dataset": "U37CR221.000", "Festure_ID": null}}, {"type": "Feature", "id": 447, "geometry": {"type": "Point", "coordinates": [-86.38995309999996, 36.31561250000004]}, "properties": {"OBJECTID": 447, "Object_Name": "Gallatin Plant Dock Lt (244.1)", "Information": "", "Condition": "", "Scale_Minimum": 60000, "Source_Date": "20100829", "Source_Indication": "US,U3,SURVY,Seaside_Engineering_&_Surveying,_Inc.", "Source_Dataset": "U37CR221.000", "Festure_ID": null}}, {"type": "Feature", "id": 448, "geometry": {"type": "Point", "coordinates": [-85.94429129999997, 36.29177110000006]}, "properties": {"OBJECTID": 448, "Object_Name": "Cordell Hull Lock and Dam", "Information": "", "Condition": "", "Scale_Minimum": 60000, "Source_Date": "20140604", "Source_Indication": "US,U3,SURVY,2014_SEAS_LIDAR_Mapping_Survey", "Source_Dataset": "U37CR307.000", "Festure_ID": null}}, {"type": "Feature", "id": 449, "geometry": {"type": "Point", "coordinates": [-85.94324809999995, 36.291552800000034]}, "properties": {"OBJECTID": 449, "Object_Name": "Cordell Hull Lock and Dam", "Information": "", "Condition": "", "Scale_Minimum": 60000, "Source_Date": "20140604", "Source_Indication": "US,U3,SURVY,2014_SEAS_LIDAR_Mapping_Survey", "Source_Dataset": "U37CR307.000", "Festure_ID": null}}, {"type": "Feature", "id": 450, "geometry": {"type": "Point", "coordinates": [-85.94148639999997, 36.289669100000026]}, "properties": {"OBJECTID": 450, "Object_Name": "Cordell Hull Lock and Dam", "Information": "", "Condition": "", "Scale_Minimum": 60000, "Source_Date": "20140604", "Source_Indication": "US,U3,SURVY,2014_SEAS_LIDAR_Mapping_Survey", "Source_Dataset": "U37CR307.000", "Festure_ID": null}}, {"type": "Feature", "id": 451, "geometry": {"type": "Point", "coordinates": [-85.94120779999997, 36.28886550000004]}, "properties": {"OBJECTID": 451, "Object_Name": "Cordell Hull Lock and Dam", "Information": "", "Condition": "", "Scale_Minimum": 60000, "Source_Date": "20140604", "Source_Indication": "US,U3,SURVY,2014_SEAS_LIDAR_Mapping_Survey", "Source_Dataset": "U37CR307.000", "Festure_ID": null}}]}