{"type": "FeatureCollection", "features": [{"type": "Feature", "id": 902, "geometry": {"type": "Point", "coordinates": [-86.491865, 36.313529]}, "properties": {"OBJECTID": 902, "Category_of_Pylon": "Power Transmission Pylon/Pole", "Water_Level": "Always Dry", "Condition": "", "Information": "", "Scale_Minimum": 30000, "Source_Date": "20040930", "Source_Indication": "US,U3,USACE,LRN_GIS", "Source_Dataset": "U37CR221.000", "Feature_ID": "U3 1392979405 00001"}}, {"type": "Feature", "id": 904, "geometry": {"type": "Point", "coordinates": [-86.441204, 36.348492]}, "properties": {"OBJECTID": 904, "Category_of_Pylon": "Power Transmission Pylon/Pole", "Water_Level": "Always Dry", "Condition": "", "Information": "", "Scale_Minimum": 30000, "Source_Date": "20040930", "Source_Indication": "US,U3,USACE,LRN_GIS", "Source_Dataset": "U37CR221.000", "Feature_ID": "U3 1392979407 00001"}}, {"type": "Feature", "id": 906, "geometry": {"type": "Point", "coordinates": [-86.488916, 36.305166]}, "properties": {"OBJECTID": 906, "Category_of_Pylon": "Power Transmission Pylon/Pole", "Water_Level": "Always Dry", "Condition": "", "Information": "", "Scale_Minimum": 30000, "Source_Date": "20040930", "Source_Indication": "US,U3,USACE,LRN_GIS", "Source_Dataset": "U37CR221.000", "Feature_ID": "U3 1392979409 00001"}}, {"type": "Feature", "id": 908, "geometry": {"type": "Point", "coordinates": [-86.476775, 36.356992]}, "properties": {"OBJECTID": 908, "Category_of_Pylon": "Power Transmission Pylon/Pole", "Water_Level": "Always Dry", "Condition": "", "Information": "", "Scale_Minimum": 30000, "Source_Date": "20040930", "Source_Indication": "US,U3,USACE,LRN_GIS", "Source_Dataset": "U37CR221.000", "Feature_ID": "U3 1392979411 00001"}}, {"type": "Feature", "id": 912, "geometry": {"type": "Point", "coordinates": [-86.49501, 36.318031]}, "properties": {"OBJECTID": 912, "Category_of_Pylon": "Power Transmission Pylon/Pole", "Water_Level": "Always Dry", "Condition": "", "Information": "", "Scale_Minimum": 30000, "Source_Date": "20040930", "Source_Indication": "US,U3,USACE,LRN_GIS", "Source_Dataset": "U37CR221.000", "Feature_ID": "U3 1392979415 00001"}}, {"type": "Feature", "id": 919, "geometry": {"type": "Point", "coordinates": [-86.520111, 36.350183]}, "properties": {"OBJECTID": 919, "Category_of_Pylon": "Power Transmission Pylon/Pole", "Water_Level": "Always Dry", "Condition": "", "Information": "", "Scale_Minimum": 30000, "Source_Date": "20040930", "Source_Indication": "US,U3,USACE,LRN_GIS", "Source_Dataset": "U37CR221.000", "Feature_ID": "U3 1392979422 00001"}}, {"type": "Feature", "id": 921, "geometry": {"type": "Point", "coordinates": [-86.448957, 36.350045]}, "properties": {"OBJECTID": 921, "Category_of_Pylon": "Power Transmission Pylon/Pole", "Water_Level": "Always Dry", "Condition": "", "Information": "", "Scale_Minimum": 30000, "Source_Date": "20040930", "Source_Indication": "US,U3,USACE,LRN_GIS", "Source_Dataset": "U37CR221.000", "Feature_ID": "U3 1392979424 00001"}}, {"type": "Feature", "id": 928, "geometry": {"type": "Point", "coordinates": [-86.476763, 36.35708]}, "properties": {"OBJECTID": 928, "Category_of_Pylon": "Power Transmission Pylon/Pole", "Water_Level": "Always Dry", "Condition": "", "Information": "", "Scale_Minimum": 30000, "Source_Date": "20040930", "Source_Indication": "US,U3,USACE,LRN_GIS", "Source_Dataset": "U37CR221.000", "Feature_ID": "U3 1392979431 00001"}}, {"type": "Feature", "id": 931, "geometry": {"type": "Point", "coordinates": [-86.517544, 36.33981]}, "properties": {"OBJECTID": 931, "Category_of_Pylon": "Power Transmission Pylon/Pole", "Water_Level": "Always Dry", "Condition": "", "Information": "", "Scale_Minimum": 30000, "Source_Date": "20040930", "Source_Indication": "US,U3,USACE,LRN_GIS", "Source_Dataset": "U37CR221.000", "Feature_ID": "U3 1392979434 00001"}}, {"type": "Feature", "id": 932, "geometry": {"type": "Point", "coordinates": [-86.495648, 36.266828]}, "properties": {"OBJECTID": 932, "Category_of_Pylon": "Power Transmission Pylon/Pole", "Water_Level": "Always Dry", "Condition": "", "Information": "", "Scale_Minimum": 30000, "Source_Date": "20040930", "Source_Indication": "US,U3,USACE,LRN_GIS", "Source_Dataset": "U37CR221.000", "Feature_ID": "U3 1392979435 00001"}}, {"type": "Feature", "id": 943, "geometry": {"type": "Point", "coordinates": [-86.515803, 36.255348]}, "properties": {"OBJECTID": 943, "Category_of_Pylon": "Power Transmission Pylon/Pole", "Water_Level": "Always Dry", "Condition": "", "Information": "", "Scale_Minimum": 30000, "Source_Date": "20040930", "Source_Indication": "US,U3,USACE,LRN_GIS", "Source_Dataset": "U37CR221.000", "Feature_ID": "U3 1392979446 00001"}}, {"type": "Feature", "id": 963, "geometry": {"type": "Point", "coordinates": [-86.614331, 36.305565]}, "properties": {"OBJECTID": 963, "Category_of_Pylon": "Power Transmission Pylon/Pole", "Water_Level": "Always Dry", "Condition": "", "Information": "", "Scale_Minimum": 30000, "Source_Date": "20040930", "Source_Indication": "US,U3,USACE,LRN_GIS", "Source_Dataset": "U37CR221.000", "Feature_ID": "U3 1392979466 00001"}}, {"type": "Feature", "id": 971, "geometry": {"type": "Point", "coordinates": [-86.489078, 36.307553]}, "properties": {"OBJECTID": 971, "Category_of_Pylon": "Power Transmission Pylon/Pole", "Water_Level": "Always Dry", "Condition": "", "Information": "", "Scale_Minimum": 30000, "Source_Date": "20040930", "Source_Indication": "US,U3,USACE,LRN_GIS", "Source_Dataset": "U37CR221.000", "Feature_ID": "U3 1392979474 00001"}}, {"type": "Feature", "id": 973, "geometry": {"type": "Point", "coordinates": [-86.494299, 36.317003]}, "properties": {"OBJECTID": 973, "Category_of_Pylon": "Power Transmission Pylon/Pole", "Water_Level": "Always Dry", "Condition": "", "Information": "", "Scale_Minimum": 30000, "Source_Date": "20040930", "Source_Indication": "US,U3,USACE,LRN_GIS", "Source_Dataset": "U37CR221.000", "Feature_ID": "U3 1392979478 00001"}}, {"type": "Feature", "id": 990, "geometry": {"type": "Point", "coordinates": [-86.495419, 36.264732]}, "properties": {"OBJECTID": 990, "Category_of_Pylon": "Power Transmission Pylon/Pole", "Water_Level": "Always Dry", "Condition": "", "Information": "", "Scale_Minimum": 30000, "Source_Date": "20040930", "Source_Indication": "US,U3,USACE,LRN_GIS", "Source_Dataset": "U37CR221.000", "Feature_ID": "U3 1392979501 00001"}}, {"type": "Feature", "id": 992, "geometry": {"type": "Point", "coordinates": [-86.515861, 36.255256]}, "properties": {"OBJECTID": 992, "Category_of_Pylon": "Power Transmission Pylon/Pole", "Water_Level": "Always Dry", "Condition": "", "Information": "", "Scale_Minimum": 30000, "Source_Date": "20040930", "Source_Indication": "US,U3,USACE,LRN_GIS", "Source_Dataset": "U37CR221.000", "Feature_ID": "U3 1392979503 00001"}}, {"type": "Feature", "id": 1011, "geometry": {"type": "Point", "coordinates": [-86.448587, 36.351102]}, "properties": {"OBJECTID": 1011, "Category_of_Pylon": "Power Transmission Pylon/Pole", "Water_Level": "Always Dry", "Condition": "", "Information": "", "Scale_Minimum": 30000, "Source_Date": "20040930", "Source_Indication": "US,U3,USACE,LRN_GIS", "Source_Dataset": "U37CR221.000", "Feature_ID": "U3 1392980177 00001"}}, {"type": "Feature", "id": 1020, "geometry": {"type": "Point", "coordinates": [-86.517136, 36.342333]}, "properties": {"OBJECTID": 1020, "Category_of_Pylon": "Power Transmission Pylon/Pole", "Water_Level": "Always Dry", "Condition": "", "Information": "", "Scale_Minimum": 30000, "Source_Date": "20040930", "Source_Indication": "US,U3,USACE,LRN_GIS", "Source_Dataset": "U37CR221.000", "Feature_ID": "U3 1392980201 00001"}}, {"type": "Feature", "id": 1022, "geometry": {"type": "Point", "coordinates": [-86.484917, 36.357493]}, "properties": {"OBJECTID": 1022, "Category_of_Pylon": "Power Transmission Pylon/Pole", "Water_Level": "Always Dry", "Condition": "", "Information": "", "Scale_Minimum": 30000, "Source_Date": "20040930", "Source_Indication": "US,U3,USACE,LRN_GIS", "Source_Dataset": "U37CR221.000", "Feature_ID": "U3 1392980203 00001"}}, {"type": "Feature", "id": 1023, "geometry": {"type": "Point", "coordinates": [-86.447952, 36.352857]}, "properties": {"OBJECTID": 1023, "Category_of_Pylon": "Power Transmission Pylon/Pole", "Water_Level": "Always Dry", "Condition": "", "Information": "", "Scale_Minimum": 30000, "Source_Date": "20040930", "Source_Indication": "US,U3,USACE,LRN_GIS", "Source_Dataset": "U37CR221.000", "Feature_ID": "U3 1392980204 00001"}}, {"type": "Feature", "id": 1024, "geometry": {"type": "Point", "coordinates": [-86.464107, 36.355554]}, "properties": {"OBJECTID": 1024, "Category_of_Pylon": "Power Transmission Pylon/Pole", "Water_Level": "Always Dry", "Condition": "", "Information": "", "Scale_Minimum": 30000, "Source_Date": "20040930", "Source_Indication": "US,U3,USACE,LRN_GIS", "Source_Dataset": "U37CR221.000", "Feature_ID": "U3 1392980205 00001"}}, {"type": "Feature", "id": 1029, "geometry": {"type": "Point", "coordinates": [-86.518631, 36.347522]}, "properties": {"OBJECTID": 1029, "Category_of_Pylon": "Power Transmission Pylon/Pole", "Water_Level": "Always Dry", "Condition": "", "Information": "", "Scale_Minimum": 30000, "Source_Date": "20040930", "Source_Indication": "US,U3,USACE,LRN_GIS", "Source_Dataset": "U37CR221.000", "Feature_ID": "U3 1392980210 00001"}}, {"type": "Feature", "id": 1044, "geometry": {"type": "Point", "coordinates": [-86.518312, 36.25534]}, "properties": {"OBJECTID": 1044, "Category_of_Pylon": "Power Transmission Pylon/Pole", "Water_Level": "Always Dry", "Condition": "", "Information": "", "Scale_Minimum": 30000, "Source_Date": "20040930", "Source_Indication": "US,U3,USACE,LRN_GIS", "Source_Dataset": "U37CR221.000", "Feature_ID": "U3 1392980225 00001"}}, {"type": "Feature", "id": 1056, "geometry": {"type": "Point", "coordinates": [-86.614294, 36.305945]}, "properties": {"OBJECTID": 1056, "Category_of_Pylon": "Power Transmission Pylon/Pole", "Water_Level": "Always Dry", "Condition": "", "Information": "", "Scale_Minimum": 30000, "Source_Date": "20040930", "Source_Indication": "US,U3,USACE,LRN_GIS", "Source_Dataset": "U37CR221.000", "Feature_ID": "U3 1392980237 00001"}}, {"type": "Feature", "id": 1062, "geometry": {"type": "Point", "coordinates": [-86.50038, 36.318559]}, "properties": {"OBJECTID": 1062, "Category_of_Pylon": "Power Transmission Pylon/Pole", "Water_Level": "Always Dry", "Condition": "", "Information": "", "Scale_Minimum": 30000, "Source_Date": "20040930", "Source_Indication": "US,U3,USACE,LRN_GIS", "Source_Dataset": "U37CR221.000", "Feature_ID": "U3 1392980243 00001"}}, {"type": "Feature", "id": 1069, "geometry": {"type": "Point", "coordinates": [-86.489252, 36.309825]}, "properties": {"OBJECTID": 1069, "Category_of_Pylon": "Power Transmission Pylon/Pole", "Water_Level": "Always Dry", "Condition": "", "Information": "", "Scale_Minimum": 30000, "Source_Date": "20040930", "Source_Indication": "US,U3,USACE,LRN_GIS", "Source_Dataset": "U37CR221.000", "Feature_ID": "U3 1392980250 00001"}}, {"type": "Feature", "id": 1071, "geometry": {"type": "Point", "coordinates": [-86.516842, 36.344347]}, "properties": {"OBJECTID": 1071, "Category_of_Pylon": "Power Transmission Pylon/Pole", "Water_Level": "Always Dry", "Condition": "", "Information": "", "Scale_Minimum": 30000, "Source_Date": "20040930", "Source_Indication": "US,U3,USACE,LRN_GIS", "Source_Dataset": "U37CR221.000", "Feature_ID": "U3 1392980252 00001"}}, {"type": "Feature", "id": 1076, "geometry": {"type": "Point", "coordinates": [-86.445625, 36.349378]}, "properties": {"OBJECTID": 1076, "Category_of_Pylon": "Power Transmission Pylon/Pole", "Water_Level": "Always Dry", "Condition": "", "Information": "", "Scale_Minimum": 30000, "Source_Date": "20040930", "Source_Indication": "US,U3,USACE,LRN_GIS", "Source_Dataset": "U37CR221.000", "Feature_ID": "U3 1392980257 00001"}}, {"type": "Feature", "id": 1087, "geometry": {"type": "Point", "coordinates": [-86.452228, 36.351242]}, "properties": {"OBJECTID": 1087, "Category_of_Pylon": "Power Transmission Pylon/Pole", "Water_Level": "Always Dry", "Condition": "", "Information": "", "Scale_Minimum": 30000, "Source_Date": "20040930", "Source_Indication": "US,U3,USACE,LRN_GIS", "Source_Dataset": "U37CR221.000", "Feature_ID": "U3 1392980268 00001"}}, {"type": "Feature", "id": 1090, "geometry": {"type": "Point", "coordinates": [-86.480351, 36.357463]}, "properties": {"OBJECTID": 1090, "Category_of_Pylon": "Power Transmission Pylon/Pole", "Water_Level": "Always Dry", "Condition": "", "Information": "", "Scale_Minimum": 30000, "Source_Date": "20040930", "Source_Indication": "US,U3,USACE,LRN_GIS", "Source_Dataset": "U37CR221.000", "Feature_ID": "U3 1392980271 00001"}}, {"type": "Feature", "id": 1104, "geometry": {"type": "Point", "coordinates": [-86.468219, 36.356043]}, "properties": {"OBJECTID": 1104, "Category_of_Pylon": "Power Transmission Pylon/Pole", "Water_Level": "Always Dry", "Condition": "", "Information": "", "Scale_Minimum": 30000, "Source_Date": "20040930", "Source_Indication": "US,U3,USACE,LRN_GIS", "Source_Dataset": "U37CR221.000", "Feature_ID": "U3 1392980285 00001"}}, {"type": "Feature", "id": 1121, "geometry": {"type": "Point", "coordinates": [-86.518309, 36.255367]}, "properties": {"OBJECTID": 1121, "Category_of_Pylon": "Power Transmission Pylon/Pole", "Water_Level": "Always Dry", "Condition": "", "Information": "", "Scale_Minimum": 30000, "Source_Date": "20040930", "Source_Indication": "US,U3,USACE,LRN_GIS", "Source_Dataset": "U37CR221.000", "Feature_ID": "U3 1392980302 00001"}}, {"type": "Feature", "id": 1123, "geometry": {"type": "Point", "coordinates": [-86.613592, 36.30567]}, "properties": {"OBJECTID": 1123, "Category_of_Pylon": "Power Transmission Pylon/Pole", "Water_Level": "Always Dry", "Condition": "", "Information": "", "Scale_Minimum": 30000, "Source_Date": "20040930", "Source_Indication": "US,U3,USACE,LRN_GIS", "Source_Dataset": "U37CR221.000", "Feature_ID": "U3 1392980304 00001"}}, {"type": "Feature", "id": 1127, "geometry": {"type": "Point", "coordinates": [-86.497702, 36.318294]}, "properties": {"OBJECTID": 1127, "Category_of_Pylon": "Power Transmission Pylon/Pole", "Water_Level": "Always Dry", "Condition": "", "Information": "", "Scale_Minimum": 30000, "Source_Date": "20040930", "Source_Indication": "US,U3,USACE,LRN_GIS", "Source_Dataset": "U37CR221.000", "Feature_ID": "U3 1392980308 00001"}}, {"type": "Feature", "id": 1128, "geometry": {"type": "Point", "coordinates": [-86.488769, 36.303263]}, "properties": {"OBJECTID": 1128, "Category_of_Pylon": "Power Transmission Pylon/Pole", "Water_Level": "Always Dry", "Condition": "", "Information": "", "Scale_Minimum": 30000, "Source_Date": "20040930", "Source_Indication": "US,U3,USACE,LRN_GIS", "Source_Dataset": "U37CR221.000", "Feature_ID": "U3 1392980309 00001"}}, {"type": "Feature", "id": 1130, "geometry": {"type": "Point", "coordinates": [-86.449466, 36.350019]}, "properties": {"OBJECTID": 1130, "Category_of_Pylon": "Power Transmission Pylon/Pole", "Water_Level": "Always Dry", "Condition": "", "Information": "", "Scale_Minimum": 30000, "Source_Date": "20040930", "Source_Indication": "US,U3,USACE,LRN_GIS", "Source_Dataset": "U37CR221.000", "Feature_ID": "U3 1392980311 00001"}}, {"type": "Feature", "id": 1132, "geometry": {"type": "Point", "coordinates": [-86.472608, 36.356515]}, "properties": {"OBJECTID": 1132, "Category_of_Pylon": "Power Transmission Pylon/Pole", "Water_Level": "Always Dry", "Condition": "", "Information": "", "Scale_Minimum": 30000, "Source_Date": "20040930", "Source_Indication": "US,U3,USACE,LRN_GIS", "Source_Dataset": "U37CR221.000", "Feature_ID": "U3 1392980313 00001"}}, {"type": "Feature", "id": 1139, "geometry": {"type": "Point", "coordinates": [-86.490106, 36.311019]}, "properties": {"OBJECTID": 1139, "Category_of_Pylon": "Power Transmission Pylon/Pole", "Water_Level": "Always Dry", "Condition": "", "Information": "", "Scale_Minimum": 30000, "Source_Date": "20040930", "Source_Indication": "US,U3,USACE,LRN_GIS", "Source_Dataset": "U37CR221.000", "Feature_ID": "U3 1392980320 00001"}}, {"type": "Feature", "id": 1149, "geometry": {"type": "Point", "coordinates": [-86.472572, 36.356595]}, "properties": {"OBJECTID": 1149, "Category_of_Pylon": "Power Transmission Pylon/Pole", "Water_Level": "Always Dry", "Condition": "", "Information": "", "Scale_Minimum": 30000, "Source_Date": "20040930", "Source_Indication": "US,U3,USACE,LRN_GIS", "Source_Dataset": "U37CR221.000", "Feature_ID": "U3 1392980330 00001"}}, {"type": "Feature", "id": 1150, "geometry": {"type": "Point", "coordinates": [-86.521213, 36.352133]}, "properties": {"OBJECTID": 1150, "Category_of_Pylon": "Power Transmission Pylon/Pole", "Water_Level": "Always Dry", "Condition": "", "Information": "", "Scale_Minimum": 30000, "Source_Date": "20040930", "Source_Indication": "US,U3,USACE,LRN_GIS", "Source_Dataset": "U37CR221.000", "Feature_ID": "U3 1392980331 00001"}}, {"type": "Feature", "id": 1153, "geometry": {"type": "Point", "coordinates": [-86.448658, 36.349861]}, "properties": {"OBJECTID": 1153, "Category_of_Pylon": "Power Transmission Pylon/Pole", "Water_Level": "Always Dry", "Condition": "", "Information": "", "Scale_Minimum": 30000, "Source_Date": "20040930", "Source_Indication": "US,U3,USACE,LRN_GIS", "Source_Dataset": "U37CR221.000", "Feature_ID": "U3 1392980334 00001"}}, {"type": "Feature", "id": 1157, "geometry": {"type": "Point", "coordinates": [-86.517683, 36.345854]}, "properties": {"OBJECTID": 1157, "Category_of_Pylon": "Power Transmission Pylon/Pole", "Water_Level": "Always Dry", "Condition": "", "Information": "", "Scale_Minimum": 30000, "Source_Date": "20040930", "Source_Indication": "US,U3,USACE,LRN_GIS", "Source_Dataset": "U37CR221.000", "Feature_ID": "U3 1392980338 00001"}}]}