{"type": "FeatureCollection", "features": [{"type": "Feature", "id": 1235, "geometry": {"type": "Polygon", "coordinates": [[[-86.490053, 36.311158], [-86.490252, 36.311066], [-86.490134, 36.310898], [-86.489935, 36.31099], [-86.490053, 36.311158]]]}, "properties": {"OBJECTID": 1235, "Category_of_Pylon": "Power Transmission Pylon/Pole", "Water_Level": "Always Dry", "Condition": "", "Scale_Minimum": 30000, "Source_Date": "20040930", "Source_Indication": "US,U3,USACE,LRN_GIS", "Information": "", "Source_Dataset": "U37CR221.000", "Feature_ID": "U3 1392981112 00001"}}, {"type": "Feature", "id": 1236, "geometry": {"type": "Polygon", "coordinates": [[[-86.49169, 36.313501], [-86.49181, 36.313669], [-86.492016, 36.313572], [-86.491896, 36.313404], [-86.49169, 36.313501]]]}, "properties": {"OBJECTID": 1236, "Category_of_Pylon": "Power Transmission Pylon/Pole", "Water_Level": "Always Dry", "Condition": "", "Scale_Minimum": 30000, "Source_Date": "20040930", "Source_Indication": "US,U3,USACE,LRN_GIS", "Information": "", "Source_Dataset": "U37CR221.000", "Feature_ID": "U3 1392981129 00001"}}]}