{"type": "FeatureCollection", "features": [{"type": "Feature", "id": 304, "geometry": {"type": "LineString", "coordinates": [[-86.687218, 36.290647], [-86.686018, 36.291002], [-86.685161, 36.291329], [-86.684253, 36.291833], [-86.683594, 36.292334], [-86.683168, 36.292742], [-86.682817, 36.293148], [-86.680553, 36.296205], [-86.679688, 36.297245], [-86.679023, 36.297935], [-86.678396, 36.298516], [-86.677657, 36.299129], [-86.677034, 36.29958]]}, "properties": {"OBJECTID": 304, "Object_Name": "L & N Railroad", "Information": "", "Scale_Minimum": 15000, "Source_Date": "20040930", "Source_Indication": "US,U3,USACE,LRN_GIS_Data", "Source_Dataset": "U37CR149.000", "Feature_ID": "U3 1392977086 00001"}}, {"type": "Feature", "id": 311, "geometry": {"type": "LineString", "coordinates": [[-86.677031, 36.299582], [-86.67644, 36.299954], [-86.675456, 36.300482], [-86.674567, 36.300887], [-86.673803, 36.301189], [-86.672623, 36.301598], [-86.668422, 36.302881]]}, "properties": {"OBJECTID": 311, "Object_Name": "L & N Railroad", "Information": "", "Scale_Minimum": 15000, "Source_Date": "20040930", "Source_Indication": "US,U3,USACE,LRN_GIS_Data", "Source_Dataset": "U37CR149.000", "Feature_ID": "U3 1392977092 00001"}}, {"type": "Feature", "id": 316, "geometry": {"type": "LineString", "coordinates": [[-86.393931, 36.323253], [-86.39404, 36.322989]]}, "properties": {"OBJECTID": 316, "Object_Name": "Seaboard System Railroad", "Information": "", "Scale_Minimum": 15000, "Source_Date": "20040930", "Source_Indication": "US,U3,USACE,LRN_GIS", "Source_Dataset": "U37CR221.000", "Feature_ID": "U3 1392979878 00001"}}, {"type": "Feature", "id": 317, "geometry": {"type": "LineString", "coordinates": [[-86.393773, 36.323537], [-86.393688, 36.323828]]}, "properties": {"OBJECTID": 317, "Object_Name": "Seaboard System Railroad", "Information": "", "Scale_Minimum": 15000, "Source_Date": "20040930", "Source_Indication": "US,U3,USACE,LRN_GIS", "Source_Dataset": "U37CR221.000", "Feature_ID": "U3 1392979880 00001"}}, {"type": "Feature", "id": 318, "geometry": {"type": "LineString", "coordinates": [[-86.393888, 36.32289], [-86.393773, 36.323537], [-86.393849, 36.323229]]}, "properties": {"OBJECTID": 318, "Object_Name": "Seaboard System Railroad", "Information": "", "Scale_Minimum": 15000, "Source_Date": "20040930", "Source_Indication": "US,U3,USACE,LRN_GIS", "Source_Dataset": "U37CR221.000", "Feature_ID": "U3 1392979884 00001"}}, {"type": "Feature", "id": 319, "geometry": {"type": "LineString", "coordinates": [[-86.418247, 36.333765], [-86.417455, 36.334263], [-86.417139, 36.334505], [-86.416727, 36.335075], [-86.416524, 36.335284], [-86.416156, 36.335492], [-86.415769, 36.335585]]}, "properties": {"OBJECTID": 319, "Object_Name": "", "Information": "", "Scale_Minimum": 15000, "Source_Date": "20040930", "Source_Indication": "US,U3,USACE,LRN_GIS", "Source_Dataset": "U37CR221.000", "Feature_ID": "U3 1392979887 00001"}}, {"type": "Feature", "id": 320, "geometry": {"type": "LineString", "coordinates": [[-86.394034, 36.322896], [-86.393931, 36.323253], [-86.393551, 36.324168], [-86.393483, 36.324436], [-86.393151, 36.327054], [-86.393125, 36.327906], [-86.393209, 36.328735], [-86.3934, 36.32954], [-86.394367, 36.332085]]}, "properties": {"OBJECTID": 320, "Object_Name": "Seaboard System Railroad", "Information": "", "Scale_Minimum": 15000, "Source_Date": "20040930", "Source_Indication": "US,U3,USACE,LRN_GIS", "Source_Dataset": "U37CR221.000", "Feature_ID": "U3 1392979890 00001"}}, {"type": "Feature", "id": 321, "geometry": {"type": "LineString", "coordinates": [[-86.393812, 36.32323], [-86.393847, 36.322883]]}, "properties": {"OBJECTID": 321, "Object_Name": "Seaboard System Railroad", "Information": "", "Scale_Minimum": 15000, "Source_Date": "20040930", "Source_Indication": "US,U3,USACE,LRN_GIS", "Source_Dataset": "U37CR221.000", "Feature_ID": "U3 1392979891 00001"}}, {"type": "Feature", "id": 322, "geometry": {"type": "LineString", "coordinates": [[-86.393806, 36.323547], [-86.394091, 36.323048]]}, "properties": {"OBJECTID": 322, "Object_Name": "Seaboard System Railroad", "Information": "", "Scale_Minimum": 15000, "Source_Date": "20040930", "Source_Indication": "US,U3,USACE,LRN_GIS", "Source_Dataset": "U37CR221.000", "Feature_ID": "U3 1392979892 00001"}}, {"type": "Feature", "id": 323, "geometry": {"type": "LineString", "coordinates": [[-86.393968, 36.322911], [-86.393849, 36.323229], [-86.39395, 36.322854]]}, "properties": {"OBJECTID": 323, "Object_Name": "Seaboard System Railroad", "Information": "", "Scale_Minimum": 15000, "Source_Date": "20040930", "Source_Indication": "US,U3,USACE,LRN_GIS", "Source_Dataset": "U37CR221.000", "Feature_ID": "U3 1392979899 00001"}}]}