{"type": "FeatureCollection", "features": [{"type": "Feature", "id": 82, "geometry": {"type": "LineString", "coordinates": [[-87.062315, 36.250128], [-87.050907, 36.244428], [-87.046305, 36.242415], [-87.043179, 36.241097], [-87.039619, 36.239498], [-87.036364, 36.237385], [-87.03566, 36.236757], [-87.03304, 36.234125], [-87.031654, 36.232385], [-87.030063, 36.230532], [-87.028179, 36.228686], [-87.027039, 36.227729], [-87.024505, 36.225773], [-87.021896, 36.224033], [-87.018547, 36.221871], [-87.012531, 36.218311], [-87.008645, 36.216488], [-87.006421, 36.215646], [-87.003071, 36.214504], [-86.999035, 36.213191], [-86.995304, 36.212163], [-86.992226, 36.211265], [-86.989803, 36.210678], [-86.984777, 36.209707], [-86.98116, 36.209174], [-86.977391, 36.208698], [-86.974479, 36.208432], [-86.971814, 36.208317], [-86.96913, 36.208279], [-86.967302, 36.208146], [-86.963781, 36.207651], [-86.957252, 36.206223], [-86.954491, 36.205729], [-86.951884, 36.205196], [-86.950056, 36.204701], [-86.948871, 36.204027], [-86.94701, 36.202759], [-86.94524, 36.201369], [-86.944136, 36.200246], [-86.942994, 36.198876], [-86.942042, 36.197524], [-86.941604, 36.196325], [-86.941319, 36.195259], [-86.941273, 36.193965], [-86.941338, 36.191909], [-86.94149, 36.190652], [-86.941852, 36.188654], [-86.942004, 36.187397], [-86.942137, 36.185741], [-86.942252, 36.183552], [-86.942261, 36.18176], [-86.942156, 36.179764], [-86.942023, 36.178032], [-86.941768, 36.176586], [-86.941661, 36.174529], [-86.941642, 36.172664], [-86.941666, 36.169543], [-86.941566, 36.166991], [-86.941433, 36.164726], [-86.941033, 36.161737], [-86.940519, 36.158768], [-86.940081, 36.155417], [-86.939777, 36.15437], [-86.93913, 36.153476], [-86.938064, 36.152372], [-86.93623, 36.150542], [-86.934471, 36.148976], [-86.932933, 36.147471], [-86.931787, 36.146199], [-86.928946, 36.142739], [-86.927594, 36.141255], [-86.926585, 36.140303], [-86.9255, 36.139637], [-86.924415, 36.139085], [-86.923121, 36.138476], [-86.921845, 36.138095], [-86.920138, 36.13764], [-86.9176, 36.137143], [-86.913926, 36.13661], [-86.908705, 36.135769], [-86.906342, 36.135645], [-86.904161, 36.13581], [-86.901629, 36.136363], [-86.900339, 36.136756], [-86.898355, 36.137543], [-86.89727, 36.138209], [-86.895976, 36.139199], [-86.894548, 36.140417], [-86.893558, 36.141426], [-86.89274, 36.142416], [-86.892169, 36.14333], [-86.891026, 36.145747], [-86.890455, 36.147651], [-86.88958, 36.150335], [-86.889028, 36.152162], [-86.88878, 36.153019], [-86.888666, 36.153685], [-86.888438, 36.155379], [-86.888133, 36.158082], [-86.888057, 36.159396], [-86.888209, 36.160652], [-86.888628, 36.162251], [-86.889028, 36.163241], [-86.889675, 36.16444], [-86.890646, 36.165792], [-86.891731, 36.167105], [-86.893368, 36.168895], [-86.895747, 36.171217], [-86.898945, 36.173787], [-86.902981, 36.176832], [-86.90399, 36.177765], [-86.905551, 36.179535], [-86.907473, 36.181896], [-86.910348, 36.18498], [-86.911087, 36.185857], [-86.911699, 36.186788], [-86.91227, 36.187873], [-86.912601, 36.18865], [-86.91286, 36.189643], [-86.91299, 36.191346], [-86.912898, 36.192289], [-86.912708, 36.193393], [-86.912023, 36.195297], [-86.910652, 36.197829], [-86.909891, 36.199104], [-86.909091, 36.200341], [-86.908368, 36.201369], [-86.907416, 36.202512], [-86.906369, 36.203673], [-86.905189, 36.204624], [-86.904161, 36.205367], [-86.902848, 36.206014], [-86.901896, 36.206433], [-86.901039, 36.206718], [-86.898964, 36.207023], [-86.895804, 36.206966], [-86.894263, 36.20668], [-86.892759, 36.206338], [-86.891255, 36.205881], [-86.889846, 36.205386], [-86.888019, 36.204644], [-86.884516, 36.20293], [-86.88267, 36.201807], [-86.881052, 36.200741], [-86.879453, 36.199618], [-86.877568, 36.198114], [-86.874437, 36.195402], [-86.873395, 36.194338], [-86.872486, 36.193298], [-86.871648, 36.192194], [-86.870248, 36.190227], [-86.869173, 36.188654], [-86.86727, 36.18576], [-86.866185, 36.184275], [-86.864814, 36.182105], [-86.863253, 36.179859], [-86.861654, 36.177746], [-86.860055, 36.175938], [-86.857029, 36.172949], [-86.85484, 36.171103], [-86.853888, 36.17036], [-86.85286, 36.169713], [-86.85109, 36.168704], [-86.850138, 36.168266], [-86.849005, 36.167794], [-86.847597, 36.167323], [-86.845169, 36.16682], [-86.844012, 36.166654], [-86.842961, 36.16661], [-86.842181, 36.166686], [-86.84121, 36.166839], [-86.840049, 36.167181], [-86.839345, 36.167657], [-86.838602, 36.168228], [-86.837898, 36.168856], [-86.837441, 36.169447], [-86.836013, 36.171502], [-86.834649, 36.173704], [-86.833691, 36.175785], [-86.832402, 36.179632], [-86.831978, 36.181363], [-86.830493, 36.186293], [-86.830074, 36.187473], [-86.829579, 36.18852], [-86.828742, 36.189815], [-86.82819, 36.190595], [-86.825848, 36.193298], [-86.824763, 36.194421], [-86.823678, 36.195468], [-86.822707, 36.196344], [-86.821508, 36.197277], [-86.819566, 36.198552], [-86.818196, 36.199295], [-86.81694, 36.199904], [-86.814446, 36.200951], [-86.811762, 36.20175], [-86.810486, 36.20196], [-86.809002, 36.20215], [-86.806832, 36.202283], [-86.804681, 36.202302], [-86.801521, 36.20215], [-86.795658, 36.201408], [-86.794135, 36.201027], [-86.792231, 36.200456], [-86.790994, 36.199961], [-86.789738, 36.199314], [-86.788519, 36.19859], [-86.78732, 36.197772], [-86.786292, 36.196915], [-86.785277, 36.196005], [-86.784217, 36.194688], [-86.783456, 36.193622], [-86.782871, 36.192506], [-86.782645, 36.191987], [-86.782447, 36.191242], [-86.782142, 36.188101], [-86.781876, 36.182791], [-86.78159, 36.179821], [-86.781343, 36.17826], [-86.780891, 36.17692], [-86.77864, 36.172854], [-86.777517, 36.170931], [-86.776831, 36.169504], [-86.774775, 36.165544], [-86.774033, 36.164174], [-86.773225, 36.163128], [-86.772415, 36.162289], [-86.771882, 36.161908], [-86.770567, 36.16114], [-86.769046, 36.160405], [-86.766857, 36.159453], [-86.765943, 36.159129], [-86.765222, 36.159007], [-86.763754, 36.158869], [-86.762022, 36.158855], [-86.759466, 36.15902], [-86.757338, 36.159335], [-86.75041, 36.160576], [-86.747459, 36.16128], [-86.741444, 36.162803], [-86.739579, 36.163203], [-86.737604, 36.163576], [-86.736099, 36.163821], [-86.729419, 36.164549], [-86.727472, 36.164669], [-86.725321, 36.164897], [-86.722542, 36.164916], [-86.721266, 36.164954], [-86.719648, 36.165163], [-86.716108, 36.166115], [-86.715061, 36.166553], [-86.713995, 36.166953], [-86.711996, 36.168076], [-86.710816, 36.168914], [-86.709464, 36.169961], [-86.708588, 36.170684], [-86.706533, 36.172606], [-86.701793, 36.178489], [-86.70067, 36.179745], [-86.698576, 36.181725], [-86.694502, 36.185094], [-86.69159, 36.188349], [-86.691114, 36.188996], [-86.690714, 36.189796], [-86.690409, 36.19069], [-86.690181, 36.19149], [-86.690181, 36.192327], [-86.690371, 36.193108], [-86.690752, 36.193888], [-86.69126, 36.194819], [-86.694255, 36.199047], [-86.695815, 36.201446], [-86.697433, 36.204244], [-86.698595, 36.206433], [-86.699946, 36.208774], [-86.701088, 36.21043], [-86.702421, 36.212144], [-86.705736, 36.216273], [-86.7063, 36.217329], [-86.706818, 36.218844], [-86.707389, 36.220691], [-86.707751, 36.221966], [-86.708047, 36.223485], [-86.708627, 36.225278], [-86.709036, 36.226353], [-86.709769, 36.228095], [-86.710655, 36.22996], [-86.711672, 36.231541], [-86.712491, 36.233083], [-86.712795, 36.23392], [-86.712909, 36.234568], [-86.712964, 36.2359], [-86.712852, 36.237252], [-86.712605, 36.238013], [-86.711843, 36.239479], [-86.711149, 36.240304], [-86.709431, 36.241931], [-86.706609, 36.24399], [-86.704887, 36.244858], [-86.70303, 36.245456], [-86.702097, 36.245589], [-86.694692, 36.24637], [-86.693379, 36.246332], [-86.691951, 36.246179], [-86.689629, 36.245494], [-86.687467, 36.244422], [-86.686678, 36.243971], [-86.685727, 36.243343], [-86.684527, 36.241896], [-86.684089, 36.241287], [-86.682586, 36.238089], [-86.681748, 36.236148], [-86.680771, 36.234332], [-86.678493, 36.229485], [-86.67815, 36.228153], [-86.677998, 36.22722], [-86.677827, 36.225792], [-86.677713, 36.223774], [-86.677598, 36.222537], [-86.677579, 36.218939], [-86.677237, 36.212943], [-86.677001, 36.211384], [-86.676494, 36.207347], [-86.676114, 36.205767], [-86.675485, 36.204358], [-86.674495, 36.202359], [-86.673544, 36.200608], [-86.672825, 36.199473], [-86.672149, 36.198184], [-86.671221, 36.196572], [-86.670232, 36.195278], [-86.669452, 36.194504], [-86.668575, 36.193736], [-86.6677, 36.193222], [-86.666976, 36.193013], [-86.666139, 36.192956], [-86.665244, 36.192937], [-86.663588, 36.193051], [-86.662465, 36.193165], [-86.658905, 36.193926], [-86.655879, 36.194878], [-86.654337, 36.195563], [-86.651995, 36.196744], [-86.649083, 36.198419], [-86.647027, 36.199808], [-86.644514, 36.201617], [-86.64282, 36.203425], [-86.639927, 36.206909], [-86.639394, 36.20788], [-86.63907, 36.208679], [-86.638975, 36.209345], [-86.639119, 36.210438], [-86.639337, 36.21102], [-86.640269, 36.213324], [-86.64183, 36.216598], [-86.642535, 36.218768], [-86.643122, 36.22102], [-86.644009, 36.224148], [-86.644248, 36.225545], [-86.644514, 36.226535], [-86.645486, 36.228893], [-86.646551, 36.231198], [-86.647769, 36.233521], [-86.648626, 36.234948], [-86.649578, 36.236167], [-86.650893, 36.237572], [-86.652966, 36.23946], [-86.655136, 36.241363], [-86.657199, 36.243642], [-86.658331, 36.245092], [-86.659248, 36.246389], [-86.659629, 36.247245], [-86.660352, 36.248559], [-86.660885, 36.249434], [-86.661437, 36.250063], [-86.662941, 36.251395], [-86.664521, 36.252556], [-86.665815, 36.253432], [-86.668652, 36.25524], [-86.66988, 36.256223], [-86.670688, 36.256992], [-86.671164, 36.257601], [-86.673924, 36.261694], [-86.674804, 36.262637], [-86.675866, 36.263711], [-86.676932, 36.264568], [-86.678303, 36.265482], [-86.679502, 36.266529], [-86.68091, 36.268223], [-86.681482, 36.269022], [-86.682414, 36.270659], [-86.684813, 36.274961], [-86.686279, 36.278388], [-86.686488, 36.279054], [-86.68685, 36.280824], [-86.68704, 36.282119], [-86.68704, 36.28368], [-86.686961, 36.285114], [-86.686812, 36.28604], [-86.686659, 36.286611], [-86.686412, 36.287277], [-86.685949, 36.288046], [-86.685646, 36.288657], [-86.684527, 36.289923], [-86.682966, 36.291808], [-86.680149, 36.295596], [-86.679121, 36.296852], [-86.677579, 36.298299], [-86.676647, 36.298984], [-86.674819, 36.300012], [-86.673696, 36.300564], [-86.672668, 36.30085], [-86.671735, 36.301059], [-86.670593, 36.30104], [-86.669406, 36.300963], [-86.668004, 36.300793], [-86.666405, 36.30045], [-86.66513, 36.300146], [-86.663778, 36.299727], [-86.662265, 36.299116], [-86.660281, 36.297959], [-86.659134, 36.297385], [-86.65504, 36.294919], [-86.65348, 36.293898], [-86.652224, 36.292988], [-86.650796, 36.29137], [-86.648873, 36.288876], [-86.646494, 36.285126], [-86.644838, 36.282328], [-86.644457, 36.281262], [-86.64362, 36.279244], [-86.643029, 36.277112], [-86.64263, 36.273267], [-86.642306, 36.264111], [-86.642154, 36.262303], [-86.641792, 36.26057], [-86.641316, 36.258933], [-86.640574, 36.257106], [-86.64006, 36.256097], [-86.63947, 36.255526], [-86.638899, 36.255069], [-86.636805, 36.254022], [-86.635168, 36.253261], [-86.63138, 36.251681], [-86.621767, 36.247874], [-86.620833, 36.247531]]}, "properties": {"OBJECTID": 82, "Category_of_Recommended_Track": "Not Based on a System of Fixed Marks", "Traffic_Flow": "Two-Way", "Information": "", "Scale_Minimum": 45000, "Source_Date": "20131231", "Source_Indication": "US,U3,OTHER,2013_USCG_AIS", "Source_Dataset": "U37CR149.000", "Feature_ID": "U3 1392991977 00001"}}, {"type": "Feature", "id": 83, "geometry": {"type": "LineString", "coordinates": [[-86.620833, 36.247531], [-86.613791, 36.24498], [-86.611925, 36.244523], [-86.61065, 36.244314], [-86.607814, 36.244124], [-86.606652, 36.244124], [-86.605396, 36.2442], [-86.603797, 36.244314], [-86.601379, 36.244561], [-86.598086, 36.244923], [-86.594774, 36.245361], [-86.593308, 36.245723], [-86.592185, 36.246046], [-86.588568, 36.247417], [-86.585123, 36.248806], [-86.582344, 36.249967], [-86.580707, 36.250729], [-86.579469, 36.251452], [-86.578365, 36.252195], [-86.577014, 36.253166], [-86.575757, 36.254232], [-86.573207, 36.256763], [-86.571056, 36.259504], [-86.570294, 36.260723], [-86.566544, 36.265938], [-86.564146, 36.26946], [-86.563061, 36.271116], [-86.561804, 36.273134], [-86.560548, 36.275285], [-86.558245, 36.279416], [-86.557959, 36.280139], [-86.557864, 36.2809], [-86.55794, 36.281814], [-86.558473, 36.283832], [-86.55971, 36.287144], [-86.561062, 36.290609], [-86.561842, 36.292931], [-86.56249, 36.295025], [-86.563422, 36.298223], [-86.563822, 36.299746], [-86.563974, 36.300717], [-86.564241, 36.30203], [-86.564431, 36.303667], [-86.564374, 36.30519], [-86.564222, 36.306009], [-86.56386, 36.306599], [-86.563498, 36.307284], [-86.559767, 36.312157], [-86.557826, 36.314479], [-86.555294, 36.317164], [-86.553865, 36.318464], [-86.552743, 36.319314], [-86.55162, 36.319962], [-86.550687, 36.3204], [-86.548841, 36.321028], [-86.547851, 36.321199], [-86.546671, 36.321313], [-86.545567, 36.32137], [-86.544615, 36.321104], [-86.543815, 36.320723], [-86.54313, 36.32019], [-86.542007, 36.318724], [-86.541493, 36.317868], [-86.540827, 36.315983], [-86.54037, 36.314384], [-86.539989, 36.312671], [-86.539666, 36.310825], [-86.539571, 36.30913], [-86.539513, 36.307208], [-86.53978, 36.304581], [-86.539856, 36.303306], [-86.539818, 36.300488], [-86.539742, 36.298718], [-86.539609, 36.296986], [-86.538904, 36.293864], [-86.53839, 36.292322], [-86.537895, 36.291123], [-86.537267, 36.289809], [-86.536506, 36.288362], [-86.534812, 36.285621], [-86.533993, 36.284632], [-86.533175, 36.283775], [-86.530148, 36.281167], [-86.529025, 36.280329], [-86.52794, 36.279625], [-86.526893, 36.279054], [-86.525843, 36.278574], [-86.524323, 36.278043], [-86.523295, 36.277836], [-86.522515, 36.277817], [-86.521772, 36.277969], [-86.521106, 36.278369], [-86.519773, 36.279606], [-86.518612, 36.281129], [-86.517927, 36.282271], [-86.516629, 36.285004], [-86.516367, 36.285834], [-86.516052, 36.287212], [-86.514501, 36.293026], [-86.513663, 36.295482], [-86.512615, 36.298888], [-86.512178, 36.299879], [-86.511836, 36.300507], [-86.511455, 36.300983], [-86.510332, 36.302011], [-86.508733, 36.303191], [-86.507191, 36.304181], [-86.503669, 36.306294], [-86.500148, 36.308483], [-86.498028, 36.309611], [-86.496893, 36.310101], [-86.495168, 36.310697], [-86.491004, 36.312236], [-86.488802, 36.313299], [-86.486508, 36.314493], [-86.483453, 36.316212], [-86.480217, 36.318191], [-86.477343, 36.319905], [-86.473593, 36.322322], [-86.469595, 36.324987], [-86.466911, 36.32691], [-86.461391, 36.330736], [-86.455833, 36.33382], [-86.451702, 36.335552], [-86.450023, 36.336079], [-86.445382, 36.337722], [-86.442546, 36.338579], [-86.440014, 36.339302], [-86.437329, 36.339859], [-86.435483, 36.340044], [-86.433961, 36.340006], [-86.432837, 36.339835], [-86.43181, 36.339588], [-86.43023, 36.339055], [-86.428669, 36.338483], [-86.426537, 36.337513], [-86.424043, 36.336447], [-86.421207, 36.334867], [-86.420293, 36.334296], [-86.41957, 36.333667], [-86.419018, 36.332944], [-86.418644, 36.332306], [-86.418218, 36.331231], [-86.417875, 36.330032], [-86.417609, 36.328433], [-86.417495, 36.327138], [-86.41778, 36.325577], [-86.418066, 36.324264]]}, "properties": {"OBJECTID": 83, "Category_of_Recommended_Track": "Not Based on a System of Fixed Marks", "Traffic_Flow": "Two-Way", "Information": "", "Scale_Minimum": 45000, "Source_Date": "20131231", "Source_Indication": "US,U3,OTHER,2013_USCG_AIS", "Source_Dataset": "U37CR221.000", "Feature_ID": "U3 1392991977 00001"}}, {"type": "Feature", "id": 84, "geometry": {"type": "LineString", "coordinates": [[-85.966667, 36.268287], [-85.967202, 36.268506], [-85.968, 36.268641], [-85.968201, 36.268651], [-85.96911, 36.268552], [-85.969718, 36.268584], [-85.971655, 36.269092], [-85.97215, 36.269188], [-85.972756, 36.269241], [-85.97333, 36.26941], [-85.974745, 36.26957], [-85.975861, 36.269591], [-85.976978, 36.269527], [-85.978597, 36.269368], [-85.979366, 36.269158], [-85.981173, 36.268912], [-85.982494, 36.268868], [-85.984631, 36.268892], [-85.985648, 36.268871], [-85.98717, 36.268778], [-85.988788, 36.268627], [-85.989785, 36.268463], [-85.991055, 36.268164], [-85.994563, 36.26706], [-85.996979, 36.266769], [-86.000719, 36.266419], [-86.002221, 36.2662], [-86.004256, 36.266203], [-86.006588, 36.266357], [-86.007274, 36.266507], [-86.008568, 36.26699], [-86.008818, 36.267135], [-86.008878, 36.267198], [-86.008946, 36.267356], [-86.009198, 36.267613], [-86.009458, 36.26815], [-86.009593, 36.268547], [-86.009666, 36.268871], [-86.009773, 36.270189], [-86.009743, 36.270763], [-86.009591, 36.271495], [-86.009181, 36.272858], [-86.008796, 36.273883], [-86.007966, 36.275478], [-86.005804, 36.280801], [-86.005486, 36.281497], [-86.00534, 36.281713], [-86.004817, 36.282322], [-86.004475, 36.282828], [-86.004037, 36.283282], [-86.002723, 36.285046], [-86.001892, 36.286083], [-86.000073, 36.28807], [-85.999798, 36.288415], [-85.999343, 36.28906], [-85.999007, 36.28966], [-85.998664, 36.290166], [-85.998059, 36.291399], [-85.997729, 36.292258], [-85.997729, 36.292503], [-85.997827, 36.292747], [-85.99857, 36.294012], [-85.999291, 36.295104], [-85.999846, 36.295792], [-86.001142, 36.297066], [-86.001698, 36.297548], [-86.002227, 36.297934], [-86.003372, 36.298621], [-86.004131, 36.299037], [-86.005926, 36.299812], [-86.008054, 36.300784], [-86.009777, 36.301495], [-86.010443, 36.301701], [-86.011031, 36.301834], [-86.013146, 36.302085], [-86.013857, 36.302083], [-86.014861, 36.301941], [-86.016072, 36.301509], [-86.017251, 36.30102], [-86.018004, 36.300599], [-86.018601, 36.300151], [-86.019566, 36.299192], [-86.020377, 36.298453], [-86.02068, 36.298024], [-86.021258, 36.296969], [-86.021746, 36.296342], [-86.025312, 36.292956], [-86.02619, 36.292047], [-86.027089, 36.291048], [-86.028289, 36.28982], [-86.02863, 36.289515], [-86.029662, 36.288718], [-86.030514, 36.28813], [-86.032659, 36.28674], [-86.033491, 36.286265], [-86.034367, 36.285845], [-86.034829, 36.285673], [-86.03533, 36.285603], [-86.035837, 36.285637], [-86.036526, 36.285783], [-86.038316, 36.286374], [-86.039829, 36.287052], [-86.041022, 36.287683], [-86.042942, 36.288907], [-86.043317, 36.289183], [-86.045705, 36.291325], [-86.0464, 36.292035], [-86.047073, 36.292859], [-86.047351, 36.293391], [-86.047729, 36.294244], [-86.047804, 36.294651], [-86.047846, 36.295557], [-86.047953, 36.295959], [-86.048201, 36.296411], [-86.049005, 36.297651], [-86.049378, 36.298329], [-86.049744, 36.299098], [-86.049941, 36.299737], [-86.050054, 36.300307], [-86.050212, 36.302528], [-86.049984, 36.305654], [-86.050027, 36.306477], [-86.050115, 36.307049], [-86.050279, 36.30761], [-86.050614, 36.3083], [-86.050923, 36.308726], [-86.051458, 36.309328], [-86.051857, 36.309702], [-86.052765, 36.310364], [-86.054248, 36.311611], [-86.054979, 36.312056], [-86.055694, 36.312371], [-86.056622, 36.312713], [-86.058138, 36.312858], [-86.05946, 36.312914], [-86.060367, 36.312812], [-86.061743, 36.312508], [-86.062701, 36.312229], [-86.0642, 36.311713], [-86.065201, 36.311305], [-86.06578, 36.310969], [-86.066216, 36.310757], [-86.066867, 36.310361], [-86.067394, 36.309972], [-86.067874, 36.309546], [-86.068302, 36.309085], [-86.068598, 36.308653], [-86.068816, 36.308191], [-86.069176, 36.307246], [-86.069545, 36.306046], [-86.069734, 36.305066], [-86.069757, 36.304822], [-86.069736, 36.304574], [-86.069648, 36.304334], [-86.069246, 36.303762], [-86.068852, 36.303276], [-86.068475, 36.302887], [-86.067619, 36.302185], [-86.066155, 36.301157], [-86.064213, 36.299954], [-86.063545, 36.299578], [-86.058853, 36.29742], [-86.057554, 36.296772], [-86.056911, 36.296365], [-86.055768, 36.295545], [-86.054663, 36.294691], [-86.054109, 36.294206], [-86.05379, 36.293784], [-86.053344, 36.292864], [-86.052876, 36.291598], [-86.052654, 36.290709], [-86.05255, 36.289641], [-86.052554, 36.288569], [-86.052661, 36.287998], [-86.052916, 36.287198], [-86.053155, 36.286744], [-86.053446, 36.286404], [-86.054942, 36.285287], [-86.055738, 36.284648], [-86.056075, 36.28434], [-86.057225, 36.28298], [-86.057839, 36.282125], [-86.058473, 36.281092], [-86.059467, 36.279286], [-86.059944, 36.278376], [-86.060248, 36.277676], [-86.060469, 36.277042], [-86.060625, 36.276479], [-86.061405, 36.272908], [-86.061693, 36.271862], [-86.0619, 36.271394], [-86.062048, 36.271179], [-86.062678, 36.270535], [-86.064755, 36.268609], [-86.06642, 36.26684], [-86.068348, 36.265372], [-86.06944, 36.264632], [-86.069882, 36.264291], [-86.070211, 36.264097], [-86.070909, 36.263758], [-86.072172, 36.263436], [-86.072823, 36.263201], [-86.073214, 36.263114], [-86.074018, 36.263078], [-86.074838, 36.263147], [-86.075227, 36.263237], [-86.076467, 36.263614], [-86.07759, 36.264002], [-86.078401, 36.264346], [-86.07981, 36.265008], [-86.080991, 36.265653], [-86.08138, 36.26592], [-86.081732, 36.266217], [-86.082082, 36.266622], [-86.083007, 36.267904], [-86.083471, 36.268444], [-86.084247, 36.269207], [-86.087207, 36.271933], [-86.087697, 36.272456], [-86.088042, 36.272963], [-86.088604, 36.274113], [-86.089847, 36.276992], [-86.091575, 36.280068], [-86.093583, 36.283309], [-86.094685, 36.285165], [-86.096139, 36.288855], [-86.096396, 36.289567], [-86.096507, 36.289969], [-86.096739, 36.291107], [-86.096898, 36.292253], [-86.096938, 36.293324], [-86.096872, 36.294146], [-86.096716, 36.294876], [-86.096432, 36.295753], [-86.096069, 36.296611], [-86.095538, 36.297681], [-86.094982, 36.298468], [-86.093686, 36.300144], [-86.092664, 36.301569], [-86.090546, 36.30419], [-86.089736, 36.305037], [-86.089107, 36.305576], [-86.087495, 36.306712], [-86.084961, 36.308369], [-86.083379, 36.309534], [-86.081342, 36.311148], [-86.079775, 36.312556], [-86.079079, 36.313266], [-86.078308, 36.314137], [-86.076902, 36.315854], [-86.074718, 36.318339], [-86.073112, 36.320344], [-86.070853, 36.322886], [-86.069794, 36.324483], [-86.068887, 36.325959], [-86.068615, 36.326492], [-86.068183, 36.327678], [-86.06768, 36.328845], [-86.067446, 36.329476], [-86.067278, 36.330121], [-86.0672, 36.33086], [-86.067222, 36.331766], [-86.067334, 36.332834], [-86.067491, 36.333731], [-86.067715, 36.33462], [-86.06787, 36.335011], [-86.068383, 36.336088], [-86.068549, 36.336649], [-86.068734, 36.337121], [-86.068953, 36.337492], [-86.069278, 36.337911], [-86.069921, 36.33855], [-86.07065, 36.339125], [-86.071383, 36.33957], [-86.072092, 36.339894], [-86.073677, 36.340457], [-86.07521, 36.340904], [-86.077354, 36.341432], [-86.078945, 36.341714], [-86.080159, 36.341823], [-86.082701, 36.341711], [-86.084331, 36.341732], [-86.086264, 36.341658], [-86.088708, 36.341681], [-86.095736, 36.341638], [-86.099089, 36.341848], [-86.099977, 36.342021], [-86.101628, 36.342446], [-86.104799, 36.343763], [-86.105458, 36.343983], [-86.106142, 36.344145], [-86.108321, 36.344568], [-86.110614, 36.344954], [-86.112534, 36.345151], [-86.114745, 36.345446], [-86.116045, 36.34565], [-86.117527, 36.345953], [-86.118226, 36.346063], [-86.121856, 36.346487], [-86.123381, 36.346566], [-86.12529, 36.346821], [-86.126078, 36.346989], [-86.127722, 36.347429], [-86.130065, 36.347995], [-86.132268, 36.348639], [-86.133061, 36.34879], [-86.13427, 36.348936], [-86.136307, 36.348942], [-86.138342, 36.349025], [-86.139055, 36.349024], [-86.140881, 36.348892], [-86.143387, 36.348524], [-86.144395, 36.348407], [-86.147139, 36.348256], [-86.148463, 36.348243], [-86.150088, 36.348338], [-86.151599, 36.348518], [-86.154185, 36.348982], [-86.155064, 36.349192], [-86.155828, 36.349421], [-86.156542, 36.349737], [-86.157244, 36.350213], [-86.157679, 36.350669], [-86.158155, 36.351397], [-86.158724, 36.352544], [-86.159235, 36.353796], [-86.159688, 36.354625], [-86.159945, 36.355163], [-86.160102, 36.355725], [-86.160218, 36.356544], [-86.160469, 36.35717], [-86.160912, 36.357912], [-86.161498, 36.358685], [-86.162446, 36.36005], [-86.163496, 36.361836], [-86.16481, 36.363695], [-86.165529, 36.364879], [-86.165876, 36.365565], [-86.166662, 36.367525], [-86.167009, 36.368728], [-86.167391, 36.369754], [-86.167753, 36.370434], [-86.168384, 36.371378], [-86.168517, 36.3715], [-86.169021, 36.371783], [-86.170616, 36.372514], [-86.172305, 36.372827], [-86.174738, 36.373437], [-86.175633, 36.373596], [-86.176446, 36.373635], [-86.177567, 36.373609], [-86.178573, 36.373483], [-86.178981, 36.373515], [-86.179277, 36.373473], [-86.179844, 36.373281], [-86.181114, 36.372756], [-86.181708, 36.372437], [-86.182342, 36.372023], [-86.182605, 36.371771], [-86.182761, 36.371558], [-86.18293, 36.371258], [-86.183016, 36.371021], [-86.183268, 36.369635], [-86.183602, 36.368514], [-86.183966, 36.366726], [-86.183806, 36.365661], [-86.183696, 36.364181], [-86.183537, 36.362786], [-86.183496, 36.361138], [-86.183394, 36.35974], [-86.183413, 36.35529], [-86.183671, 36.353739], [-86.183691, 36.353162], [-86.183662, 36.352504], [-86.183571, 36.351683], [-86.183338, 36.350295], [-86.183126, 36.349405], [-86.182661, 36.347885], [-86.18243, 36.346998], [-86.1821, 36.346046], [-86.180495, 36.342049], [-86.177707, 36.335593], [-86.177035, 36.333777], [-86.176743, 36.332733], [-86.176415, 36.330856], [-86.176375, 36.330528], [-86.176366, 36.329868], [-86.176226, 36.329135], [-86.176173, 36.328643], [-86.176123, 36.327654], [-86.176139, 36.327405], [-86.176193, 36.327246], [-86.176922, 36.326258], [-86.178334, 36.324443], [-86.180014, 36.322477], [-86.180641, 36.321829], [-86.181314, 36.321325], [-86.183497, 36.319974], [-86.184095, 36.31966], [-86.184567, 36.319507], [-86.185069, 36.319437], [-86.185679, 36.31942], [-86.186893, 36.319525], [-86.187488, 36.319638], [-86.188068, 36.319794], [-86.188536, 36.319955], [-86.188983, 36.320152], [-86.192037, 36.321793], [-86.193919, 36.323527], [-86.195219, 36.324572], [-86.196619, 36.325769], [-86.19839, 36.327131], [-86.199526, 36.327957], [-86.201037, 36.329182], [-86.201873, 36.329903], [-86.202571, 36.330612], [-86.203282, 36.331417], [-86.204911, 36.333409], [-86.205788, 36.334805], [-86.206031, 36.335259], [-86.206197, 36.335648], [-86.206308, 36.33605], [-86.20654, 36.336596], [-86.206648, 36.337082], [-86.206668, 36.337576], [-86.206602, 36.340048], [-86.206563, 36.340541], [-86.206423, 36.341274], [-86.206393, 36.341603], [-86.206496, 36.343248], [-86.2065, 36.343907], [-86.206384, 36.344559], [-86.205995, 36.346009], [-86.205941, 36.346419], [-86.205908, 36.348808], [-86.205821, 36.350372], [-86.205854, 36.351608], [-86.205931, 36.352429], [-86.20613, 36.353821], [-86.206251, 36.354473], [-86.206417, 36.355118], [-86.206669, 36.355831], [-86.207295, 36.357399], [-86.207692, 36.359099], [-86.207832, 36.35958], [-86.20827, 36.360678], [-86.208621, 36.361181], [-86.208742, 36.361408], [-86.208912, 36.361967], [-86.208948, 36.362378], [-86.208961, 36.363779], [-86.209026, 36.365591], [-86.209024, 36.366745], [-86.208849, 36.3688], [-86.208605, 36.37027], [-86.208578, 36.370763], [-86.208948, 36.3723], [-86.209096, 36.37278], [-86.209292, 36.373248], [-86.210097, 36.374303], [-86.210348, 36.374561], [-86.210778, 36.374908], [-86.211326, 36.375281], [-86.211903, 36.375624], [-86.212508, 36.375927], [-86.213687, 36.376419], [-86.214063, 36.376546], [-86.214456, 36.376634], [-86.214857, 36.376693], [-86.215264, 36.376691], [-86.215665, 36.376632], [-86.216349, 36.376471], [-86.217201, 36.376197], [-86.21923, 36.375426], [-86.220818, 36.374683], [-86.222018, 36.374061], [-86.222956, 36.373427], [-86.223702, 36.372164], [-86.223749, 36.371922], [-86.223589, 36.370527], [-86.223179, 36.367828], [-86.222653, 36.363482], [-86.22243, 36.362259], [-86.222327, 36.361109], [-86.222132, 36.359966], [-86.222123, 36.359554], [-86.222187, 36.359229], [-86.222375, 36.358846], [-86.224226, 36.356285], [-86.225108, 36.354891], [-86.225589, 36.35426], [-86.227019, 36.352556], [-86.228434, 36.351259], [-86.229797, 36.349717], [-86.231035, 36.348514], [-86.232301, 36.34712], [-86.235084, 36.344384], [-86.237697, 36.342188], [-86.240149, 36.340452], [-86.241361, 36.339339], [-86.242815, 36.338185], [-86.243827, 36.33726], [-86.244329, 36.33674], [-86.245322, 36.335301], [-86.24593, 36.33435], [-86.246367, 36.333515], [-86.247127, 36.331723], [-86.247946, 36.329599], [-86.248214, 36.328719], [-86.248332, 36.327984], [-86.248374, 36.327078], [-86.248336, 36.326502], [-86.247745, 36.323408], [-86.247587, 36.318383], [-86.247377, 36.316413], [-86.247369, 36.315424], [-86.247442, 36.314272], [-86.247602, 36.312795], [-86.24781, 36.311238], [-86.248011, 36.310096], [-86.248224, 36.309123], [-86.248992, 36.307072], [-86.249073, 36.306921], [-86.249786, 36.305828], [-86.25027, 36.305299], [-86.251866, 36.303802], [-86.25267, 36.303171], [-86.253376, 36.302698], [-86.25449, 36.302121], [-86.256329, 36.301414], [-86.257927, 36.30069], [-86.258877, 36.300395], [-86.260635, 36.299977], [-86.262758, 36.299766], [-86.263368, 36.299762], [-86.263861, 36.299863], [-86.264606, 36.300128], [-86.265121, 36.300354], [-86.265442, 36.300557], [-86.265684, 36.300821], [-86.265881, 36.301201], [-86.266593, 36.302004], [-86.267583, 36.303052], [-86.268084, 36.303462], [-86.268478, 36.30384], [-86.269154, 36.304663], [-86.270253, 36.305745], [-86.271534, 36.307232], [-86.271804, 36.307582], [-86.272767, 36.309132], [-86.273088, 36.309736], [-86.273308, 36.310281], [-86.27344, 36.310764], [-86.27368, 36.311907], [-86.273729, 36.312318], [-86.273493, 36.313624], [-86.27315, 36.314827], [-86.272921, 36.315195], [-86.272135, 36.316161], [-86.270773, 36.317998], [-86.268849, 36.320427], [-86.268401, 36.321072], [-86.267956, 36.321815], [-86.267496, 36.322642], [-86.266932, 36.32379], [-86.266234, 36.325339], [-86.265005, 36.328221], [-86.264604, 36.329243], [-86.264584, 36.329487], [-86.264607, 36.329819], [-86.264754, 36.331049], [-86.264939, 36.333434], [-86.265094, 36.33483], [-86.266073, 36.338199], [-86.266367, 36.339158], [-86.267049, 36.340711], [-86.268207, 36.343088], [-86.268982, 36.344432], [-86.269663, 36.345445], [-86.27005, 36.34593], [-86.270364, 36.346254], [-86.271015, 36.346776], [-86.27264, 36.347901], [-86.273071, 36.34812], [-86.273724, 36.348353], [-86.276389, 36.348901], [-86.276994, 36.348969], [-86.277604, 36.348992], [-86.278719, 36.348911], [-86.279517, 36.348776], [-86.284064, 36.34786], [-86.285143, 36.347614], [-86.285905, 36.347381], [-86.287014, 36.346966], [-86.287986, 36.346515], [-86.288553, 36.346166], [-86.289138, 36.345708], [-86.291242, 36.343693], [-86.291786, 36.343097], [-86.292974, 36.341658], [-86.294817, 36.339685], [-86.295492, 36.338862], [-86.295773, 36.338422], [-86.296059, 36.337894], [-86.296266, 36.337429], [-86.296465, 36.336875], [-86.296815, 36.335503], [-86.297023, 36.334112], [-86.297148, 36.33123], [-86.297104, 36.33049], [-86.296923, 36.329096], [-86.296909, 36.32852], [-86.296956, 36.327779], [-86.297173, 36.325975], [-86.29721, 36.325316], [-86.297175, 36.324905], [-86.296929, 36.323435], [-86.296885, 36.322777], [-86.296884, 36.322118], [-86.297022, 36.320887], [-86.297455, 36.318773], [-86.297805, 36.31665], [-86.298003, 36.31601], [-86.298387, 36.315247], [-86.298844, 36.314511], [-86.299354, 36.313896], [-86.299767, 36.313532], [-86.300338, 36.313187], [-86.300975, 36.312929], [-86.301657, 36.312763], [-86.302263, 36.312705], [-86.302771, 36.312728], [-86.304947, 36.313159], [-86.306746, 36.313442], [-86.308269, 36.313524], [-86.309681, 36.313693], [-86.317612, 36.316502], [-86.319698, 36.317156], [-86.321918, 36.317764], [-86.324856, 36.318456], [-86.327721, 36.319025], [-86.329642, 36.31925], [-86.331165, 36.319344], [-86.331672, 36.319342], [-86.332381, 36.319261], [-86.333276, 36.319097], [-86.334045, 36.318876], [-86.33631, 36.318133], [-86.338318, 36.317329], [-86.342555, 36.315713], [-86.344243, 36.314792], [-86.345049, 36.314441], [-86.348399, 36.312566], [-86.35153, 36.311024], [-86.354056, 36.309955], [-86.355444, 36.309441], [-86.356204, 36.309204], [-86.356792, 36.309069], [-86.357394, 36.308986], [-86.358206, 36.308933], [-86.359723, 36.309073], [-86.360423, 36.309183], [-86.360803, 36.309298], [-86.36122, 36.309533], [-86.361426, 36.309716], [-86.361654, 36.309989], [-86.362207, 36.310776], [-86.362283, 36.310929], [-86.362364, 36.311252], [-86.362418, 36.311744], [-86.362405, 36.31265], [-86.362334, 36.313141], [-86.362205, 36.313708], [-86.362075, 36.314106], [-86.361936, 36.314416], [-86.361559, 36.315], [-86.360623, 36.316079], [-86.358202, 36.318638], [-86.357484, 36.319329], [-86.356927, 36.319802], [-86.356358, 36.320145], [-86.355117, 36.320731], [-86.354244, 36.32096], [-86.353296, 36.321125], [-86.352964, 36.321208], [-86.352764, 36.321303], [-86.352112, 36.321702], [-86.351393, 36.322284], [-86.348919, 36.324001], [-86.346663, 36.325787], [-86.346318, 36.326093], [-86.346188, 36.326314], [-86.345991, 36.326869], [-86.34576, 36.327841], [-86.345604, 36.328738], [-86.345571, 36.329232], [-86.345736, 36.332277], [-86.345975, 36.333581], [-86.346213, 36.335715], [-86.346127, 36.338516], [-86.346115, 36.340494], [-86.346504, 36.342612], [-86.347039, 36.344711], [-86.347789, 36.346679], [-86.348316, 36.347571], [-86.348673, 36.34807], [-86.350436, 36.349988], [-86.351133, 36.350588], [-86.352301, 36.351384], [-86.355658, 36.354028], [-86.35763, 36.355333], [-86.359876, 36.356301], [-86.361248, 36.357156], [-86.363364, 36.358302], [-86.364092, 36.358598], [-86.364581, 36.35871], [-86.364988, 36.358714], [-86.365486, 36.35863], [-86.366801, 36.358182], [-86.367153, 36.358018], [-86.367683, 36.357632], [-86.368543, 36.356817], [-86.374011, 36.353513], [-86.376058, 36.352153], [-86.376841, 36.351505], [-86.377753, 36.350514], [-86.378082, 36.350098], [-86.378374, 36.349663], [-86.378998, 36.348445], [-86.380198, 36.345905], [-86.380658, 36.345171], [-86.381432, 36.344202], [-86.383209, 36.342191], [-86.384049, 36.341061], [-86.384571, 36.340555], [-86.385493, 36.339467], [-86.385943, 36.338821], [-86.386682, 36.337555], [-86.387254, 36.336409], [-86.387713, 36.335404], [-86.388609, 36.332955], [-86.389012, 36.331677], [-86.389881, 36.328455], [-86.390404, 36.326356], [-86.390436, 36.326028], [-86.390428, 36.325533], [-86.390256, 36.323312], [-86.390112, 36.321999], [-86.389796, 36.319871], [-86.389593, 36.317487], [-86.389372, 36.313782], [-86.389364, 36.312877], [-86.389443, 36.312303], [-86.389601, 36.311657], [-86.389806, 36.31119], [-86.390259, 36.310361], [-86.390936, 36.309442], [-86.391208, 36.309198], [-86.391745, 36.308817], [-86.392532, 36.308439], [-86.394098, 36.307843], [-86.395549, 36.307244], [-86.396573, 36.306877], [-86.398489, 36.306319], [-86.399567, 36.306072], [-86.400071, 36.306016], [-86.401908, 36.30586], [-86.40351, 36.305922], [-86.404318, 36.30601], [-86.405959, 36.306666], [-86.407349, 36.307352], [-86.409268, 36.308577], [-86.413453, 36.311832], [-86.413981, 36.312437], [-86.414782, 36.313183], [-86.415169, 36.313668], [-86.415482, 36.314364], [-86.416767, 36.318303], [-86.417447, 36.319677], [-86.417967, 36.320636], [-86.41825, 36.321756], [-86.418334, 36.322781], [-86.418066, 36.324264]]}, "properties": {"OBJECTID": 84, "Category_of_Recommended_Track": "Not Based on a System of Fixed Marks", "Traffic_Flow": "Two-Way", "Information": "", "Scale_Minimum": 45000, "Source_Date": "20040930", "Source_Indication": "US,U3,USACE,LRN_GIS", "Source_Dataset": "U37CR221.000", "Feature_ID": "U3 1392991983 00001"}}, {"type": "Feature", "id": 85, "geometry": {"type": "LineString", "coordinates": [[-85.513935, 36.553933], [-85.514738, 36.552547], [-85.515959, 36.550928], [-85.516365, 36.550172], [-85.516986, 36.54932], [-85.517593, 36.548097], [-85.517665, 36.547857], [-85.517717, 36.546704], [-85.517614, 36.545719], [-85.517624, 36.544895], [-85.519252, 36.53852], [-85.520605, 36.53612], [-85.521353, 36.534676], [-85.521635, 36.534237], [-85.522109, 36.5337], [-85.522584, 36.533269], [-85.524, 36.532325], [-85.526684, 36.531316], [-85.528697, 36.53072], [-85.530011, 36.530267], [-85.532663, 36.529204], [-85.534017, 36.528627], [-85.534808, 36.52825], [-85.536321, 36.527408], [-85.53696, 36.526998], [-85.538297, 36.52598], [-85.539523, 36.524988], [-85.539701, 36.524788], [-85.540136, 36.524135], [-85.541027, 36.522652], [-85.54142, 36.521892], [-85.541589, 36.521416], [-85.541822, 36.52053], [-85.542048, 36.519897], [-85.542669, 36.518501], [-85.542888, 36.517612], [-85.543197, 36.516655], [-85.543802, 36.515343], [-85.544099, 36.514469], [-85.544782, 36.512917], [-85.545388, 36.511781], [-85.545894, 36.510701], [-85.546386, 36.510177], [-85.547114, 36.509486], [-85.548258, 36.508795], [-85.549094, 36.50849], [-85.549585, 36.508376], [-85.550188, 36.508291], [-85.551513, 36.508242], [-85.559064, 36.509258], [-85.560745, 36.509606], [-85.562349, 36.509852], [-85.56538, 36.510204], [-85.56742, 36.510265], [-85.572524, 36.510289], [-85.573544, 36.510268], [-85.574358, 36.510215], [-85.575876, 36.510057], [-85.577895, 36.50981], [-85.578188, 36.50974], [-85.578834, 36.509495], [-85.579425, 36.509172], [-85.579893, 36.508852], [-85.580488, 36.508286], [-85.581488, 36.506482], [-85.581663, 36.506095], [-85.581832, 36.505451], [-85.581837, 36.504792], [-85.581733, 36.504138], [-85.581475, 36.503428], [-85.581245, 36.50306], [-85.580755, 36.502433], [-85.580055, 36.501334], [-85.579669, 36.500849], [-85.579082, 36.500279], [-85.578222, 36.499257], [-85.577806, 36.498894], [-85.577104, 36.498416], [-85.575672, 36.497627], [-85.57401, 36.496534], [-85.573253, 36.496113], [-85.571502, 36.494852], [-85.570358, 36.493912], [-85.569642, 36.493213], [-85.568214, 36.491607], [-85.567082, 36.490042], [-85.565914, 36.488591], [-85.565561, 36.48809], [-85.565455, 36.487858], [-85.565363, 36.487537], [-85.565284, 36.486964], [-85.5653, 36.486388], [-85.565451, 36.485573], [-85.565611, 36.485096], [-85.565836, 36.484636], [-85.566422, 36.483859], [-85.566665, 36.483597], [-85.566816, 36.483489], [-85.567896, 36.482862], [-85.569095, 36.482235], [-85.569538, 36.48203], [-85.570095, 36.481825], [-85.571153, 36.481523], [-85.572625, 36.481184], [-85.575039, 36.480855], [-85.575649, 36.480814], [-85.576159, 36.48082], [-85.57839, 36.481016], [-85.578888, 36.481105], [-85.581622, 36.481775], [-85.582218, 36.481884], [-85.583017, 36.482251], [-85.584306, 36.482748], [-85.585156, 36.483339], [-85.586033, 36.484142], [-85.586676, 36.484781], [-85.587715, 36.486103], [-85.58885, 36.487667], [-85.589414, 36.488544], [-85.59624, 36.495531], [-85.597034, 36.496283], [-85.597256, 36.496454], [-85.597586, 36.496648], [-85.598205, 36.496935], [-85.598576, 36.497072], [-85.599158, 36.497226], [-85.599658, 36.497307], [-85.600371, 36.4973], [-85.601686, 36.49716], [-85.602384, 36.497039], [-85.602958, 36.496866], [-85.603405, 36.496668], [-85.605466, 36.495455], [-85.606164, 36.494974], [-85.606608, 36.494523], [-85.606889, 36.494084], [-85.607691, 36.492391], [-85.60791, 36.491756], [-85.608348, 36.490147], [-85.608507, 36.489333], [-85.608581, 36.488676], [-85.608686, 36.486289], [-85.608669, 36.48563], [-85.608588, 36.485057], [-85.608441, 36.484492], [-85.60813, 36.483622], [-85.607805, 36.482841], [-85.606774, 36.480778], [-85.605621, 36.478755], [-85.605245, 36.478171], [-85.604818, 36.477709], [-85.603851, 36.47686], [-85.603255, 36.476192], [-85.602313, 36.475218], [-85.602062, 36.47486], [-85.601128, 36.473211], [-85.600595, 36.47251], [-85.600278, 36.472187], [-85.599501, 36.471533], [-85.599103, 36.471157], [-85.59823, 36.470095], [-85.597856, 36.469703], [-85.597572, 36.469467], [-85.5971, 36.469152], [-85.596146, 36.468677], [-85.595687, 36.468497], [-85.595209, 36.468353], [-85.594714, 36.468254], [-85.592907, 36.467989], [-85.591216, 36.467676], [-85.589664, 36.467269], [-85.58829, 36.466953], [-85.587533, 36.466709], [-85.586084, 36.466102], [-85.584424, 36.465468], [-85.582211, 36.464288], [-85.580712, 36.463584], [-85.579676, 36.462916], [-85.577985, 36.461603], [-85.577608, 36.461214], [-85.577463, 36.460997], [-85.577357, 36.460765], [-85.577105, 36.459798], [-85.576971, 36.458898], [-85.577092, 36.457998], [-85.577157, 36.457176], [-85.577555, 36.455225], [-85.577756, 36.454502], [-85.578181, 36.4534], [-85.578504, 36.452796], [-85.580206, 36.450546], [-85.580702, 36.449733], [-85.58107, 36.448877], [-85.581293, 36.448507], [-85.582896, 36.446499], [-85.583651, 36.445424], [-85.585038, 36.443895], [-85.586178, 36.442837], [-85.586988, 36.442214], [-85.587423, 36.441994], [-85.58797, 36.441774], [-85.589193, 36.441359], [-85.590857, 36.440966], [-85.59224, 36.440679], [-85.593379, 36.440319], [-85.593881, 36.440247], [-85.5949, 36.440224], [-85.595818, 36.440252], [-85.596877, 36.440449], [-85.597783, 36.440578], [-85.600333, 36.440584], [-85.603181, 36.440739], [-85.604915, 36.440751], [-85.608585, 36.440667], [-85.614181, 36.440361], [-85.617854, 36.440314], [-85.619583, 36.440242], [-85.620389, 36.440144], [-85.622794, 36.439765], [-85.62668, 36.43908], [-85.631899, 36.437945], [-85.635228, 36.437161], [-85.636681, 36.436775], [-85.637976, 36.436291], [-85.639192, 36.435687], [-85.640445, 36.434978], [-85.642719, 36.433583], [-85.644147, 36.432651], [-85.64504, 36.431976], [-85.646713, 36.430422], [-85.647528, 36.429376], [-85.648158, 36.428626], [-85.648412, 36.428269], [-85.648639, 36.42781], [-85.648838, 36.427171], [-85.648969, 36.426355], [-85.649023, 36.424955], [-85.64901, 36.423142], [-85.648938, 36.422237], [-85.648854, 36.421748], [-85.64871, 36.421267], [-85.64827, 36.420084], [-85.647817, 36.419077], [-85.647504, 36.418559], [-85.647037, 36.417921], [-85.645858, 36.416002], [-85.644833, 36.414207], [-85.643442, 36.411021], [-85.642806, 36.409455], [-85.642226, 36.407876], [-85.641958, 36.407341], [-85.641359, 36.406294], [-85.640575, 36.404773], [-85.63972, 36.402572], [-85.63944, 36.400856], [-85.639033, 36.39899], [-85.638934, 36.397922], [-85.639105, 36.395207], [-85.639204, 36.394469], [-85.639352, 36.393737], [-85.639679, 36.392362], [-85.639973, 36.391317], [-85.640238, 36.390522], [-85.640919, 36.388708], [-85.641455, 36.386359], [-85.641632, 36.38538], [-85.642078, 36.383942], [-85.643027, 36.381592], [-85.6441, 36.37919], [-85.645438, 36.377341], [-85.646082, 36.376501], [-85.647058, 36.37555], [-85.647224, 36.375251], [-85.6474, 36.375049], [-85.647883, 36.374747], [-85.648772, 36.374345], [-85.64993, 36.374028], [-85.650826, 36.373871], [-85.652347, 36.373745], [-85.655599, 36.373557], [-85.656516, 36.373573], [-85.657112, 36.37368], [-85.658883, 36.374311], [-85.660398, 36.374798], [-85.661042, 36.375046], [-85.662021, 36.375487], [-85.663439, 36.37595], [-85.663613, 36.376034], [-85.664752, 36.37673], [-85.665689, 36.377364], [-85.66677, 36.377983], [-85.667161, 36.378247], [-85.667575, 36.378611], [-85.668267, 36.379324], [-85.669093, 36.380052], [-85.669632, 36.380652], [-85.670134, 36.381368], [-85.670483, 36.382142], [-85.670716, 36.383197], [-85.670869, 36.384343], [-85.671175, 36.385806], [-85.671293, 36.386624], [-85.671406, 36.38827], [-85.67143, 36.389093], [-85.671261, 36.392139], [-85.670922, 36.39443], [-85.670815, 36.395497], [-85.670748, 36.396732], [-85.670739, 36.398545], [-85.670847, 36.399447], [-85.671468, 36.40237], [-85.671646, 36.403597], [-85.671751, 36.404748], [-85.672048, 36.40696], [-85.672204, 36.407437], [-85.672304, 36.40758], [-85.672504, 36.407767], [-85.672901, 36.408024], [-85.673416, 36.408292], [-85.674686, 36.408816], [-85.675463, 36.409011], [-85.675868, 36.409053], [-85.676377, 36.409058], [-85.678687, 36.408893], [-85.680065, 36.408605], [-85.680814, 36.408509], [-85.681751, 36.408476], [-85.682967, 36.408575], [-85.684982, 36.408321], [-85.68885, 36.407043], [-85.69061, 36.406389], [-85.692158, 36.40576], [-85.694597, 36.404922], [-85.695037, 36.404714], [-85.695438, 36.40446], [-85.695949, 36.404191], [-85.696859, 36.403412], [-85.697466, 36.402751], [-85.697607, 36.402532], [-85.69779, 36.402147], [-85.698817, 36.400536], [-85.699301, 36.399719], [-85.699695, 36.399141], [-85.700439, 36.398157], [-85.700813, 36.397391], [-85.701385, 36.39581], [-85.702228, 36.393692], [-85.702644, 36.392851], [-85.702883, 36.39205], [-85.703331, 36.389355], [-85.703449, 36.386885], [-85.703654, 36.385411], [-85.704, 36.383704], [-85.704095, 36.382801], [-85.704082, 36.382307], [-85.703971, 36.381821], [-85.703526, 36.380726], [-85.703015, 36.379046], [-85.702699, 36.37835], [-85.701962, 36.376991], [-85.701527, 36.376339], [-85.701018, 36.375722], [-85.699532, 36.374152], [-85.699035, 36.373738], [-85.698475, 36.373381], [-85.698022, 36.373196], [-85.69686, 36.372887], [-85.695193, 36.372507], [-85.693931, 36.372181], [-85.692497, 36.371754], [-85.691482, 36.37137], [-85.689734, 36.370523], [-85.686408, 36.368764], [-85.685143, 36.367933], [-85.684216, 36.367168], [-85.683335, 36.365963], [-85.68288, 36.365226], [-85.682146, 36.363778], [-85.681478, 36.362575], [-85.681144, 36.361796], [-85.681117, 36.36155], [-85.68114, 36.361056], [-85.681296, 36.360409], [-85.681453, 36.359931], [-85.681613, 36.359627], [-85.681815, 36.359341], [-85.682067, 36.359083], [-85.682364, 36.358856], [-85.682872, 36.358581], [-85.683937, 36.358095], [-85.684964, 36.357734], [-85.685956, 36.357314], [-85.686346, 36.35722], [-85.687251, 36.357105], [-85.68857, 36.356667], [-85.693342, 36.354294], [-85.694607, 36.353979], [-85.695606, 36.353817], [-85.695897, 36.353742], [-85.697024, 36.35336], [-85.698196, 36.35286], [-85.698526, 36.352668], [-85.699354, 36.352057], [-85.701111, 36.350932], [-85.703193, 36.349749], [-85.703472, 36.349647], [-85.703736, 36.349396], [-85.704405, 36.34889], [-85.704796, 36.34851], [-85.705258, 36.348187], [-85.705946, 36.347834], [-85.707396, 36.347233], [-85.70843, 36.346885], [-85.710215, 36.346549], [-85.712852, 36.345918], [-85.713612, 36.34568], [-85.715175, 36.345077], [-85.715649, 36.344928], [-85.717011, 36.344587], [-85.717616, 36.344517], [-85.718213, 36.344391], [-85.71875, 36.344426], [-85.720424, 36.344786], [-85.721189, 36.345195], [-85.722408, 36.34594], [-85.724252, 36.347238], [-85.726858, 36.348821], [-85.729011, 36.350334], [-85.733002, 36.352893], [-85.735643, 36.354706], [-85.737242, 36.355433], [-85.739059, 36.356346], [-85.739875, 36.356683], [-85.740898, 36.357054], [-85.741749, 36.35733], [-85.742426, 36.35751], [-85.746578, 36.358347], [-85.749979, 36.358877], [-85.751369, 36.359136], [-85.753305, 36.359159], [-85.755334, 36.359004], [-85.756137, 36.358899], [-85.758078, 36.358396], [-85.75922, 36.358042], [-85.760147, 36.357701], [-85.764778, 36.355621], [-85.765786, 36.355226], [-85.767097, 36.354771], [-85.768742, 36.353939], [-85.768893, 36.353832], [-85.769693, 36.352981], [-85.770491, 36.352021], [-85.771002, 36.351309], [-85.771559, 36.350428], [-85.772074, 36.349531], [-85.773046, 36.347714], [-85.773347, 36.347101], [-85.77357, 36.346555], [-85.773817, 36.345755], [-85.774138, 36.344462], [-85.77438, 36.343158], [-85.774533, 36.342093], [-85.774637, 36.340942], [-85.774665, 36.339954], [-85.774606, 36.339213], [-85.774398, 36.337738], [-85.774225, 36.336843], [-85.774061, 36.336281], [-85.77382, 36.335737], [-85.773376, 36.334995], [-85.772877, 36.334275], [-85.772262, 36.333518], [-85.771706, 36.332924], [-85.771093, 36.332373], [-85.770572, 36.331982], [-85.769859, 36.331514], [-85.767908, 36.330317], [-85.76683, 36.329695], [-85.765356, 36.328962], [-85.763708, 36.328309], [-85.761164, 36.327467], [-85.756217, 36.325937], [-85.755295, 36.325588], [-85.752487, 36.32395], [-85.750546, 36.32289], [-85.747511, 36.320944], [-85.74634, 36.320153], [-85.746047, 36.319924], [-85.745658, 36.31954], [-85.745252, 36.319061], [-85.745045, 36.318773], [-85.744885, 36.318473], [-85.744732, 36.317997], [-85.74464, 36.317503], [-85.744607, 36.317007], [-85.74463, 36.316432], [-85.74472, 36.315773], [-85.744851, 36.315205], [-85.74511, 36.314407], [-85.745398, 36.313697], [-85.745706, 36.313088], [-85.74598, 36.312647], [-85.746328, 36.31223], [-85.746676, 36.311925], [-85.747317, 36.311531], [-85.748088, 36.311133], [-85.751836, 36.309445], [-85.75679, 36.30733], [-85.758159, 36.306775], [-85.75927, 36.306363], [-85.760504, 36.305989], [-85.762102, 36.305714], [-85.763416, 36.305589], [-85.76423, 36.305552], [-85.764942, 36.305581], [-85.767496, 36.30614], [-85.769183, 36.30645], [-85.770446, 36.306771], [-85.771218, 36.307171], [-85.771754, 36.307407], [-85.77565, 36.308619], [-85.776768, 36.309017], [-85.777351, 36.309169], [-85.778286, 36.309661], [-85.780934, 36.310518], [-85.781486, 36.31073], [-85.783361, 36.311721], [-85.784093, 36.312167], [-85.787173, 36.314448], [-85.789556, 36.316363], [-85.791265, 36.317404], [-85.791789, 36.317657], [-85.792253, 36.317826], [-85.79333, 36.318072], [-85.799455, 36.319614], [-85.800153, 36.319728], [-85.801871, 36.319897], [-85.803651, 36.320252], [-85.804452, 36.320368], [-85.804961, 36.320386], [-85.805775, 36.320357], [-85.809221, 36.320094], [-85.809627, 36.320027], [-85.809913, 36.31994], [-85.810237, 36.319746], [-85.810515, 36.319497], [-85.810821, 36.319071], [-85.811047, 36.318607], [-85.811497, 36.316832], [-85.813138, 36.309366], [-85.813802, 36.305448], [-85.81364, 36.304801], [-85.813528, 36.304484], [-85.812577, 36.302455], [-85.81046, 36.297608], [-85.808091, 36.290294], [-85.806723, 36.286529], [-85.806557, 36.285904], [-85.805597, 36.278556], [-85.80538, 36.277415], [-85.804974, 36.275632], [-85.804377, 36.27346], [-85.804187, 36.272819], [-85.803846, 36.27187], [-85.803374, 36.270266], [-85.803304, 36.269942], [-85.803122, 36.268549], [-85.803055, 36.264675], [-85.803033, 36.260391], [-85.803301, 36.259426], [-85.803446, 36.258777], [-85.803462, 36.258448], [-85.803383, 36.257792], [-85.803498, 36.25714], [-85.803936, 36.255278], [-85.804401, 36.254101], [-85.804691, 36.253141], [-85.805052, 36.252283], [-85.805418, 36.251604], [-85.805863, 36.250956], [-85.806239, 36.250567], [-85.806769, 36.250183], [-85.807187, 36.249947], [-85.807904, 36.249636], [-85.808779, 36.24942], [-85.810365, 36.24911], [-85.811376, 36.249049], [-85.813792, 36.249046], [-85.8144, 36.249076], [-85.817016, 36.249399], [-85.818409, 36.249639], [-85.819191, 36.24982], [-85.820631, 36.250229], [-85.821955, 36.250655], [-85.822927, 36.250902], [-85.823694, 36.251306], [-85.824344, 36.251702], [-85.824933, 36.252271], [-85.825776, 36.252985], [-85.82655, 36.253854], [-85.827255, 36.25476], [-85.827703, 36.2555], [-85.828973, 36.258017], [-85.829483, 36.25873], [-85.830551, 36.260035], [-85.831295, 36.261114], [-85.832268, 36.262746], [-85.832613, 36.263222], [-85.833105, 36.264249], [-85.83364, 36.265228], [-85.833957, 36.266183], [-85.834076, 36.266835], [-85.834099, 36.267741], [-85.834011, 36.269553], [-85.834017, 36.270541], [-85.834298, 36.274986], [-85.834458, 36.276132], [-85.834776, 36.27734], [-85.834938, 36.277817], [-85.835142, 36.278283], [-85.836336, 36.280286], [-85.836867, 36.280988], [-85.837274, 36.281356], [-85.838339, 36.282123], [-85.839231, 36.282913], [-85.839812, 36.283376], [-85.841975, 36.284878], [-85.845469, 36.287401], [-85.847738, 36.28893], [-85.84811, 36.289211], [-85.849553, 36.290373], [-85.851788, 36.292292], [-85.852975, 36.293422], [-85.854582, 36.295226], [-85.855628, 36.296126], [-85.856682, 36.296902], [-85.862678, 36.300455], [-85.864044, 36.301172], [-85.866932, 36.302561], [-85.869299, 36.303847], [-85.869923, 36.304127], [-85.870575, 36.304358], [-85.871347, 36.304568], [-85.872192, 36.304855], [-85.872981, 36.305014], [-85.873489, 36.305035], [-85.873997, 36.305003], [-85.875, 36.304865], [-85.875794, 36.304716], [-85.877569, 36.304094], [-85.878899, 36.303488], [-85.879301, 36.303236], [-85.879817, 36.302837], [-85.88322, 36.299999], [-85.885142, 36.298649], [-85.885799, 36.298132], [-85.88656, 36.29736], [-85.888271, 36.295312], [-85.888792, 36.294604], [-85.889612, 36.293277], [-85.889884, 36.292484], [-85.890158, 36.291436], [-85.890293, 36.290703], [-85.890357, 36.290046], [-85.890363, 36.289551], [-85.890325, 36.289058], [-85.890127, 36.287999], [-85.889666, 36.286225], [-85.889497, 36.28575], [-85.889288, 36.285285], [-85.888347, 36.283732], [-85.886886, 36.281656], [-85.886124, 36.28049], [-85.885124, 36.27915], [-85.884597, 36.278647], [-85.884123, 36.278112], [-85.883594, 36.277314], [-85.882854, 36.275867], [-85.882072, 36.273994], [-85.881658, 36.272804], [-85.881375, 36.271506], [-85.881239, 36.271024], [-85.880965, 36.270316], [-85.880676, 36.2697], [-85.8803, 36.269024], [-85.879833, 36.268292], [-85.877369, 36.264876], [-85.876606, 36.263712], [-85.87609, 36.262816], [-85.875615, 36.261905], [-85.875182, 36.26098], [-85.874759, 36.259965], [-85.874267, 36.258622], [-85.873965, 36.257579], [-85.873552, 36.255547], [-85.873417, 36.254399], [-85.873461, 36.254238], [-85.873607, 36.254022], [-85.873863, 36.253766], [-85.874298, 36.253417], [-85.874797, 36.253135], [-85.875608, 36.252788], [-85.876462, 36.252523], [-85.877752, 36.252287], [-85.879372, 36.252149], [-85.880897, 36.252111], [-85.882613, 36.252269], [-85.884222, 36.252467], [-85.887159, 36.252695], [-85.887855, 36.252818], [-85.888621, 36.253039], [-85.889267, 36.253283], [-85.889974, 36.25361], [-85.89221, 36.254755], [-85.892783, 36.255097], [-85.894476, 36.256283], [-85.895962, 36.257149], [-85.898069, 36.258576], [-85.89897, 36.259114], [-85.900486, 36.259946], [-85.901133, 36.260346], [-85.901739, 36.260786], [-85.902379, 36.261317], [-85.902847, 36.261751], [-85.903275, 36.262212], [-85.904031, 36.263191], [-85.904589, 36.264253], [-85.905025, 36.265175], [-85.905402, 36.267213], [-85.90598, 36.270643], [-85.906113, 36.272534], [-85.906408, 36.273663], [-85.906677, 36.274372], [-85.907171, 36.275276], [-85.907807, 36.276215], [-85.908455, 36.27685], [-85.910189, 36.278682], [-85.910923, 36.279251], [-85.91126, 36.27956], [-85.912073, 36.280509], [-85.912379, 36.281028], [-85.91273, 36.281803], [-85.913676, 36.28424], [-85.913906, 36.284959], [-85.914012, 36.285445], [-85.914301, 36.288155], [-85.91439, 36.290708], [-85.914309, 36.292685], [-85.914299, 36.293921], [-85.914389, 36.294659], [-85.91454, 36.295222], [-85.914942, 36.296329], [-85.915717, 36.297942], [-85.916131, 36.298959], [-85.916926, 36.301175], [-85.917579, 36.303252], [-85.917952, 36.304193], [-85.918255, 36.304805], [-85.91865, 36.305381], [-85.919154, 36.305898], [-85.919733, 36.306362], [-85.920347, 36.306795], [-85.921615, 36.307486], [-85.921894, 36.307581], [-85.922856, 36.307798], [-85.925221, 36.3079], [-85.927068, 36.307876], [-85.928931, 36.307676], [-85.931586, 36.307201], [-85.934178, 36.306687], [-85.93744, 36.305925], [-85.938436, 36.305572], [-85.940358, 36.305028], [-85.941107, 36.304769], [-85.942725, 36.304073], [-85.943761, 36.303551], [-85.945395, 36.302567], [-85.94586, 36.302246], [-85.946285, 36.301891], [-85.946608, 36.301573], [-85.947688, 36.300374], [-85.948226, 36.299675], [-85.948556, 36.299073], [-85.948891, 36.298295], [-85.949016, 36.297895], [-85.949081, 36.297487], [-85.949066, 36.296992], [-85.948623, 36.295724], [-85.948328, 36.295199], [-85.947989, 36.294691], [-85.947128, 36.293991], [-85.945734, 36.293161], [-85.944748, 36.292446], [-85.941348, 36.28927], [-85.940864, 36.28874], [-85.939677, 36.287202], [-85.938471, 36.285484], [-85.936911, 36.283752], [-85.935011, 36.281816], [-85.934099, 36.28116], [-85.932415, 36.280093], [-85.931738, 36.279594], [-85.931018, 36.279136], [-85.930175, 36.278674], [-85.928864, 36.278042], [-85.92567, 36.276371], [-85.925355, 36.27618], [-85.925102, 36.275934], [-85.92471, 36.274533], [-85.924287, 36.272223], [-85.924115, 36.270895], [-85.923773, 36.265956], [-85.923822, 36.264578], [-85.924186, 36.262255], [-85.924251, 36.260264], [-85.924208, 36.256027], [-85.924399, 36.253947], [-85.924668, 36.25299], [-85.925094, 36.25202], [-85.925852, 36.25077], [-85.926436, 36.249902], [-85.928534, 36.247147], [-85.928948, 36.246789], [-85.931293, 36.244938], [-85.933488, 36.243467], [-85.934665, 36.242557], [-85.935507, 36.24196], [-85.93732, 36.240898], [-85.939252, 36.239983], [-85.939628, 36.239854], [-85.940028, 36.23981], [-85.940861, 36.239799], [-85.941351, 36.239911], [-85.94203, 36.240085], [-85.942589, 36.240285], [-85.944397, 36.2412], [-85.944841, 36.241477], [-85.945967, 36.242364], [-85.950192, 36.2452], [-85.951331, 36.246141], [-85.953158, 36.247325], [-85.954373, 36.248072], [-85.954817, 36.248412], [-85.955128, 36.248738], [-85.956054, 36.250112], [-85.956671, 36.251152], [-85.957273, 36.252377], [-85.958078, 36.25389], [-85.958621, 36.255033], [-85.958817, 36.255791], [-85.959467, 36.25914], [-85.960138, 36.261035], [-85.961335, 36.263934], [-85.962495, 36.26586], [-85.963116, 36.266716], [-85.963306, 36.266908], [-85.963805, 36.267186], [-85.964616, 36.26754], [-85.96602, 36.268024], [-85.966667, 36.268287]]}, "properties": {"OBJECTID": 85, "Category_of_Recommended_Track": "Not Based on a System of Fixed Marks", "Traffic_Flow": "Two-Way", "Information": "", "Scale_Minimum": 45000, "Source_Date": "20040930", "Source_Indication": "US,U3,USACE,LRN_GIS", "Source_Dataset": "U37CR307.000", "Feature_ID": "U3 1392991983 00001"}}]}