{"type": "FeatureCollection", "features": [{"type": "Feature", "id": 109, "geometry": {"type": "Polygon", "coordinates": [[[-86.657704, 36.298389], [-86.658685, 36.29727], [-86.657938, 36.296822], [-86.657912, 36.296851], [-86.657641, 36.296696], [-86.657584, 36.296761], [-86.657163, 36.296519], [-86.657188, 36.29649], [-86.656278, 36.295988], [-86.656193, 36.296087], [-86.656302, 36.296145], [-86.656281, 36.296171], [-86.656172, 36.296113], [-86.65609, 36.296215], [-86.656201, 36.29627], [-86.65618, 36.296297], [-86.656069, 36.296241], [-86.655989, 36.296346], [-86.656101, 36.296401], [-86.656084, 36.296424], [-86.655971, 36.296371], [-86.655894, 36.296478], [-86.656008, 36.296531], [-86.655991, 36.296554], [-86.655876, 36.296503], [-86.655804, 36.296612], [-86.655918, 36.296662], [-86.655903, 36.296686], [-86.655787, 36.296637], [-86.655718, 36.296747], [-86.655833, 36.296795], [-86.655818, 36.296819], [-86.656083, 36.296925], [-86.655601, 36.297712], [-86.655945, 36.297843], [-86.656085, 36.297822], [-86.65646, 36.297916], [-86.657704, 36.298389]]]}, "properties": {"OBJECTID": 109, "Category_of_Restricted_Area": "Navigational Aid Safety Zone", "Object_Name": "", "Restriction": "Entry Restricted", "Information": "All waters immediately above and below each dam are designated as restricted areas.", "Scale_Minimum": 75000, "Source_Date": "20131113", "Source_Indication": "US,U3,SURVY,2013_SEAS_LIDAR_Mapping_Survey", "Source_Dataset": "U37CR149.000", "Feature_ID": "U3 1617887497 00001"}}, {"type": "Feature", "id": 111, "geometry": {"type": "Polygon", "coordinates": [[[-86.653342, 36.297037], [-86.653491, 36.297117], [-86.654043, 36.297275], [-86.655032, 36.297642], [-86.655769, 36.296439], [-86.656214, 36.295896], [-86.656124, 36.29582], [-86.65611, 36.295751], [-86.654997, 36.29511], [-86.654913, 36.295126], [-86.654875, 36.295104], [-86.653342, 36.297037]]]}, "properties": {"OBJECTID": 111, "Category_of_Restricted_Area": "Navigational Aid Safety Zone", "Object_Name": "", "Restriction": "Entry Restricted", "Information": "All waters immediately above and below each dam are designated as restricted areas.", "Scale_Minimum": 75000, "Source_Date": "20131113", "Source_Indication": "US,U3,SURVY,2013_SEAS_LIDAR_Mapping_Survey", "Source_Dataset": "U37CR149.000", "Feature_ID": "U3 1617887500 00001"}}, {"type": "Feature", "id": 113, "geometry": {"type": "Polygon", "coordinates": [[[-85.9412, 36.28885], [-85.942013, 36.289632], [-85.942129, 36.289552], [-85.942457, 36.289864], [-85.942451, 36.289919], [-85.943074, 36.290511], [-85.943105, 36.290485], [-85.943147, 36.290518], [-85.943253, 36.290431], [-85.943211, 36.290398], [-85.943239, 36.290376], [-85.94328, 36.290408], [-85.943386, 36.290321], [-85.943345, 36.290289], [-85.943372, 36.290266], [-85.943413, 36.290299], [-85.94352, 36.290212], [-85.943478, 36.290179], [-85.943506, 36.290157], [-85.943547, 36.290189], [-85.943653, 36.290102], [-85.943612, 36.29007], [-85.943639, 36.290047], [-85.94368, 36.29008], [-85.943786, 36.289993], [-85.943745, 36.28996], [-85.943772, 36.289938], [-85.943547, 36.289757], [-85.944162, 36.289253], [-85.94402, 36.289138], [-85.94384, 36.288893], [-85.943143, 36.288498], [-85.942349, 36.287906], [-85.9412, 36.28885]]]}, "properties": {"OBJECTID": 113, "Category_of_Restricted_Area": "Navigational Aid Safety Zone", "Object_Name": "", "Restriction": "Entry Restricted", "Information": "All waters immediately above and below the dam are designated as restricted areas.", "Scale_Minimum": 75000, "Source_Date": "20140604", "Source_Indication": "US,U3,SURVY,2014_SEAS_LIDAR_Mapping_Survey", "Source_Dataset": "U37CR307.000", "Feature_ID": "U3 1392990211 00001"}}, {"type": "Feature", "id": 114, "geometry": {"type": "Polygon", "coordinates": [[[-85.943234, 36.290651], [-85.943197, 36.290676], [-85.943263, 36.29074], [-85.943253, 36.290836], [-85.944194, 36.29173], [-85.944278, 36.291731], [-85.944311, 36.291781], [-85.945852, 36.290516], [-85.945437, 36.290037], [-85.944872, 36.289468], [-85.944831, 36.289382], [-85.943234, 36.290651]]]}, "properties": {"OBJECTID": 114, "Category_of_Restricted_Area": "Navigational Aid Safety Zone", "Object_Name": "", "Restriction": "Entry Restricted", "Information": "All waters immediately above and below the dam are designated as restricted areas.", "Scale_Minimum": 75000, "Source_Date": "20140604", "Source_Indication": "US,U3,SURVY,2014_SEAS_LIDAR_Mapping_Survey", "Source_Dataset": "U37CR307.000", "Feature_ID": "U3 1392990219 00001"}}]}