{"type": "FeatureCollection", "features": [{"type": "Feature", "id": 862, "geometry": {"type": "Point", "coordinates": [-86.576253, 36.315236]}, "properties": {"OBJECTID": 862, "Category_of_Shoreline_Construction": "Wharf (Quay)", "Nature_of_Construction": "", "Object_Name": "Bluegrass Country Club Dock", "Status": "", "Water_Level": "Always Dry", "Condition": "", "Information": "", "Source_Date": "20050412", "Source_Indication": "US,U3,USACE,LRN_GIS", "Source_Dataset": "U37CR221.000", "Scale_Minimum": 8000, "Feature_ID": "U3 1392979484 00001"}}, {"type": "Feature", "id": 863, "geometry": {"type": "Point", "coordinates": [-86.511942, 36.272072]}, "properties": {"OBJECTID": 863, "Category_of_Shoreline_Construction": "Wharf (Quay)", "Nature_of_Construction": "", "Object_Name": "Cedar Creek Boat Dock", "Status": "", "Water_Level": "Always Dry", "Condition": "", "Information": "", "Source_Date": "20050412", "Source_Indication": "US,U3,USACE,LRN_GIS", "Source_Dataset": "U37CR221.000", "Scale_Minimum": 8000, "Feature_ID": "U3 1392979485 00001"}}, {"type": "Feature", "id": 864, "geometry": {"type": "Point", "coordinates": [-86.511929, 36.27253]}, "properties": {"OBJECTID": 864, "Category_of_Shoreline_Construction": "Wharf (Quay)", "Nature_of_Construction": "", "Object_Name": "Cedar Creek Boat Dock", "Status": "", "Water_Level": "Always Dry", "Condition": "", "Information": "", "Source_Date": "20050412", "Source_Indication": "US,U3,USACE,LRN_GIS", "Source_Dataset": "U37CR221.000", "Scale_Minimum": 8000, "Feature_ID": "U3 1392979486 00001"}}, {"type": "Feature", "id": 866, "geometry": {"type": "Point", "coordinates": [-86.600626, 36.258181]}, "properties": {"OBJECTID": 866, "Category_of_Shoreline_Construction": "Ramp", "Nature_of_Construction": "", "Object_Name": "", "Status": "", "Water_Level": "", "Condition": "", "Information": "", "Source_Date": "20050412", "Source_Indication": "US,U3,USACE,LRN_GIS", "Source_Dataset": "U37CR221.000", "Scale_Minimum": 30000, "Feature_ID": "U3 1392979972 00001"}}, {"type": "Feature", "id": 867, "geometry": {"type": "Point", "coordinates": [-86.576238, 36.315181]}, "properties": {"OBJECTID": 867, "Category_of_Shoreline_Construction": "Ramp", "Nature_of_Construction": "", "Object_Name": "", "Status": "", "Water_Level": "", "Condition": "", "Information": "", "Source_Date": "20050412", "Source_Indication": "US,U3,USACE,LRN_GIS", "Source_Dataset": "U37CR221.000", "Scale_Minimum": 30000, "Feature_ID": "U3 1392979973 00001"}}, {"type": "Feature", "id": 868, "geometry": {"type": "Point", "coordinates": [-86.477106, 36.347258]}, "properties": {"OBJECTID": 868, "Category_of_Shoreline_Construction": "Ramp", "Nature_of_Construction": "", "Object_Name": "", "Status": "", "Water_Level": "", "Condition": "", "Information": "", "Source_Date": "20050412", "Source_Indication": "US,U3,USACE,LRN_GIS", "Source_Dataset": "U37CR221.000", "Scale_Minimum": 30000, "Feature_ID": "U3 1392979975 00001"}}, {"type": "Feature", "id": 869, "geometry": {"type": "Point", "coordinates": [-86.613315, 36.296794]}, "properties": {"OBJECTID": 869, "Category_of_Shoreline_Construction": "Ramp", "Nature_of_Construction": "", "Object_Name": "", "Status": "", "Water_Level": "", "Condition": "", "Information": "", "Source_Date": "20050412", "Source_Indication": "US,U3,USACE,LRN_GIS", "Source_Dataset": "U37CR221.000", "Scale_Minimum": 30000, "Feature_ID": "U3 1392979976 00001"}}, {"type": "Feature", "id": 873, "geometry": {"type": "Point", "coordinates": [-86.520314, 36.287923]}, "properties": {"OBJECTID": 873, "Category_of_Shoreline_Construction": "Ramp", "Nature_of_Construction": "", "Object_Name": "", "Status": "", "Water_Level": "", "Condition": "", "Information": "", "Source_Date": "20050412", "Source_Indication": "US,U3,USACE,LRN_GIS", "Source_Dataset": "U37CR221.000", "Scale_Minimum": 30000, "Feature_ID": "U3 1392979984 00001"}}, {"type": "Feature", "id": 874, "geometry": {"type": "Point", "coordinates": [-86.464188, 36.303419]}, "properties": {"OBJECTID": 874, "Category_of_Shoreline_Construction": "Ramp", "Nature_of_Construction": "", "Object_Name": "Tyrees Access Area", "Status": "Public", "Water_Level": "", "Condition": "", "Information": "", "Source_Date": "20050412", "Source_Indication": "US,U3,USACE,LRN_GIS", "Source_Dataset": "U37CR221.000", "Scale_Minimum": 30000, "Feature_ID": "U3 1392979988 00001"}}, {"type": "Feature", "id": 875, "geometry": {"type": "Point", "coordinates": [-86.511337, 36.274233]}, "properties": {"OBJECTID": 875, "Category_of_Shoreline_Construction": "Ramp", "Nature_of_Construction": "", "Object_Name": "", "Status": "", "Water_Level": "", "Condition": "", "Information": "", "Source_Date": "20050412", "Source_Indication": "US,U3,USACE,LRN_GIS", "Source_Dataset": "U37CR221.000", "Scale_Minimum": 30000, "Feature_ID": "U3 1392979991 00001"}}, {"type": "Feature", "id": 876, "geometry": {"type": "Point", "coordinates": [-86.447954, 36.280607]}, "properties": {"OBJECTID": 876, "Category_of_Shoreline_Construction": "Ramp", "Nature_of_Construction": "", "Object_Name": "", "Status": "", "Water_Level": "", "Condition": "", "Information": "", "Source_Date": "20050412", "Source_Indication": "US,U3,USACE,LRN_GIS", "Source_Dataset": "U37CR221.000", "Scale_Minimum": 30000, "Feature_ID": "U3 1392979995 00001"}}, {"type": "Feature", "id": 878, "geometry": {"type": "Point", "coordinates": [-86.576831, 36.282813]}, "properties": {"OBJECTID": 878, "Category_of_Shoreline_Construction": "Ramp", "Nature_of_Construction": "", "Object_Name": "Stark Knob Access Area", "Status": "Public", "Water_Level": "", "Condition": "", "Information": "", "Source_Date": "20050412", "Source_Indication": "US,U3,USACE,LRN_GIS", "Source_Dataset": "U37CR221.000", "Scale_Minimum": 30000, "Feature_ID": "U3 1392980004 00001"}}, {"type": "Feature", "id": 879, "geometry": {"type": "Point", "coordinates": [-86.447969, 36.280649]}, "properties": {"OBJECTID": 879, "Category_of_Shoreline_Construction": "Ramp", "Nature_of_Construction": "", "Object_Name": "Davis Corner Access Area", "Status": "Public", "Water_Level": "", "Condition": "", "Information": "", "Source_Date": "20050412", "Source_Indication": "US,U3,USACE,LRN_GIS", "Source_Dataset": "U37CR221.000", "Scale_Minimum": 30000, "Feature_ID": "U3 1392980007 00001"}}, {"type": "Feature", "id": 881, "geometry": {"type": "Point", "coordinates": [-86.513563, 36.348132]}, "properties": {"OBJECTID": 881, "Category_of_Shoreline_Construction": "Ramp", "Nature_of_Construction": "", "Object_Name": "Station Camp Access Area", "Status": "Public", "Water_Level": "", "Condition": "", "Information": "", "Source_Date": "20050412", "Source_Indication": "US,U3,USACE,LRN_GIS", "Source_Dataset": "U37CR221.000", "Scale_Minimum": 30000, "Feature_ID": "U3 1392980012 00001"}}, {"type": "Feature", "id": 882, "geometry": {"type": "Point", "coordinates": [-86.446623, 36.340102]}, "properties": {"OBJECTID": 882, "Category_of_Shoreline_Construction": "Ramp", "Nature_of_Construction": "", "Object_Name": "Cedar Grove Access Area", "Status": "Public", "Water_Level": "", "Condition": "", "Information": "", "Source_Date": "20050412", "Source_Indication": "US,U3,USACE,LRN_GIS", "Source_Dataset": "U37CR221.000", "Scale_Minimum": 30000, "Feature_ID": "U3 1392980014 00001"}}, {"type": "Feature", "id": 885, "geometry": {"type": "Point", "coordinates": [-86.608329, 36.290153]}, "properties": {"OBJECTID": 885, "Category_of_Shoreline_Construction": "Ramp", "Nature_of_Construction": "", "Object_Name": "", "Status": "", "Water_Level": "", "Condition": "", "Information": "", "Source_Date": "20050412", "Source_Indication": "US,U3,USACE,LRN_GIS", "Source_Dataset": "U37CR221.000", "Scale_Minimum": 30000, "Feature_ID": "U3 1392980027 00001"}}, {"type": "Feature", "id": 887, "geometry": {"type": "Point", "coordinates": [-86.574996, 36.26457]}, "properties": {"OBJECTID": 887, "Category_of_Shoreline_Construction": "Ramp", "Nature_of_Construction": "", "Object_Name": "", "Status": "", "Water_Level": "", "Condition": "", "Information": "", "Source_Date": "20050412", "Source_Indication": "US,U3,USACE,LRN_GIS", "Source_Dataset": "U37CR221.000", "Scale_Minimum": 30000, "Feature_ID": "U3 1392980029 00001"}}, {"type": "Feature", "id": 889, "geometry": {"type": "Point", "coordinates": [-86.502063, 36.283575]}, "properties": {"OBJECTID": 889, "Category_of_Shoreline_Construction": "Ramp", "Nature_of_Construction": "", "Object_Name": "", "Status": "", "Water_Level": "", "Condition": "", "Information": "", "Source_Date": "20050412", "Source_Indication": "US,U3,USACE,LRN_GIS", "Source_Dataset": "U37CR221.000", "Scale_Minimum": 30000, "Feature_ID": "U3 1392980033 00001"}}, {"type": "Feature", "id": 890, "geometry": {"type": "Point", "coordinates": [-86.559482, 36.317337]}, "properties": {"OBJECTID": 890, "Category_of_Shoreline_Construction": "Ramp", "Nature_of_Construction": "", "Object_Name": "Saundersville Access Area", "Status": "Public", "Water_Level": "", "Condition": "", "Information": "", "Source_Date": "20050412", "Source_Indication": "US,U3,USACE,LRN_GIS", "Source_Dataset": "U37CR221.000", "Scale_Minimum": 30000, "Feature_ID": "U3 1392980034 00001"}}, {"type": "Feature", "id": 891, "geometry": {"type": "Point", "coordinates": [-86.526176, 36.28547]}, "properties": {"OBJECTID": 891, "Category_of_Shoreline_Construction": "Ramp", "Nature_of_Construction": "", "Object_Name": "", "Status": "", "Water_Level": "", "Condition": "", "Information": "", "Source_Date": "20050412", "Source_Indication": "US,U3,USACE,LRN_GIS", "Source_Dataset": "U37CR221.000", "Scale_Minimum": 30000, "Feature_ID": "U3 1392980035 00001"}}, {"type": "Feature", "id": 893, "geometry": {"type": "Point", "coordinates": [-86.610303, 36.292515]}, "properties": {"OBJECTID": 893, "Category_of_Shoreline_Construction": "Ramp", "Nature_of_Construction": "", "Object_Name": "", "Status": "", "Water_Level": "", "Condition": "", "Information": "", "Source_Date": "20050412", "Source_Indication": "US,U3,USACE,LRN_GIS", "Source_Dataset": "U37CR221.000", "Scale_Minimum": 30000, "Feature_ID": "U3 1392980039 00001"}}, {"type": "Feature", "id": 896, "geometry": {"type": "Point", "coordinates": [-86.444165, 36.289819]}, "properties": {"OBJECTID": 896, "Category_of_Shoreline_Construction": "Ramp", "Nature_of_Construction": "", "Object_Name": "LaGuardo Access Area", "Status": "Public", "Water_Level": "", "Condition": "", "Information": "", "Source_Date": "20050412", "Source_Indication": "US,U3,USACE,LRN_GIS", "Source_Dataset": "U37CR221.000", "Scale_Minimum": 30000, "Feature_ID": "U3 1392980044 00001"}}, {"type": "Feature", "id": 897, "geometry": {"type": "Point", "coordinates": [-86.567838, 36.249897]}, "properties": {"OBJECTID": 897, "Category_of_Shoreline_Construction": "Ramp", "Nature_of_Construction": "", "Object_Name": "Shutes Branch Access Area", "Status": "Public", "Water_Level": "", "Condition": "", "Information": "", "Source_Date": "20050412", "Source_Indication": "US,U3,USACE,LRN_GIS", "Source_Dataset": "U37CR221.000", "Scale_Minimum": 30000, "Feature_ID": "U3 1392980045 00001"}}, {"type": "Feature", "id": 901, "geometry": {"type": "Point", "coordinates": [-86.555967, 36.268989]}, "properties": {"OBJECTID": 901, "Category_of_Shoreline_Construction": "Ramp", "Nature_of_Construction": "", "Object_Name": "", "Status": "", "Water_Level": "", "Condition": "", "Information": "", "Source_Date": "20050412", "Source_Indication": "US,U3,USACE,LRN_GIS", "Source_Dataset": "U37CR221.000", "Scale_Minimum": 30000, "Feature_ID": "U3 1392980348 00001"}}, {"type": "Feature", "id": 902, "geometry": {"type": "Point", "coordinates": [-86.500699, 36.285414]}, "properties": {"OBJECTID": 902, "Category_of_Shoreline_Construction": "Ramp", "Nature_of_Construction": "", "Object_Name": "Lone Branch Access Area", "Status": "Public", "Water_Level": "", "Condition": "", "Information": "", "Source_Date": "20050412", "Source_Indication": "US,U3,USACE,LRN_GIS", "Source_Dataset": "U37CR221.000", "Scale_Minimum": 30000, "Feature_ID": "U3 1392980350 00001"}}, {"type": "Feature", "id": 904, "geometry": {"type": "Point", "coordinates": [-86.605812, 36.258861]}, "properties": {"OBJECTID": 904, "Category_of_Shoreline_Construction": "Ramp", "Nature_of_Construction": "", "Object_Name": "", "Status": "", "Water_Level": "", "Condition": "", "Information": "", "Source_Date": "20050412", "Source_Indication": "US,U3,USACE,LRN_GIS", "Source_Dataset": "U37CR221.000", "Scale_Minimum": 30000, "Feature_ID": "U3 1392980360 00001"}}, {"type": "Feature", "id": 907, "geometry": {"type": "Point", "coordinates": [-86.473071, 36.357423]}, "properties": {"OBJECTID": 907, "Category_of_Shoreline_Construction": "Ramp", "Nature_of_Construction": "", "Object_Name": "Gallatin Recreational Area", "Status": "Public", "Water_Level": "", "Condition": "", "Information": "", "Source_Date": "20050412", "Source_Indication": "US,U3,USACE,LRN_GIS", "Source_Dataset": "U37CR221.000", "Scale_Minimum": 30000, "Feature_ID": "U3 1392980799 00001"}}, {"type": "Feature", "id": 910, "geometry": {"type": "Point", "coordinates": [-86.608628, 36.260666]}, "properties": {"OBJECTID": 910, "Category_of_Shoreline_Construction": "Ramp", "Nature_of_Construction": "", "Object_Name": "", "Status": "", "Water_Level": "", "Condition": "", "Information": "", "Source_Date": "20050412", "Source_Indication": "US,U3,USACE,LRN_GIS", "Source_Dataset": "U37CR221.000", "Scale_Minimum": 30000, "Feature_ID": "U3 1392980809 00001"}}, {"type": "Feature", "id": 911, "geometry": {"type": "Point", "coordinates": [-86.513676, 36.301664]}, "properties": {"OBJECTID": 911, "Category_of_Shoreline_Construction": "Ramp", "Nature_of_Construction": "", "Object_Name": "Cages Bend Campground", "Status": "Public", "Water_Level": "", "Condition": "", "Information": "", "Source_Date": "20050412", "Source_Indication": "US,U3,USACE,LRN_GIS", "Source_Dataset": "U37CR221.000", "Scale_Minimum": 30000, "Feature_ID": "U3 1392980810 00001"}}, {"type": "Feature", "id": 913, "geometry": {"type": "Point", "coordinates": [-86.541136, 36.323387]}, "properties": {"OBJECTID": 913, "Category_of_Shoreline_Construction": "Ramp", "Nature_of_Construction": "", "Object_Name": "Avondale Recreation Area", "Status": "Public", "Water_Level": "", "Condition": "", "Information": "", "Source_Date": "20050412", "Source_Indication": "US,U3,USACE,LRN_GIS", "Source_Dataset": "U37CR221.000", "Scale_Minimum": 30000, "Feature_ID": "U3 1392980816 00001"}}, {"type": "Feature", "id": 915, "geometry": {"type": "Point", "coordinates": [-86.570904, 36.248008]}, "properties": {"OBJECTID": 915, "Category_of_Shoreline_Construction": "Ramp", "Nature_of_Construction": "", "Object_Name": "Shutes Branch Access Area", "Status": "Public", "Water_Level": "", "Condition": "", "Information": "", "Source_Date": "20050412", "Source_Indication": "US,U3,USACE,LRN_GIS", "Source_Dataset": "U37CR221.000", "Scale_Minimum": 30000, "Feature_ID": "U3 1392980818 00001"}}, {"type": "Feature", "id": 917, "geometry": {"type": "Point", "coordinates": [-86.549258, 36.282782]}, "properties": {"OBJECTID": 917, "Category_of_Shoreline_Construction": "Ramp", "Nature_of_Construction": "", "Object_Name": "", "Status": "", "Water_Level": "", "Condition": "", "Information": "", "Source_Date": "20050412", "Source_Indication": "US,U3,USACE,LRN_GIS", "Source_Dataset": "U37CR221.000", "Scale_Minimum": 30000, "Feature_ID": "U3 1392980820 00001"}}, {"type": "Feature", "id": 919, "geometry": {"type": "Point", "coordinates": [-86.599027, 36.275322]}, "properties": {"OBJECTID": 919, "Category_of_Shoreline_Construction": "Ramp", "Nature_of_Construction": "", "Object_Name": "Rock Castle Landing", "Status": "", "Water_Level": "", "Condition": "", "Information": "Historic", "Source_Date": "20050412", "Source_Indication": "US,U3,USACE,LRN_GIS", "Source_Dataset": "U37CR221.000", "Scale_Minimum": 30000, "Feature_ID": "U3 1392980831 00001"}}, {"type": "Feature", "id": 921, "geometry": {"type": "Point", "coordinates": [-86.501753, 36.282261]}, "properties": {"OBJECTID": 921, "Category_of_Shoreline_Construction": "Ramp", "Nature_of_Construction": "", "Object_Name": "", "Status": "", "Water_Level": "", "Condition": "", "Information": "", "Source_Date": "20050412", "Source_Indication": "US,U3,USACE,LRN_GIS", "Source_Dataset": "U37CR221.000", "Scale_Minimum": 30000, "Feature_ID": "U3 1392980835 00001"}}, {"type": "Feature", "id": 925, "geometry": {"type": "Point", "coordinates": [-86.604191, 36.249575]}, "properties": {"OBJECTID": 925, "Category_of_Shoreline_Construction": "Ramp", "Nature_of_Construction": "", "Object_Name": "", "Status": "", "Water_Level": "", "Condition": "", "Information": "", "Source_Date": "20050412", "Source_Indication": "US,U3,USACE,LRN_GIS", "Source_Dataset": "U37CR221.000", "Scale_Minimum": 30000, "Feature_ID": "U3 1392980856 00001"}}, {"type": "Feature", "id": 926, "geometry": {"type": "Point", "coordinates": [-86.575451, 36.303149]}, "properties": {"OBJECTID": 926, "Category_of_Shoreline_Construction": "Ramp", "Nature_of_Construction": "", "Object_Name": "", "Status": "", "Water_Level": "", "Condition": "", "Information": "", "Source_Date": "20050412", "Source_Indication": "US,U3,USACE,LRN_GIS", "Source_Dataset": "U37CR221.000", "Scale_Minimum": 30000, "Feature_ID": "U3 1392980857 00001"}}, {"type": "Feature", "id": 927, "geometry": {"type": "Point", "coordinates": [-86.508336, 36.278618]}, "properties": {"OBJECTID": 927, "Category_of_Shoreline_Construction": "Ramp", "Nature_of_Construction": "", "Object_Name": "Cedar Creek Campground", "Status": "Public", "Water_Level": "", "Condition": "", "Information": "", "Source_Date": "20050412", "Source_Indication": "US,U3,USACE,LRN_GIS", "Source_Dataset": "U37CR221.000", "Scale_Minimum": 30000, "Feature_ID": "U3 1392980859 00001"}}, {"type": "Feature", "id": 929, "geometry": {"type": "Point", "coordinates": [-86.513709, 36.303487]}, "properties": {"OBJECTID": 929, "Category_of_Shoreline_Construction": "Ramp", "Nature_of_Construction": "", "Object_Name": "", "Status": "", "Water_Level": "", "Condition": "", "Information": "", "Source_Date": "20050412", "Source_Indication": "US,U3,USACE,LRN_GIS", "Source_Dataset": "U37CR221.000", "Scale_Minimum": 30000, "Feature_ID": "U3 1392980864 00001"}}, {"type": "Feature", "id": 930, "geometry": {"type": "Point", "coordinates": [-86.613983, 36.297674]}, "properties": {"OBJECTID": 930, "Category_of_Shoreline_Construction": "Ramp", "Nature_of_Construction": "", "Object_Name": "Mallard Point Park", "Status": "Public", "Water_Level": "", "Condition": "", "Information": "", "Source_Date": "20050412", "Source_Indication": "US,U3,USACE,LRN_GIS", "Source_Dataset": "U37CR221.000", "Scale_Minimum": 30000, "Feature_ID": "U3 1392980866 00001"}}, {"type": "Feature", "id": 931, "geometry": {"type": "Point", "coordinates": [-86.550693, 36.282536]}, "properties": {"OBJECTID": 931, "Category_of_Shoreline_Construction": "Ramp", "Nature_of_Construction": "", "Object_Name": "", "Status": "", "Water_Level": "", "Condition": "", "Information": "", "Source_Date": "20050412", "Source_Indication": "US,U3,USACE,LRN_GIS", "Source_Dataset": "U37CR221.000", "Scale_Minimum": 30000, "Feature_ID": "U3 1392980867 00001"}}, {"type": "Feature", "id": 933, "geometry": {"type": "Point", "coordinates": [-86.474386, 36.303889]}, "properties": {"OBJECTID": 933, "Category_of_Shoreline_Construction": "Ramp", "Nature_of_Construction": "", "Object_Name": "Riverview Access Area", "Status": "Public", "Water_Level": "", "Condition": "", "Information": "", "Source_Date": "20050412", "Source_Indication": "US,U3,USACE,LRN_GIS", "Source_Dataset": "U37CR221.000", "Scale_Minimum": 30000, "Feature_ID": "U3 1392980870 00001"}}, {"type": "Feature", "id": 934, "geometry": {"type": "Point", "coordinates": [-86.476207, 36.337345]}, "properties": {"OBJECTID": 934, "Category_of_Shoreline_Construction": "Ramp", "Nature_of_Construction": "", "Object_Name": "Lock 4 Recreation Area", "Status": "Public", "Water_Level": "", "Condition": "", "Information": "", "Source_Date": "20050412", "Source_Indication": "US,U3,USACE,LRN_GIS", "Source_Dataset": "U37CR221.000", "Scale_Minimum": 30000, "Feature_ID": "U3 1392980872 00001"}}]}