{"type": "FeatureCollection", "features": [{"type": "Feature", "id": 3429, "geometry": {"type": "LineString", "coordinates": [[-86.655032, 36.297642], [-86.655769, 36.296439], [-86.656214, 36.295896], [-86.656189, 36.295857]]}, "properties": {"OBJECTID": 3429, "Category_of_Shoreline_Construction": "Unknown", "Nature_of_Construction": "", "Object_Name": "", "Status": "", "Water_Level": "", "Condition": "", "Information": "DAMCON", "Scale_Minimum": 45000, "Source_Date": "20131113", "Source_Indication": "US,U3,SURVY,2013_SEAS_LIDAR_Mapping_Survey", "Source_Dataset": "U37CR149.000", "Feature_ID": "U3 1392978368 00001"}}, {"type": "Feature", "id": 3433, "geometry": {"type": "LineString", "coordinates": [[-86.656396, 36.296035], [-86.656278, 36.295988], [-86.656193, 36.296087], [-86.656302, 36.296145], [-86.656281, 36.296171], [-86.656172, 36.296113], [-86.65609, 36.296215], [-86.656201, 36.29627], [-86.65618, 36.296297], [-86.656069, 36.296241], [-86.655989, 36.296346], [-86.656101, 36.296401], [-86.656084, 36.296424], [-86.655971, 36.296371], [-86.655894, 36.296478], [-86.656008, 36.296531], [-86.655991, 36.296554], [-86.655876, 36.296503], [-86.655804, 36.296612], [-86.655918, 36.296662], [-86.655903, 36.296686], [-86.655787, 36.296637], [-86.655718, 36.296747], [-86.655833, 36.296795], [-86.655818, 36.296819], [-86.656083, 36.296925], [-86.655601, 36.297712]]}, "properties": {"OBJECTID": 3433, "Category_of_Shoreline_Construction": "Unknown", "Nature_of_Construction": "", "Object_Name": "", "Status": "", "Water_Level": "", "Condition": "", "Information": "DAMCON", "Scale_Minimum": 45000, "Source_Date": "20131113", "Source_Indication": "US,U3,SURVY,2013_SEAS_LIDAR_Mapping_Survey", "Source_Dataset": "U37CR149.000", "Feature_ID": "U3 1392978382 00001"}}, {"type": "Feature", "id": 3441, "geometry": {"type": "LineString", "coordinates": [[-86.639551, 36.253274], [-86.638925, 36.253374], [-86.63858, 36.253269], [-86.638272, 36.253126], [-86.637656, 36.252591], [-86.636252, 36.251543], [-86.635902, 36.251194], [-86.635739, 36.251106], [-86.635838, 36.250724], [-86.635977, 36.250432], [-86.636212, 36.25015], [-86.636499, 36.249921]]}, "properties": {"OBJECTID": 3441, "Category_of_Shoreline_Construction": "Breakwater", "Nature_of_Construction": "", "Object_Name": "", "Status": "", "Water_Level": "", "Condition": "", "Information": "", "Scale_Minimum": 30000, "Source_Date": "20040930", "Source_Indication": "US,U3,USACE,LRN_GIS_Data", "Source_Dataset": "U37CR149.000", "Feature_ID": "U3 1392977909 00001"}}, {"type": "Feature", "id": 3444, "geometry": {"type": "LineString", "coordinates": [[-86.66978, 36.255231], [-86.669546, 36.254996], [-86.669127, 36.25466], [-86.66891, 36.254537], [-86.668181, 36.253944], [-86.667871, 36.253753], [-86.667802, 36.253638], [-86.66787, 36.253592], [-86.667821, 36.253548], [-86.667761, 36.253569], [-86.667786, 36.253511], [-86.667755, 36.253468], [-86.667624, 36.2535], [-86.667492, 36.253449], [-86.667472, 36.253431], [-86.667492, 36.253342], [-86.667416, 36.253347], [-86.667473, 36.253264], [-86.667423, 36.253251], [-86.667325, 36.253317], [-86.667297, 36.25327], [-86.667378, 36.253259], [-86.667403, 36.253211], [-86.667384, 36.253174], [-86.667216, 36.2532], [-86.667254, 36.253234], [-86.66724, 36.253261], [-86.667126, 36.253242], [-86.667043, 36.253169], [-86.667214, 36.253113], [-86.667064, 36.253023], [-86.666895, 36.252976], [-86.666801, 36.252997], [-86.666782, 36.253026], [-86.666914, 36.253089], [-86.66693, 36.253127], [-86.6669, 36.253141], [-86.666707, 36.253007], [-86.666544, 36.252983], [-86.666322, 36.252891], [-86.666041, 36.252701], [-86.66585, 36.252644], [-86.665708, 36.252533], [-86.665166, 36.252282], [-86.66516, 36.252256], [-86.665224, 36.252254], [-86.66526, 36.252203], [-86.665214, 36.252181], [-86.66522, 36.252135], [-86.665091, 36.252105], [-86.665064, 36.252043], [-86.664954, 36.251989], [-86.664856, 36.251866], [-86.664556, 36.251694], [-86.664504, 36.251605], [-86.66423, 36.251357], [-86.66341, 36.250838], [-86.663344, 36.250816], [-86.663328, 36.250867], [-86.663225, 36.250757], [-86.663101, 36.25073], [-86.663068, 36.250596], [-86.662774, 36.250382], [-86.662609, 36.250137], [-86.662479, 36.25004], [-86.662285, 36.249813], [-86.662125, 36.249702], [-86.662138, 36.249678], [-86.661983, 36.249532], [-86.661748, 36.249367], [-86.661732, 36.249287], [-86.661437, 36.248954], [-86.661338, 36.248865], [-86.661264, 36.248846], [-86.661105, 36.24857], [-86.661016, 36.248342], [-86.66083, 36.248058]]}, "properties": {"OBJECTID": 3444, "Category_of_Shoreline_Construction": "Rip Rap", "Nature_of_Construction": "Loose Boulders", "Object_Name": "", "Status": "", "Water_Level": "Partly Submerged at High Water", "Condition": "", "Information": "", "Scale_Minimum": 30000, "Source_Date": "20050408", "Source_Indication": "US,U3,USACE,LRN_GIS_Data", "Source_Dataset": "U37CR149.000", "Feature_ID": "U3 1392978384 00001"}}, {"type": "Feature", "id": 3449, "geometry": {"type": "LineString", "coordinates": [[-86.175132, 36.372974], [-86.175179, 36.372983], [-86.175175, 36.372998], [-86.175132, 36.372974]]}, "properties": {"OBJECTID": 3449, "Category_of_Shoreline_Construction": "Unknown", "Nature_of_Construction": "", "Object_Name": "", "Status": "", "Water_Level": "", "Condition": "", "Information": "PYLONS", "Scale_Minimum": 45000, "Source_Date": "20140603", "Source_Indication": "US,U3,SURVY,2014_SEAS_LIDAR_Mapping_Survey", "Source_Dataset": "U37CR221.000", "Feature_ID": "U3 1392980763 00001"}}, {"type": "Feature", "id": 3450, "geometry": {"type": "LineString", "coordinates": [[-86.436337, 36.337407], [-86.43631, 36.337401], [-86.436422, 36.337389], [-86.436337, 36.337407]]}, "properties": {"OBJECTID": 3450, "Category_of_Shoreline_Construction": "Unknown", "Nature_of_Construction": "", "Object_Name": "", "Status": "", "Water_Level": "", "Condition": "", "Information": "PYLONS", "Scale_Minimum": 45000, "Source_Date": "20140603", "Source_Indication": "US,U3,SURVY,2014_SEAS_LIDAR_Mapping_Survey", "Source_Dataset": "U37CR221.000", "Feature_ID": "U3 1392980764 00001"}}, {"type": "Feature", "id": 3451, "geometry": {"type": "LineString", "coordinates": [[-86.436576, 36.33739], [-86.436561, 36.337393], [-86.436557, 36.33738], [-86.436576, 36.33739]]}, "properties": {"OBJECTID": 3451, "Category_of_Shoreline_Construction": "Unknown", "Nature_of_Construction": "", "Object_Name": "", "Status": "", "Water_Level": "", "Condition": "", "Information": "PYLONS", "Scale_Minimum": 45000, "Source_Date": "20140603", "Source_Indication": "US,U3,SURVY,2014_SEAS_LIDAR_Mapping_Survey", "Source_Dataset": "U37CR221.000", "Feature_ID": "U3 1392980765 00001"}}, {"type": "Feature", "id": 3452, "geometry": {"type": "LineString", "coordinates": [[-86.436644, 36.337637], [-86.436624, 36.337627], [-86.43664, 36.337624], [-86.436644, 36.337637]]}, "properties": {"OBJECTID": 3452, "Category_of_Shoreline_Construction": "Unknown", "Nature_of_Construction": "", "Object_Name": "", "Status": "", "Water_Level": "", "Condition": "", "Information": "PYLONS", "Scale_Minimum": 45000, "Source_Date": "20140603", "Source_Indication": "US,U3,SURVY,2014_SEAS_LIDAR_Mapping_Survey", "Source_Dataset": "U37CR221.000", "Feature_ID": "U3 1392980766 00001"}}, {"type": "Feature", "id": 3453, "geometry": {"type": "LineString", "coordinates": [[-86.436656, 36.337456], [-86.436641, 36.337459], [-86.436637, 36.337446], [-86.436656, 36.337456]]}, "properties": {"OBJECTID": 3453, "Category_of_Shoreline_Construction": "Unknown", "Nature_of_Construction": "", "Object_Name": "", "Status": "", "Water_Level": "", "Condition": "", "Information": "PYLONS", "Scale_Minimum": 45000, "Source_Date": "20140603", "Source_Indication": "US,U3,SURVY,2014_SEAS_LIDAR_Mapping_Survey", "Source_Dataset": "U37CR221.000", "Feature_ID": "U3 1392980767 00001"}}, {"type": "Feature", "id": 3454, "geometry": {"type": "LineString", "coordinates": [[-86.436735, 36.337974], [-86.43672, 36.337977], [-86.436716, 36.337964], [-86.436735, 36.337974]]}, "properties": {"OBJECTID": 3454, "Category_of_Shoreline_Construction": "Unknown", "Nature_of_Construction": "", "Object_Name": "", "Status": "", "Water_Level": "", "Condition": "", "Information": "PYLONS", "Scale_Minimum": 45000, "Source_Date": "20140603", "Source_Indication": "US,U3,SURVY,2014_SEAS_LIDAR_Mapping_Survey", "Source_Dataset": "U37CR221.000", "Feature_ID": "U3 1392980768 00001"}}, {"type": "Feature", "id": 3455, "geometry": {"type": "LineString", "coordinates": [[-86.436749, 36.337795], [-86.436734, 36.337798], [-86.43673, 36.337785], [-86.436749, 36.337795]]}, "properties": {"OBJECTID": 3455, "Category_of_Shoreline_Construction": "Unknown", "Nature_of_Construction": "", "Object_Name": "", "Status": "", "Water_Level": "", "Condition": "", "Information": "PYLONS", "Scale_Minimum": 45000, "Source_Date": "20140603", "Source_Indication": "US,U3,SURVY,2014_SEAS_LIDAR_Mapping_Survey", "Source_Dataset": "U37CR221.000", "Feature_ID": "U3 1392980769 00001"}}, {"type": "Feature", "id": 3456, "geometry": {"type": "LineString", "coordinates": [[-86.436555, 36.337314], [-86.436536, 36.337304], [-86.436551, 36.337301], [-86.436555, 36.337314]]}, "properties": {"OBJECTID": 3456, "Category_of_Shoreline_Construction": "Unknown", "Nature_of_Construction": "", "Object_Name": "", "Status": "", "Water_Level": "", "Condition": "", "Information": "PYLONS", "Scale_Minimum": 45000, "Source_Date": "20140603", "Source_Indication": "US,U3,SURVY,2014_SEAS_LIDAR_Mapping_Survey", "Source_Dataset": "U37CR221.000", "Feature_ID": "U3 1392980770 00001"}}, {"type": "Feature", "id": 3457, "geometry": {"type": "LineString", "coordinates": [[-86.436598, 36.337467], [-86.436582, 36.33747], [-86.436578, 36.337457], [-86.436598, 36.337467]]}, "properties": {"OBJECTID": 3457, "Category_of_Shoreline_Construction": "Unknown", "Nature_of_Construction": "", "Object_Name": "", "Status": "", "Water_Level": "", "Condition": "", "Information": "PYLONS", "Scale_Minimum": 45000, "Source_Date": "20140603", "Source_Indication": "US,U3,SURVY,2014_SEAS_LIDAR_Mapping_Survey", "Source_Dataset": "U37CR221.000", "Feature_ID": "U3 1392980771 00001"}}, {"type": "Feature", "id": 3458, "geometry": {"type": "LineString", "coordinates": [[-86.436702, 36.337626], [-86.436683, 36.337616], [-86.436698, 36.337613], [-86.436702, 36.337626]]}, "properties": {"OBJECTID": 3458, "Category_of_Shoreline_Construction": "Unknown", "Nature_of_Construction": "", "Object_Name": "", "Status": "", "Water_Level": "", "Condition": "", "Information": "PYLONS", "Scale_Minimum": 45000, "Source_Date": "20140603", "Source_Indication": "US,U3,SURVY,2014_SEAS_LIDAR_Mapping_Survey", "Source_Dataset": "U37CR221.000", "Feature_ID": "U3 1392980772 00001"}}, {"type": "Feature", "id": 3459, "geometry": {"type": "LineString", "coordinates": [[-86.436691, 36.337805], [-86.436675, 36.337808], [-86.436672, 36.337795], [-86.436691, 36.337805]]}, "properties": {"OBJECTID": 3459, "Category_of_Shoreline_Construction": "Unknown", "Nature_of_Construction": "", "Object_Name": "", "Status": "", "Water_Level": "", "Condition": "", "Information": "PYLONS", "Scale_Minimum": 45000, "Source_Date": "20140603", "Source_Indication": "US,U3,SURVY,2014_SEAS_LIDAR_Mapping_Survey", "Source_Dataset": "U37CR221.000", "Feature_ID": "U3 1392980773 00001"}}, {"type": "Feature", "id": 3460, "geometry": {"type": "LineString", "coordinates": [[-86.175225, 36.372991], [-86.175268, 36.373015], [-86.175221, 36.373006], [-86.175225, 36.372991]]}, "properties": {"OBJECTID": 3460, "Category_of_Shoreline_Construction": "Unknown", "Nature_of_Construction": "", "Object_Name": "", "Status": "", "Water_Level": "", "Condition": "", "Information": "PYLONS", "Scale_Minimum": 45000, "Source_Date": "20140603", "Source_Indication": "US,U3,SURVY,2014_SEAS_LIDAR_Mapping_Survey", "Source_Dataset": "U37CR221.000", "Feature_ID": "U3 1392980774 00001"}}, {"type": "Feature", "id": 3461, "geometry": {"type": "LineString", "coordinates": [[-86.436614, 36.337304], [-86.436598, 36.337307], [-86.436594, 36.337294], [-86.436614, 36.337304]]}, "properties": {"OBJECTID": 3461, "Category_of_Shoreline_Construction": "Unknown", "Nature_of_Construction": "", "Object_Name": "", "Status": "", "Water_Level": "", "Condition": "", "Information": "PYLONS", "Scale_Minimum": 45000, "Source_Date": "20140603", "Source_Indication": "US,U3,SURVY,2014_SEAS_LIDAR_Mapping_Survey", "Source_Dataset": "U37CR221.000", "Feature_ID": "U3 1392980775 00001"}}, {"type": "Feature", "id": 3462, "geometry": {"type": "LineString", "coordinates": [[-86.436635, 36.33738], [-86.436619, 36.337383], [-86.436615, 36.33737], [-86.436635, 36.33738]]}, "properties": {"OBJECTID": 3462, "Category_of_Shoreline_Construction": "Unknown", "Nature_of_Construction": "", "Object_Name": "", "Status": "", "Water_Level": "", "Condition": "", "Information": "PYLONS", "Scale_Minimum": 45000, "Source_Date": "20140603", "Source_Indication": "US,U3,SURVY,2014_SEAS_LIDAR_Mapping_Survey", "Source_Dataset": "U37CR221.000", "Feature_ID": "U3 1392980776 00001"}}, {"type": "Feature", "id": 3463, "geometry": {"type": "LineString", "coordinates": [[-86.436534, 36.337237], [-86.436515, 36.337227], [-86.43653, 36.337224], [-86.436534, 36.337237]]}, "properties": {"OBJECTID": 3463, "Category_of_Shoreline_Construction": "Unknown", "Nature_of_Construction": "", "Object_Name": "", "Status": "", "Water_Level": "", "Condition": "", "Information": "PYLONS", "Scale_Minimum": 45000, "Source_Date": "20140603", "Source_Indication": "US,U3,SURVY,2014_SEAS_LIDAR_Mapping_Survey", "Source_Dataset": "U37CR221.000", "Feature_ID": "U3 1392980777 00001"}}, {"type": "Feature", "id": 3464, "geometry": {"type": "LineString", "coordinates": [[-86.436432, 36.337757], [-86.436401, 36.337754], [-86.436507, 36.337738], [-86.436432, 36.337757]]}, "properties": {"OBJECTID": 3464, "Category_of_Shoreline_Construction": "Unknown", "Nature_of_Construction": "", "Object_Name": "", "Status": "", "Water_Level": "", "Condition": "", "Information": "PYLONS", "Scale_Minimum": 45000, "Source_Date": "20140603", "Source_Indication": "US,U3,SURVY,2014_SEAS_LIDAR_Mapping_Survey", "Source_Dataset": "U37CR221.000", "Feature_ID": "U3 1392980778 00001"}}, {"type": "Feature", "id": 3465, "geometry": {"type": "LineString", "coordinates": [[-86.263246, 36.300207], [-86.263464, 36.300237], [-86.263242, 36.300235], [-86.263246, 36.300207]]}, "properties": {"OBJECTID": 3465, "Category_of_Shoreline_Construction": "Unknown", "Nature_of_Construction": "", "Object_Name": "", "Status": "", "Water_Level": "", "Condition": "", "Information": "PYLONS", "Scale_Minimum": 45000, "Source_Date": "20140603", "Source_Indication": "US,U3,SURVY,2014_SEAS_LIDAR_Mapping_Survey", "Source_Dataset": "U37CR221.000", "Feature_ID": "U3 1392980779 00001"}}, {"type": "Feature", "id": 3466, "geometry": {"type": "LineString", "coordinates": [[-86.436592, 36.337227], [-86.436577, 36.33723], [-86.436573, 36.337217], [-86.436592, 36.337227]]}, "properties": {"OBJECTID": 3466, "Category_of_Shoreline_Construction": "Unknown", "Nature_of_Construction": "", "Object_Name": "", "Status": "", "Water_Level": "", "Condition": "", "Information": "PYLONS", "Scale_Minimum": 45000, "Source_Date": "20140603", "Source_Indication": "US,U3,SURVY,2014_SEAS_LIDAR_Mapping_Survey", "Source_Dataset": "U37CR221.000", "Feature_ID": "U3 1392980780 00001"}}, {"type": "Feature", "id": 3467, "geometry": {"type": "LineString", "coordinates": [[-86.436921, 36.338649], [-86.436905, 36.338652], [-86.436902, 36.338639], [-86.436921, 36.338649]]}, "properties": {"OBJECTID": 3467, "Category_of_Shoreline_Construction": "Unknown", "Nature_of_Construction": "", "Object_Name": "", "Status": "", "Water_Level": "", "Condition": "", "Information": "PYLONS", "Scale_Minimum": 45000, "Source_Date": "20140603", "Source_Indication": "US,U3,SURVY,2014_SEAS_LIDAR_Mapping_Survey", "Source_Dataset": "U37CR221.000", "Feature_ID": "U3 1392980781 00001"}}, {"type": "Feature", "id": 3468, "geometry": {"type": "LineString", "coordinates": [[-86.436876, 36.33848], [-86.436856, 36.33847], [-86.436872, 36.338467], [-86.436876, 36.33848]]}, "properties": {"OBJECTID": 3468, "Category_of_Shoreline_Construction": "Unknown", "Nature_of_Construction": "", "Object_Name": "", "Status": "", "Water_Level": "", "Condition": "", "Information": "PYLONS", "Scale_Minimum": 45000, "Source_Date": "20140603", "Source_Indication": "US,U3,SURVY,2014_SEAS_LIDAR_Mapping_Survey", "Source_Dataset": "U37CR221.000", "Feature_ID": "U3 1392980782 00001"}}, {"type": "Feature", "id": 3469, "geometry": {"type": "LineString", "coordinates": [[-86.436981, 36.338639], [-86.436965, 36.338642], [-86.436961, 36.338628], [-86.436981, 36.338639]]}, "properties": {"OBJECTID": 3469, "Category_of_Shoreline_Construction": "Unknown", "Nature_of_Construction": "", "Object_Name": "", "Status": "", "Water_Level": "", "Condition": "", "Information": "PYLONS", "Scale_Minimum": 45000, "Source_Date": "20140603", "Source_Indication": "US,U3,SURVY,2014_SEAS_LIDAR_Mapping_Survey", "Source_Dataset": "U37CR221.000", "Feature_ID": "U3 1392980783 00001"}}, {"type": "Feature", "id": 3470, "geometry": {"type": "LineString", "coordinates": [[-86.437198, 36.339346], [-86.437206, 36.339361], [-86.437073, 36.339376], [-86.437198, 36.339346]]}, "properties": {"OBJECTID": 3470, "Category_of_Shoreline_Construction": "Unknown", "Nature_of_Construction": "", "Object_Name": "", "Status": "", "Water_Level": "", "Condition": "", "Information": "PYLONS", "Scale_Minimum": 45000, "Source_Date": "20140603", "Source_Indication": "US,U3,SURVY,2014_SEAS_LIDAR_Mapping_Survey", "Source_Dataset": "U37CR221.000", "Feature_ID": "U3 1392980784 00001"}}, {"type": "Feature", "id": 3471, "geometry": {"type": "LineString", "coordinates": [[-86.43687, 36.339415], [-86.436864, 36.339393], [-86.43696, 36.339388], [-86.43687, 36.339415]]}, "properties": {"OBJECTID": 3471, "Category_of_Shoreline_Construction": "Unknown", "Nature_of_Construction": "", "Object_Name": "", "Status": "", "Water_Level": "", "Condition": "", "Information": "PYLONS", "Scale_Minimum": 45000, "Source_Date": "20140603", "Source_Indication": "US,U3,SURVY,2014_SEAS_LIDAR_Mapping_Survey", "Source_Dataset": "U37CR221.000", "Feature_ID": "U3 1392980785 00001"}}, {"type": "Feature", "id": 3472, "geometry": {"type": "LineString", "coordinates": [[-86.436889, 36.338301], [-86.436873, 36.338304], [-86.436869, 36.338291], [-86.436889, 36.338301]]}, "properties": {"OBJECTID": 3472, "Category_of_Shoreline_Construction": "Unknown", "Nature_of_Construction": "", "Object_Name": "", "Status": "", "Water_Level": "", "Condition": "", "Information": "PYLONS", "Scale_Minimum": 45000, "Source_Date": "20140603", "Source_Indication": "US,U3,SURVY,2014_SEAS_LIDAR_Mapping_Survey", "Source_Dataset": "U37CR221.000", "Feature_ID": "U3 1392980786 00001"}}, {"type": "Feature", "id": 3473, "geometry": {"type": "LineString", "coordinates": [[-86.43667, 36.338448], [-86.436597, 36.338452], [-86.436692, 36.338434], [-86.43667, 36.338448]]}, "properties": {"OBJECTID": 3473, "Category_of_Shoreline_Construction": "Unknown", "Nature_of_Construction": "", "Object_Name": "", "Status": "", "Water_Level": "", "Condition": "", "Information": "PYLONS", "Scale_Minimum": 45000, "Source_Date": "20140603", "Source_Indication": "US,U3,SURVY,2014_SEAS_LIDAR_Mapping_Survey", "Source_Dataset": "U37CR221.000", "Feature_ID": "U3 1392980787 00001"}}, {"type": "Feature", "id": 3474, "geometry": {"type": "LineString", "coordinates": [[-86.436528, 36.338105], [-86.436498, 36.338102], [-86.436603, 36.338084], [-86.436528, 36.338105]]}, "properties": {"OBJECTID": 3474, "Category_of_Shoreline_Construction": "Unknown", "Nature_of_Construction": "", "Object_Name": "", "Status": "", "Water_Level": "", "Condition": "", "Information": "PYLONS", "Scale_Minimum": 45000, "Source_Date": "20140603", "Source_Indication": "US,U3,SURVY,2014_SEAS_LIDAR_Mapping_Survey", "Source_Dataset": "U37CR221.000", "Feature_ID": "U3 1392980788 00001"}}, {"type": "Feature", "id": 3475, "geometry": {"type": "LineString", "coordinates": [[-86.436935, 36.338469], [-86.43692, 36.338472], [-86.436916, 36.338459], [-86.436935, 36.338469]]}, "properties": {"OBJECTID": 3475, "Category_of_Shoreline_Construction": "Unknown", "Nature_of_Construction": "", "Object_Name": "", "Status": "", "Water_Level": "", "Condition": "", "Information": "PYLONS", "Scale_Minimum": 45000, "Source_Date": "20140603", "Source_Indication": "US,U3,SURVY,2014_SEAS_LIDAR_Mapping_Survey", "Source_Dataset": "U37CR221.000", "Feature_ID": "U3 1392980789 00001"}}, {"type": "Feature", "id": 3476, "geometry": {"type": "LineString", "coordinates": [[-86.436842, 36.338133], [-86.436827, 36.338136], [-86.436823, 36.338123], [-86.436842, 36.338133]]}, "properties": {"OBJECTID": 3476, "Category_of_Shoreline_Construction": "Unknown", "Nature_of_Construction": "", "Object_Name": "", "Status": "", "Water_Level": "", "Condition": "", "Information": "PYLONS", "Scale_Minimum": 45000, "Source_Date": "20140603", "Source_Indication": "US,U3,SURVY,2014_SEAS_LIDAR_Mapping_Survey", "Source_Dataset": "U37CR221.000", "Feature_ID": "U3 1392980790 00001"}}, {"type": "Feature", "id": 3477, "geometry": {"type": "LineString", "coordinates": [[-86.436783, 36.338143], [-86.436763, 36.338133], [-86.436779, 36.33813], [-86.436783, 36.338143]]}, "properties": {"OBJECTID": 3477, "Category_of_Shoreline_Construction": "Unknown", "Nature_of_Construction": "", "Object_Name": "", "Status": "", "Water_Level": "", "Condition": "", "Information": "PYLONS", "Scale_Minimum": 45000, "Source_Date": "20140603", "Source_Indication": "US,U3,SURVY,2014_SEAS_LIDAR_Mapping_Survey", "Source_Dataset": "U37CR221.000", "Feature_ID": "U3 1392980791 00001"}}, {"type": "Feature", "id": 3478, "geometry": {"type": "LineString", "coordinates": [[-86.436828, 36.338311], [-86.436809, 36.338302], [-86.436824, 36.338298], [-86.436828, 36.338311]]}, "properties": {"OBJECTID": 3478, "Category_of_Shoreline_Construction": "Unknown", "Nature_of_Construction": "", "Object_Name": "", "Status": "", "Water_Level": "", "Condition": "", "Information": "PYLONS", "Scale_Minimum": 45000, "Source_Date": "20140603", "Source_Indication": "US,U3,SURVY,2014_SEAS_LIDAR_Mapping_Survey", "Source_Dataset": "U37CR221.000", "Feature_ID": "U3 1392980792 00001"}}, {"type": "Feature", "id": 3479, "geometry": {"type": "LineString", "coordinates": [[-86.436968, 36.338818], [-86.436949, 36.338808], [-86.436964, 36.338805], [-86.436968, 36.338818]]}, "properties": {"OBJECTID": 3479, "Category_of_Shoreline_Construction": "Unknown", "Nature_of_Construction": "", "Object_Name": "", "Status": "", "Water_Level": "", "Condition": "", "Information": "PYLONS", "Scale_Minimum": 45000, "Source_Date": "20140603", "Source_Indication": "US,U3,SURVY,2014_SEAS_LIDAR_Mapping_Survey", "Source_Dataset": "U37CR221.000", "Feature_ID": "U3 1392980793 00001"}}, {"type": "Feature", "id": 3480, "geometry": {"type": "LineString", "coordinates": [[-86.437305, 36.340227], [-86.43743, 36.340195], [-86.437443, 36.340203], [-86.437305, 36.340227]]}, "properties": {"OBJECTID": 3480, "Category_of_Shoreline_Construction": "Unknown", "Nature_of_Construction": "", "Object_Name": "", "Status": "", "Water_Level": "", "Condition": "", "Information": "PYLONS", "Scale_Minimum": 45000, "Source_Date": "20140603", "Source_Indication": "US,U3,SURVY,2014_SEAS_LIDAR_Mapping_Survey", "Source_Dataset": "U37CR221.000", "Feature_ID": "U3 1392980794 00001"}}, {"type": "Feature", "id": 3481, "geometry": {"type": "LineString", "coordinates": [[-86.437028, 36.338808], [-86.437008, 36.338798], [-86.437024, 36.338795], [-86.437028, 36.338808]]}, "properties": {"OBJECTID": 3481, "Category_of_Shoreline_Construction": "Unknown", "Nature_of_Construction": "", "Object_Name": "", "Status": "", "Water_Level": "", "Condition": "", "Information": "PYLONS", "Scale_Minimum": 45000, "Source_Date": "20140603", "Source_Indication": "US,U3,SURVY,2014_SEAS_LIDAR_Mapping_Survey", "Source_Dataset": "U37CR221.000", "Feature_ID": "U3 1392980795 00001"}}, {"type": "Feature", "id": 3482, "geometry": {"type": "LineString", "coordinates": [[-86.436704, 36.338813], [-86.436698, 36.33879], [-86.436794, 36.338785], [-86.436704, 36.338813]]}, "properties": {"OBJECTID": 3482, "Category_of_Shoreline_Construction": "Unknown", "Nature_of_Construction": "", "Object_Name": "", "Status": "", "Water_Level": "", "Condition": "", "Information": "PYLONS", "Scale_Minimum": 45000, "Source_Date": "20140603", "Source_Indication": "US,U3,SURVY,2014_SEAS_LIDAR_Mapping_Survey", "Source_Dataset": "U37CR221.000", "Feature_ID": "U3 1392980796 00001"}}, {"type": "Feature", "id": 3483, "geometry": {"type": "LineString", "coordinates": [[-86.436795, 36.337964], [-86.436776, 36.337954], [-86.436791, 36.337951], [-86.436795, 36.337964]]}, "properties": {"OBJECTID": 3483, "Category_of_Shoreline_Construction": "Unknown", "Nature_of_Construction": "", "Object_Name": "", "Status": "", "Water_Level": "", "Condition": "", "Information": "PYLONS", "Scale_Minimum": 45000, "Source_Date": "20140603", "Source_Indication": "US,U3,SURVY,2014_SEAS_LIDAR_Mapping_Survey", "Source_Dataset": "U37CR221.000", "Feature_ID": "U3 1392980797 00001"}}, {"type": "Feature", "id": 3484, "geometry": {"type": "LineString", "coordinates": [[-86.437099, 36.338973], [-86.436975, 36.338995], [-86.436971, 36.33898], [-86.437099, 36.338973]]}, "properties": {"OBJECTID": 3484, "Category_of_Shoreline_Construction": "Unknown", "Nature_of_Construction": "", "Object_Name": "", "Status": "", "Water_Level": "", "Condition": "", "Information": "PYLONS", "Scale_Minimum": 45000, "Source_Date": "20140603", "Source_Indication": "US,U3,SURVY,2014_SEAS_LIDAR_Mapping_Survey", "Source_Dataset": "U37CR221.000", "Feature_ID": "U3 1392980798 00001"}}, {"type": "Feature", "id": 3486, "geometry": {"type": "LineString", "coordinates": [[-85.943827, 36.24138], [-85.943806, 36.241407], [-85.943698, 36.241328], [-85.943827, 36.24138]]}, "properties": {"OBJECTID": 3486, "Category_of_Shoreline_Construction": "Unknown", "Nature_of_Construction": "", "Object_Name": "", "Status": "", "Water_Level": "", "Condition": "", "Information": "", "Scale_Minimum": 45000, "Source_Date": "20140604", "Source_Indication": "US,U3,SURVY,2014_SEAS_LIDAR_Mapping_Survey", "Source_Dataset": "U37CR307.000", "Feature_ID": "U3 1392989198 00001"}}, {"type": "Feature", "id": 3490, "geometry": {"type": "LineString", "coordinates": [[-85.943234, 36.290651], [-85.944831, 36.289382]]}, "properties": {"OBJECTID": 3490, "Category_of_Shoreline_Construction": "Unknown", "Nature_of_Construction": "", "Object_Name": "", "Status": "", "Water_Level": "", "Condition": "", "Information": "", "Scale_Minimum": 45000, "Source_Date": "20140604", "Source_Indication": "US,U3,SURVY,2014_SEAS_LIDAR_Mapping_Survey", "Source_Dataset": "U37CR307.000", "Feature_ID": "U3 1392989203 00001"}}, {"type": "Feature", "id": 3491, "geometry": {"type": "LineString", "coordinates": [[-85.944047, 36.240546], [-85.944172, 36.240626], [-85.94404, 36.240572], [-85.944047, 36.240546]]}, "properties": {"OBJECTID": 3491, "Category_of_Shoreline_Construction": "Unknown", "Nature_of_Construction": "", "Object_Name": "", "Status": "", "Water_Level": "", "Condition": "", "Information": "", "Scale_Minimum": 45000, "Source_Date": "20140604", "Source_Indication": "US,U3,SURVY,2014_SEAS_LIDAR_Mapping_Survey", "Source_Dataset": "U37CR307.000", "Feature_ID": "U3 1392989205 00001"}}, {"type": "Feature", "id": 3492, "geometry": {"type": "LineString", "coordinates": [[-85.955268, 36.24815], [-85.95525, 36.248164], [-85.955179, 36.248083], [-85.955268, 36.24815]]}, "properties": {"OBJECTID": 3492, "Category_of_Shoreline_Construction": "Unknown", "Nature_of_Construction": "", "Object_Name": "", "Status": "", "Water_Level": "", "Condition": "", "Information": "", "Scale_Minimum": 45000, "Source_Date": "20140604", "Source_Indication": "US,U3,SURVY,2014_SEAS_LIDAR_Mapping_Survey", "Source_Dataset": "U37CR307.000", "Feature_ID": "U3 1392989206 00001"}}, {"type": "Feature", "id": 3493, "geometry": {"type": "LineString", "coordinates": [[-85.954408, 36.248707], [-85.954345, 36.248621], [-85.954435, 36.24869], [-85.954408, 36.248707]]}, "properties": {"OBJECTID": 3493, "Category_of_Shoreline_Construction": "Unknown", "Nature_of_Construction": "", "Object_Name": "", "Status": "", "Water_Level": "", "Condition": "", "Information": "", "Scale_Minimum": 45000, "Source_Date": "20140604", "Source_Indication": "US,U3,SURVY,2014_SEAS_LIDAR_Mapping_Survey", "Source_Dataset": "U37CR307.000", "Feature_ID": "U3 1392989207 00001"}}, {"type": "Feature", "id": 3496, "geometry": {"type": "LineString", "coordinates": [[-85.943074, 36.290511], [-85.943105, 36.290485], [-85.943147, 36.290518], [-85.943253, 36.290431], [-85.943211, 36.290398], [-85.943239, 36.290376], [-85.94328, 36.290408], [-85.943386, 36.290321], [-85.943345, 36.290289], [-85.943372, 36.290266], [-85.943413, 36.290299], [-85.94352, 36.290212], [-85.943478, 36.290179], [-85.943506, 36.290157], [-85.943547, 36.290189], [-85.943653, 36.290102], [-85.943612, 36.29007], [-85.943639, 36.290047], [-85.94368, 36.29008], [-85.943786, 36.289993], [-85.943745, 36.28996], [-85.943772, 36.289938], [-85.943547, 36.289757], [-85.944162, 36.289253]]}, "properties": {"OBJECTID": 3496, "Category_of_Shoreline_Construction": "Unknown", "Nature_of_Construction": "", "Object_Name": "", "Status": "", "Water_Level": "", "Condition": "", "Information": "", "Scale_Minimum": 45000, "Source_Date": "20140604", "Source_Indication": "US,U3,SURVY,2014_SEAS_LIDAR_Mapping_Survey", "Source_Dataset": "U37CR307.000", "Feature_ID": "U3 1392989213 00001"}}]}