{"type": "FeatureCollection", "features": [{"type": "Feature", "id": 726, "geometry": {"type": "Polygon", "coordinates": [[[-86.656189, 36.295857], [-86.65643, 36.295996], [-86.656396, 36.296035], [-86.657188, 36.29649], [-86.657163, 36.296519], [-86.657584, 36.296761], [-86.657641, 36.296696], [-86.657912, 36.296851], [-86.657938, 36.296822], [-86.658715, 36.297265], [-86.658685, 36.297201], [-86.655007, 36.295088], [-86.654867, 36.295084], [-86.654913, 36.295126], [-86.654997, 36.29511], [-86.65611, 36.295751], [-86.656124, 36.29582], [-86.656189, 36.295857]]]}, "properties": {"OBJECTID": 726, "Category_of_Shoreline_Construction": "Lock/Guidewall", "Nature_of_Construction": "Concreted/Metal", "Object_Name": "", "Status": "", "Water_Level": "Always Dry", "Information": "", "Condition": "", "Scale_Minimum": 45000, "Source_Date": "20131113", "Source_Indication": "US,U3,SURVY,2013_SEAS_LIDAR_Mapping_Survey", "Source_Dataset": "U37CR149.000", "Feature_ID": "U3 1392977266 00001"}}, {"type": "Feature", "id": 731, "geometry": {"type": "Polygon", "coordinates": [[[-86.656526, 36.295665], [-86.657996, 36.296523], [-86.658194, 36.296534], [-86.658095, 36.296464], [-86.658068, 36.296494], [-86.657872, 36.296427], [-86.6579, 36.296381], [-86.657528, 36.296168], [-86.65745, 36.296177], [-86.656625, 36.295704], [-86.65665, 36.295675], [-86.656325, 36.295476], [-86.65624, 36.295487], [-86.65613, 36.295424], [-86.655979, 36.295157], [-86.656016, 36.295144], [-86.65598, 36.295082], [-86.655949, 36.295082], [-86.655942, 36.295145], [-86.656108, 36.295438], [-86.656526, 36.295665]]]}, "properties": {"OBJECTID": 731, "Category_of_Shoreline_Construction": "Lock/Guidewall", "Nature_of_Construction": "Concreted/Metal", "Object_Name": "", "Status": "", "Water_Level": "Always Dry", "Information": "", "Condition": "", "Scale_Minimum": 45000, "Source_Date": "20131113", "Source_Indication": "US,U3,SURVY,2013_SEAS_LIDAR_Mapping_Survey", "Source_Dataset": "U37CR149.000", "Feature_ID": "U3 1392977265 00001"}}, {"type": "Feature", "id": 736, "geometry": {"type": "Polygon", "coordinates": [[[-86.640229, 36.252136], [-86.640627, 36.252304], [-86.640682, 36.25222], [-86.640612, 36.25219], [-86.641093, 36.251519], [-86.641072, 36.25151], [-86.641187, 36.251329], [-86.641088, 36.251287], [-86.64048, 36.252135], [-86.640283, 36.252052], [-86.640229, 36.252136]]]}, "properties": {"OBJECTID": 736, "Category_of_Shoreline_Construction": "Wharf (Quay)", "Nature_of_Construction": "", "Object_Name": "Old Hickory Boat Dock and Marina", "Status": "", "Water_Level": "Always Dry", "Information": "", "Condition": "", "Scale_Minimum": 22000, "Source_Date": "20050408", "Source_Indication": "US,U3,USACE,LRN_GIS_Data", "Source_Dataset": "U37CR149.000", "Feature_ID": "U3 1392973181 00001"}}, {"type": "Feature", "id": 737, "geometry": {"type": "Polygon", "coordinates": [[[-86.640872, 36.251146], [-86.64099, 36.251209], [-86.641143, 36.251019], [-86.641025, 36.250957], [-86.640872, 36.251146]]]}, "properties": {"OBJECTID": 737, "Category_of_Shoreline_Construction": "Wharf (Quay)", "Nature_of_Construction": "", "Object_Name": "Old Hickory Boat Dock and Marina", "Status": "", "Water_Level": "Always Dry", "Information": "", "Condition": "", "Scale_Minimum": 22000, "Source_Date": "20050408", "Source_Indication": "US,U3,USACE,LRN_GIS_Data", "Source_Dataset": "U37CR149.000", "Feature_ID": "U3 1392973175 00001"}}, {"type": "Feature", "id": 739, "geometry": {"type": "Polygon", "coordinates": [[[-86.647653, 36.275945], [-86.647492, 36.276035], [-86.647635, 36.27615], [-86.647678, 36.276111], [-86.647598, 36.276044], [-86.647686, 36.27597], [-86.647653, 36.275945]]]}, "properties": {"OBJECTID": 739, "Category_of_Shoreline_Construction": "Wharf (Quay)", "Nature_of_Construction": "", "Object_Name": "E.I. DuPont De Numours & Co.", "Status": "", "Water_Level": "Always Dry", "Information": "", "Condition": "", "Scale_Minimum": 22000, "Source_Date": "20050408", "Source_Indication": "US,U3,USACE,LRN_GIS_Data", "Source_Dataset": "U37CR149.000", "Feature_ID": "U3 1392973121 00001"}}, {"type": "Feature", "id": 740, "geometry": {"type": "Polygon", "coordinates": [[[-86.646124, 36.297738], [-86.646096, 36.297762], [-86.646163, 36.297795], [-86.646138, 36.297834], [-86.646172, 36.29785], [-86.646279, 36.297703], [-86.646244, 36.297689], [-86.646184, 36.29777], [-86.646124, 36.297738]]]}, "properties": {"OBJECTID": 740, "Category_of_Shoreline_Construction": "Wharf (Quay)", "Nature_of_Construction": "", "Object_Name": "Anchor HIgh Marina", "Status": "", "Water_Level": "Always Dry", "Information": "", "Condition": "", "Scale_Minimum": 22000, "Source_Date": "20050408", "Source_Indication": "US,U3,USACE,LRN_GIS_Data", "Source_Dataset": "U37CR149.000", "Feature_ID": "U3 1392973126 00001"}}, {"type": "Feature", "id": 741, "geometry": {"type": "Polygon", "coordinates": [[[-86.647038, 36.298515], [-86.647026, 36.29854], [-86.647165, 36.298579], [-86.647319, 36.298244], [-86.647182, 36.298204], [-86.647167, 36.298233], [-86.646782, 36.298113], [-86.646755, 36.298166], [-86.646684, 36.298147], [-86.646706, 36.298117], [-86.646644, 36.29809], [-86.646227, 36.297995], [-86.646134, 36.29817], [-86.646224, 36.298198], [-86.646207, 36.298243], [-86.647038, 36.298515]]]}, "properties": {"OBJECTID": 741, "Category_of_Shoreline_Construction": "Wharf (Quay)", "Nature_of_Construction": "", "Object_Name": "Anchor HIgh Marina", "Status": "", "Water_Level": "Always Dry", "Information": "", "Condition": "", "Scale_Minimum": 22000, "Source_Date": "20050408", "Source_Indication": "US,U3,USACE,LRN_GIS_Data", "Source_Dataset": "U37CR149.000", "Feature_ID": "U3 1392973124 00001"}}, {"type": "Feature", "id": 748, "geometry": {"type": "Polygon", "coordinates": [[[-86.650485, 36.297218], [-86.650496, 36.297195], [-86.650334, 36.297152], [-86.650347, 36.297124], [-86.650312, 36.297112], [-86.650273, 36.297194], [-86.650313, 36.297203], [-86.650325, 36.297174], [-86.650485, 36.297218]]]}, "properties": {"OBJECTID": 748, "Category_of_Shoreline_Construction": "Wharf (Quay)", "Nature_of_Construction": "", "Object_Name": "", "Status": "", "Water_Level": "Always Dry", "Information": "", "Condition": "", "Scale_Minimum": 22000, "Source_Date": "20050408", "Source_Indication": "US,U3,USACE,LRN_GIS_Data", "Source_Dataset": "U37CR149.000", "Feature_ID": "U3 1392973122 00001"}}, {"type": "Feature", "id": 753, "geometry": {"type": "Polygon", "coordinates": [[[-86.64739, 36.297709], [-86.646043, 36.297224], [-86.645962, 36.29736], [-86.646426, 36.297533], [-86.646362, 36.29766], [-86.647235, 36.29798], [-86.64739, 36.297709]]]}, "properties": {"OBJECTID": 753, "Category_of_Shoreline_Construction": "Wharf (Quay)", "Nature_of_Construction": "", "Object_Name": "Anchor HIgh Marina", "Status": "", "Water_Level": "Always Dry", "Information": "", "Condition": "", "Scale_Minimum": 22000, "Source_Date": "20050408", "Source_Indication": "US,U3,USACE,LRN_GIS_Data", "Source_Dataset": "U37CR149.000", "Feature_ID": "U3 1392973131 00001"}}, {"type": "Feature", "id": 754, "geometry": {"type": "Polygon", "coordinates": [[[-86.647648, 36.296337], [-86.647627, 36.29632], [-86.647506, 36.296404], [-86.647461, 36.296364], [-86.647343, 36.296442], [-86.647385, 36.296485], [-86.647133, 36.296653], [-86.647152, 36.296671], [-86.647648, 36.296337]]]}, "properties": {"OBJECTID": 754, "Category_of_Shoreline_Construction": "Wharf (Quay)", "Nature_of_Construction": "", "Object_Name": "Anchor HIgh Marina", "Status": "", "Water_Level": "Always Dry", "Information": "", "Condition": "", "Scale_Minimum": 22000, "Source_Date": "20050408", "Source_Indication": "US,U3,USACE,LRN_GIS_Data", "Source_Dataset": "U37CR149.000", "Feature_ID": "U3 1392973139 00001"}}, {"type": "Feature", "id": 758, "geometry": {"type": "Polygon", "coordinates": [[[-86.64094, 36.251272], [-86.640844, 36.251205], [-86.640332, 36.251598], [-86.640424, 36.251683], [-86.64094, 36.251272]]]}, "properties": {"OBJECTID": 758, "Category_of_Shoreline_Construction": "Wharf (Quay)", "Nature_of_Construction": "", "Object_Name": "Old Hickory Boat Dock and Marina", "Status": "", "Water_Level": "Always Dry", "Information": "", "Condition": "", "Scale_Minimum": 22000, "Source_Date": "20050408", "Source_Indication": "US,U3,USACE,LRN_GIS_Data", "Source_Dataset": "U37CR149.000", "Feature_ID": "U3 1392973148 00001"}}, {"type": "Feature", "id": 760, "geometry": {"type": "Polygon", "coordinates": [[[-86.640311, 36.251637], [-86.640109, 36.251716], [-86.640189, 36.251824], [-86.640378, 36.25175], [-86.640311, 36.251637]]]}, "properties": {"OBJECTID": 760, "Category_of_Shoreline_Construction": "Wharf (Quay)", "Nature_of_Construction": "", "Object_Name": "Old Hickory Boat Dock and Marina", "Status": "", "Water_Level": "Always Dry", "Information": "", "Condition": "", "Scale_Minimum": 22000, "Source_Date": "20050408", "Source_Indication": "US,U3,USACE,LRN_GIS_Data", "Source_Dataset": "U37CR149.000", "Feature_ID": "U3 1392973142 00001"}}, {"type": "Feature", "id": 761, "geometry": {"type": "Polygon", "coordinates": [[[-86.638462, 36.251843], [-86.638172, 36.251583], [-86.637201, 36.250544], [-86.63695, 36.25036], [-86.636765, 36.250484], [-86.638065, 36.251781], [-86.638094, 36.251762], [-86.638285, 36.251959], [-86.638462, 36.251843]]]}, "properties": {"OBJECTID": 761, "Category_of_Shoreline_Construction": "Wharf (Quay)", "Nature_of_Construction": "", "Object_Name": "Lakewood Marina", "Status": "", "Water_Level": "Always Dry", "Information": "", "Condition": "", "Scale_Minimum": 22000, "Source_Date": "20050408", "Source_Indication": "US,U3,USACE,LRN_GIS_Data", "Source_Dataset": "U37CR149.000", "Feature_ID": "U3 1392973143 00001"}}, {"type": "Feature", "id": 762, "geometry": {"type": "Polygon", "coordinates": [[[-86.630739, 36.25918], [-86.63047, 36.259107], [-86.630402, 36.25928], [-86.630667, 36.259352], [-86.630739, 36.25918]]]}, "properties": {"OBJECTID": 762, "Category_of_Shoreline_Construction": "Wharf (Quay)", "Nature_of_Construction": "", "Object_Name": "", "Status": "", "Water_Level": "Always Dry", "Information": "", "Condition": "", "Scale_Minimum": 22000, "Source_Date": "20050408", "Source_Indication": "US,U3,USACE,LRN_GIS_Data", "Source_Dataset": "U37CR149.000", "Feature_ID": "U3 1392973145 00001"}}, {"type": "Feature", "id": 764, "geometry": {"type": "Polygon", "coordinates": [[[-86.639723, 36.252476], [-86.639779, 36.252629], [-86.640226, 36.252525], [-86.640173, 36.252373], [-86.639723, 36.252476]]]}, "properties": {"OBJECTID": 764, "Category_of_Shoreline_Construction": "Wharf (Quay)", "Nature_of_Construction": "", "Object_Name": "Old Hickory Boat Dock and Marina", "Status": "", "Water_Level": "Always Dry", "Information": "", "Condition": "", "Scale_Minimum": 22000, "Source_Date": "20050408", "Source_Indication": "US,U3,USACE,LRN_GIS_Data", "Source_Dataset": "U37CR149.000", "Feature_ID": "U3 1392973144 00001"}}, {"type": "Feature", "id": 765, "geometry": {"type": "Polygon", "coordinates": [[[-86.641365, 36.251147], [-86.641256, 36.251101], [-86.641153, 36.251273], [-86.641258, 36.251318], [-86.641365, 36.251147]]]}, "properties": {"OBJECTID": 765, "Category_of_Shoreline_Construction": "Wharf (Quay)", "Nature_of_Construction": "", "Object_Name": "Old Hickory Boat Dock and Marina", "Status": "", "Water_Level": "Always Dry", "Information": "", "Condition": "", "Scale_Minimum": 22000, "Source_Date": "20050408", "Source_Indication": "US,U3,USACE,LRN_GIS_Data", "Source_Dataset": "U37CR149.000", "Feature_ID": "U3 1392973147 00001"}}, {"type": "Feature", "id": 766, "geometry": {"type": "Polygon", "coordinates": [[[-86.645755, 36.297253], [-86.645056, 36.297312], [-86.645086, 36.297432], [-86.64563, 36.297413], [-86.645638, 36.297375], [-86.645733, 36.297385], [-86.645755, 36.297253]]]}, "properties": {"OBJECTID": 766, "Category_of_Shoreline_Construction": "Wharf (Quay)", "Nature_of_Construction": "", "Object_Name": "Anchor HIgh Marina", "Status": "", "Water_Level": "Always Dry", "Information": "", "Condition": "", "Scale_Minimum": 22000, "Source_Date": "20050408", "Source_Indication": "US,U3,USACE,LRN_GIS_Data", "Source_Dataset": "U37CR149.000", "Feature_ID": "U3 1392973146 00001"}}, {"type": "Feature", "id": 767, "geometry": {"type": "Polygon", "coordinates": [[[-86.645016, 36.297451], [-86.644998, 36.297398], [-86.64471, 36.297449], [-86.644978, 36.29742], [-86.644992, 36.297461], [-86.645016, 36.297451]]]}, "properties": {"OBJECTID": 767, "Category_of_Shoreline_Construction": "Wharf (Quay)", "Nature_of_Construction": "", "Object_Name": "Anchor HIgh Marina", "Status": "", "Water_Level": "Always Dry", "Information": "", "Condition": "", "Scale_Minimum": 22000, "Source_Date": "20050408", "Source_Indication": "US,U3,USACE,LRN_GIS_Data", "Source_Dataset": "U37CR149.000", "Feature_ID": "U3 1392973150 00001"}}, {"type": "Feature", "id": 768, "geometry": {"type": "Polygon", "coordinates": [[[-86.639615, 36.251809], [-86.63966, 36.251984], [-86.640113, 36.251877], [-86.640074, 36.25173], [-86.639615, 36.251809]]]}, "properties": {"OBJECTID": 768, "Category_of_Shoreline_Construction": "Wharf (Quay)", "Nature_of_Construction": "", "Object_Name": "Old Hickory Boat Dock and Marina", "Status": "", "Water_Level": "Always Dry", "Information": "", "Condition": "", "Scale_Minimum": 22000, "Source_Date": "20050408", "Source_Indication": "US,U3,USACE,LRN_GIS_Data", "Source_Dataset": "U37CR149.000", "Feature_ID": "U3 1392973156 00001"}}, {"type": "Feature", "id": 770, "geometry": {"type": "Polygon", "coordinates": [[[-86.64605, 36.297419], [-86.645956, 36.297384], [-86.645891, 36.297492], [-86.645988, 36.297527], [-86.64605, 36.297419]]]}, "properties": {"OBJECTID": 770, "Category_of_Shoreline_Construction": "Wharf (Quay)", "Nature_of_Construction": "", "Object_Name": "Anchor HIgh Marina", "Status": "", "Water_Level": "Always Dry", "Information": "", "Condition": "", "Scale_Minimum": 22000, "Source_Date": "20050408", "Source_Indication": "US,U3,USACE,LRN_GIS_Data", "Source_Dataset": "U37CR149.000", "Feature_ID": "U3 1392973153 00001"}}, {"type": "Feature", "id": 771, "geometry": {"type": "Polygon", "coordinates": [[[-86.638541, 36.251391], [-86.638401, 36.251737], [-86.63863, 36.251766], [-86.638755, 36.251447], [-86.638541, 36.251391]]]}, "properties": {"OBJECTID": 771, "Category_of_Shoreline_Construction": "Wharf (Quay)", "Nature_of_Construction": "", "Object_Name": "Lakewood Marina", "Status": "", "Water_Level": "Always Dry", "Information": "", "Condition": "", "Scale_Minimum": 22000, "Source_Date": "20050408", "Source_Indication": "US,U3,USACE,LRN_GIS_Data", "Source_Dataset": "U37CR149.000", "Feature_ID": "U3 1392973151 00001"}}, {"type": "Feature", "id": 772, "geometry": {"type": "Polygon", "coordinates": [[[-86.638728, 36.251301], [-86.639036, 36.251286], [-86.639031, 36.251107], [-86.638925, 36.251109], [-86.638918, 36.251053], [-86.638812, 36.251057], [-86.638813, 36.251112], [-86.638727, 36.251113], [-86.638728, 36.251301]]]}, "properties": {"OBJECTID": 772, "Category_of_Shoreline_Construction": "Wharf (Quay)", "Nature_of_Construction": "", "Object_Name": "Lakewood Marina", "Status": "", "Water_Level": "Always Dry", "Information": "", "Condition": "", "Scale_Minimum": 22000, "Source_Date": "20050408", "Source_Indication": "US,U3,USACE,LRN_GIS_Data", "Source_Dataset": "U37CR149.000", "Feature_ID": "U3 1392973155 00001"}}, {"type": "Feature", "id": 773, "geometry": {"type": "Polygon", "coordinates": [[[-86.639215, 36.251521], [-86.638989, 36.251703], [-86.639126, 36.251772], [-86.638945, 36.251957], [-86.639005, 36.25199], [-86.639076, 36.251904], [-86.639113, 36.25192], [-86.63921, 36.251802], [-86.639283, 36.251855], [-86.639097, 36.252138], [-86.639224, 36.252193], [-86.639326, 36.252038], [-86.639379, 36.252061], [-86.639503, 36.251872], [-86.639351, 36.251807], [-86.639365, 36.251785], [-86.639121, 36.251621], [-86.639215, 36.251521]]]}, "properties": {"OBJECTID": 773, "Category_of_Shoreline_Construction": "Wharf (Quay)", "Nature_of_Construction": "", "Object_Name": "Old Hickory Boat Dock and Marina", "Status": "", "Water_Level": "Always Dry", "Information": "", "Condition": "", "Scale_Minimum": 22000, "Source_Date": "20050408", "Source_Indication": "US,U3,USACE,LRN_GIS_Data", "Source_Dataset": "U37CR149.000", "Feature_ID": "U3 1392973157 00001"}}, {"type": "Feature", "id": 775, "geometry": {"type": "Polygon", "coordinates": [[[-86.646693, 36.297181], [-86.646871, 36.297243], [-86.646851, 36.297282], [-86.647603, 36.297557], [-86.647766, 36.297263], [-86.647002, 36.297011], [-86.646978, 36.297057], [-86.646799, 36.296991], [-86.646693, 36.297181]]]}, "properties": {"OBJECTID": 775, "Category_of_Shoreline_Construction": "Wharf (Quay)", "Nature_of_Construction": "", "Object_Name": "Anchor HIgh Marina", "Status": "", "Water_Level": "Always Dry", "Information": "", "Condition": "", "Scale_Minimum": 22000, "Source_Date": "20050408", "Source_Indication": "US,U3,USACE,LRN_GIS_Data", "Source_Dataset": "U37CR149.000", "Feature_ID": "U3 1392973152 00001"}}, {"type": "Feature", "id": 776, "geometry": {"type": "Polygon", "coordinates": [[[-86.637958, 36.252168], [-86.636689, 36.251032], [-86.636486, 36.251181], [-86.637755, 36.252317], [-86.637958, 36.252168]]]}, "properties": {"OBJECTID": 776, "Category_of_Shoreline_Construction": "Wharf (Quay)", "Nature_of_Construction": "", "Object_Name": "Lakewood Marina", "Status": "", "Water_Level": "Always Dry", "Information": "", "Condition": "", "Scale_Minimum": 22000, "Source_Date": "20050408", "Source_Indication": "US,U3,USACE,LRN_GIS_Data", "Source_Dataset": "U37CR149.000", "Feature_ID": "U3 1392973160 00001"}}, {"type": "Feature", "id": 777, "geometry": {"type": "Polygon", "coordinates": [[[-86.656669, 36.294032], [-86.657436, 36.293191], [-86.657331, 36.293187], [-86.656637, 36.293976], [-86.656669, 36.294032]]]}, "properties": {"OBJECTID": 777, "Category_of_Shoreline_Construction": "Wharf (Quay)", "Nature_of_Construction": "", "Object_Name": "", "Status": "", "Water_Level": "Always Dry", "Information": "", "Condition": "", "Scale_Minimum": 22000, "Source_Date": "20050408", "Source_Indication": "US,U3,USACE,LRN_GIS_Data", "Source_Dataset": "U37CR149.000", "Feature_ID": "U3 1392973167 00001"}}, {"type": "Feature", "id": 778, "geometry": {"type": "Polygon", "coordinates": [[[-86.646315, 36.298749], [-86.646743, 36.298846], [-86.646795, 36.298687], [-86.64627, 36.298561], [-86.646216, 36.298725], [-86.646315, 36.298749]]]}, "properties": {"OBJECTID": 778, "Category_of_Shoreline_Construction": "Wharf (Quay)", "Nature_of_Construction": "", "Object_Name": "Anchor HIgh Marina", "Status": "", "Water_Level": "Always Dry", "Information": "", "Condition": "", "Scale_Minimum": 22000, "Source_Date": "20050408", "Source_Indication": "US,U3,USACE,LRN_GIS_Data", "Source_Dataset": "U37CR149.000", "Feature_ID": "U3 1392973162 00001"}}, {"type": "Feature", "id": 780, "geometry": {"type": "Polygon", "coordinates": [[[-86.645771, 36.297516], [-86.645799, 36.297504], [-86.645967, 36.297216], [-86.645771, 36.297516]]]}, "properties": {"OBJECTID": 780, "Category_of_Shoreline_Construction": "Wharf (Quay)", "Nature_of_Construction": "", "Object_Name": "Anchor HIgh Marina", "Status": "", "Water_Level": "Always Dry", "Information": "", "Condition": "", "Scale_Minimum": 22000, "Source_Date": "20050408", "Source_Indication": "US,U3,USACE,LRN_GIS_Data", "Source_Dataset": "U37CR149.000", "Feature_ID": "U3 1392973161 00001"}}, {"type": "Feature", "id": 781, "geometry": {"type": "Polygon", "coordinates": [[[-86.640525, 36.252656], [-86.640582, 36.252637], [-86.640747, 36.252481], [-86.640784, 36.252348], [-86.640667, 36.252299], [-86.640378, 36.252554], [-86.640525, 36.252656]]]}, "properties": {"OBJECTID": 781, "Category_of_Shoreline_Construction": "Wharf (Quay)", "Nature_of_Construction": "", "Object_Name": "Old Hickory Boat Dock and Marina", "Status": "", "Water_Level": "Always Dry", "Information": "", "Condition": "", "Scale_Minimum": 22000, "Source_Date": "20050408", "Source_Indication": "US,U3,USACE,LRN_GIS_Data", "Source_Dataset": "U37CR149.000", "Feature_ID": "U3 1392973158 00001"}}, {"type": "Feature", "id": 785, "geometry": {"type": "Polygon", "coordinates": [[[-86.143301, 36.349482], [-86.143273, 36.349295], [-86.141972, 36.349415], [-86.142002, 36.349493], [-86.143239, 36.349355], [-86.143259, 36.349483], [-86.143301, 36.349482]]]}, "properties": {"OBJECTID": 785, "Category_of_Shoreline_Construction": "Training Wall", "Nature_of_Construction": "", "Object_Name": "Old Lock & Dam No. 6, Dam and River Lock Wall removed", "Status": "", "Water_Level": "Always Dry", "Information": "Land Wall Top Elev. 448.4 feet", "Condition": "", "Scale_Minimum": 45000, "Source_Date": "20050412", "Source_Indication": "US,U3,USACE,LRN_GIS", "Source_Dataset": "U37CR221.000", "Feature_ID": "U3 1392981427 00001"}}, {"type": "Feature", "id": 786, "geometry": {"type": "Polygon", "coordinates": [[[-86.030659, 36.287338], [-86.030609, 36.287294], [-86.03162, 36.286587], [-86.031688, 36.286643], [-86.031709, 36.286621], [-86.031622, 36.28655], [-86.03056, 36.287291], [-86.030655, 36.28737], [-86.030659, 36.287338]]]}, "properties": {"OBJECTID": 786, "Category_of_Shoreline_Construction": "Training Wall", "Nature_of_Construction": "", "Object_Name": "Old Lock and Dam No. 7, River Lock Wall & Dam Removed", "Status": "", "Water_Level": "Always Dry", "Information": "Land Wall Top Elev. 460.4 feet", "Condition": "", "Scale_Minimum": 45000, "Source_Date": "20050412", "Source_Indication": "US,U3,USACE,LRN_GIS", "Source_Dataset": "U37CR221.000", "Feature_ID": "U3 1392981438 00001"}}, {"type": "Feature", "id": 787, "geometry": {"type": "Polygon", "coordinates": [[[-86.567788, 36.249393], [-86.567594, 36.249425], [-86.567634, 36.249524], [-86.567814, 36.249485], [-86.567788, 36.249393]]]}, "properties": {"OBJECTID": 787, "Category_of_Shoreline_Construction": "Pier (Jetty)", "Nature_of_Construction": "", "Object_Name": "", "Status": "", "Water_Level": "Always Dry", "Information": "", "Condition": "", "Scale_Minimum": 22000, "Source_Date": "20050412", "Source_Indication": "US,U3,USACE,LRN_GIS", "Source_Dataset": "U37CR221.000", "Feature_ID": "U3 1392984693 00001"}}, {"type": "Feature", "id": 788, "geometry": {"type": "Polygon", "coordinates": [[[-86.501829, 36.282304], [-86.501791, 36.28231], [-86.501817, 36.282436], [-86.501859, 36.282432], [-86.501829, 36.282304]]]}, "properties": {"OBJECTID": 788, "Category_of_Shoreline_Construction": "Pier (Jetty)", "Nature_of_Construction": "", "Object_Name": "", "Status": "", "Water_Level": "Always Dry", "Information": "", "Condition": "", "Scale_Minimum": 22000, "Source_Date": "20050412", "Source_Indication": "US,U3,USACE,LRN_GIS", "Source_Dataset": "U37CR221.000", "Feature_ID": "U3 1392984694 00001"}}, {"type": "Feature", "id": 789, "geometry": {"type": "Polygon", "coordinates": [[[-86.433316, 36.342661], [-86.433477, 36.342551], [-86.433455, 36.342534], [-86.433301, 36.342642], [-86.433316, 36.342661]]]}, "properties": {"OBJECTID": 789, "Category_of_Shoreline_Construction": "Pier (Jetty)", "Nature_of_Construction": "", "Object_Name": "", "Status": "", "Water_Level": "Always Dry", "Information": "", "Condition": "", "Scale_Minimum": 22000, "Source_Date": "20050412", "Source_Indication": "US,U3,USACE,LRN_GIS", "Source_Dataset": "U37CR221.000", "Feature_ID": "U3 1392984695 00001"}}, {"type": "Feature", "id": 790, "geometry": {"type": "Polygon", "coordinates": [[[-86.570114, 36.245596], [-86.570173, 36.245632], [-86.570303, 36.2455], [-86.570249, 36.245455], [-86.570114, 36.245596]]]}, "properties": {"OBJECTID": 790, "Category_of_Shoreline_Construction": "Pier (Jetty)", "Nature_of_Construction": "", "Object_Name": "", "Status": "", "Water_Level": "Always Dry", "Information": "", "Condition": "", "Scale_Minimum": 22000, "Source_Date": "20050412", "Source_Indication": "US,U3,USACE,LRN_GIS", "Source_Dataset": "U37CR221.000", "Feature_ID": "U3 1392984701 00001"}}, {"type": "Feature", "id": 791, "geometry": {"type": "Polygon", "coordinates": [[[-86.571016, 36.247972], [-86.570975, 36.247995], [-86.571076, 36.248091], [-86.571116, 36.248057], [-86.571016, 36.247972]]]}, "properties": {"OBJECTID": 791, "Category_of_Shoreline_Construction": "Pier (Jetty)", "Nature_of_Construction": "", "Object_Name": "", "Status": "", "Water_Level": "Always Dry", "Information": "", "Condition": "", "Scale_Minimum": 22000, "Source_Date": "20050412", "Source_Indication": "US,U3,USACE,LRN_GIS", "Source_Dataset": "U37CR221.000", "Feature_ID": "U3 1392984703 00001"}}, {"type": "Feature", "id": 792, "geometry": {"type": "Polygon", "coordinates": [[[-86.604296, 36.249533], [-86.604318, 36.249536], [-86.60428, 36.249306], [-86.604254, 36.249308], [-86.604296, 36.249533]]]}, "properties": {"OBJECTID": 792, "Category_of_Shoreline_Construction": "Pier (Jetty)", "Nature_of_Construction": "", "Object_Name": "", "Status": "", "Water_Level": "Always Dry", "Information": "", "Condition": "", "Scale_Minimum": 22000, "Source_Date": "20050412", "Source_Indication": "US,U3,USACE,LRN_GIS", "Source_Dataset": "U37CR221.000", "Feature_ID": "U3 1392984704 00001"}}, {"type": "Feature", "id": 793, "geometry": {"type": "Polygon", "coordinates": [[[-86.567778, 36.249934], [-86.567621, 36.249928], [-86.567617, 36.249968], [-86.567779, 36.249981], [-86.567778, 36.249934]]]}, "properties": {"OBJECTID": 793, "Category_of_Shoreline_Construction": "Pier (Jetty)", "Nature_of_Construction": "", "Object_Name": "", "Status": "", "Water_Level": "Always Dry", "Information": "", "Condition": "", "Scale_Minimum": 22000, "Source_Date": "20050412", "Source_Indication": "US,U3,USACE,LRN_GIS", "Source_Dataset": "U37CR221.000", "Feature_ID": "U3 1392984705 00001"}}, {"type": "Feature", "id": 794, "geometry": {"type": "Polygon", "coordinates": [[[-86.097796, 36.342933], [-86.097737, 36.343214], [-86.098057, 36.343276], [-86.098112, 36.342988], [-86.097796, 36.342933]]]}, "properties": {"OBJECTID": 794, "Category_of_Shoreline_Construction": "Landing Steps", "Nature_of_Construction": "", "Object_Name": "Wrights Landing", "Status": "", "Water_Level": "", "Information": "", "Condition": "", "Scale_Minimum": 12000, "Source_Date": "20050412", "Source_Indication": "US,U3,USACE,LRN_GIS", "Source_Dataset": "U37CR221.000", "Feature_ID": "U3 1392984706 00001"}}, {"type": "Feature", "id": 795, "geometry": {"type": "Polygon", "coordinates": [[[-86.50429, 36.282431], [-86.504274, 36.282452], [-86.504479, 36.282556], [-86.504434, 36.282611], [-86.504487, 36.282634], [-86.504548, 36.282557], [-86.50429, 36.282431]]]}, "properties": {"OBJECTID": 795, "Category_of_Shoreline_Construction": "Pier (Jetty)", "Nature_of_Construction": "", "Object_Name": "", "Status": "", "Water_Level": "Always Dry", "Information": "", "Condition": "", "Scale_Minimum": 22000, "Source_Date": "20050412", "Source_Indication": "US,U3,USACE,LRN_GIS", "Source_Dataset": "U37CR221.000", "Feature_ID": "U3 1392984707 00001"}}, {"type": "Feature", "id": 796, "geometry": {"type": "Polygon", "coordinates": [[[-86.504378, 36.282313], [-86.504362, 36.282334], [-86.504496, 36.282392], [-86.504683, 36.282352], [-86.504673, 36.282327], [-86.504488, 36.282366], [-86.504378, 36.282313]]]}, "properties": {"OBJECTID": 796, "Category_of_Shoreline_Construction": "Pier (Jetty)", "Nature_of_Construction": "", "Object_Name": "", "Status": "", "Water_Level": "Always Dry", "Information": "", "Condition": "", "Scale_Minimum": 22000, "Source_Date": "20050412", "Source_Indication": "US,U3,USACE,LRN_GIS", "Source_Dataset": "U37CR221.000", "Feature_ID": "U3 1392984708 00001"}}, {"type": "Feature", "id": 797, "geometry": {"type": "Polygon", "coordinates": [[[-86.456848, 36.325938], [-86.45696, 36.326003], [-86.456986, 36.325973], [-86.457053, 36.326012], [-86.4571, 36.325957], [-86.456878, 36.325829], [-86.456827, 36.325885], [-86.456872, 36.325911], [-86.456848, 36.325938]]]}, "properties": {"OBJECTID": 797, "Category_of_Shoreline_Construction": "Wharf (Quay)", "Nature_of_Construction": "", "Object_Name": "", "Status": "", "Water_Level": "Always Dry", "Information": "", "Condition": "", "Scale_Minimum": 22000, "Source_Date": "20050412", "Source_Indication": "US,U3,USACE,LRN_GIS", "Source_Dataset": "U37CR221.000", "Feature_ID": "U3 1392984710 00001"}}, {"type": "Feature", "id": 798, "geometry": {"type": "Polygon", "coordinates": [[[-86.502698, 36.280403], [-86.502531, 36.280396], [-86.50249, 36.280901], [-86.502625, 36.281036], [-86.504041, 36.281413], [-86.504882, 36.281161], [-86.504975, 36.281065], [-86.505158, 36.28053], [-86.504963, 36.280489], [-86.504921, 36.28061], [-86.504956, 36.280618], [-86.504874, 36.280859], [-86.504842, 36.280854], [-86.504798, 36.280974], [-86.504834, 36.280983], [-86.504815, 36.281031], [-86.504941, 36.281061], [-86.504871, 36.281132], [-86.504827, 36.281037], [-86.504688, 36.281046], [-86.504676, 36.281021], [-86.504195, 36.281161], [-86.504218, 36.281214], [-86.50411, 36.281256], [-86.504147, 36.281352], [-86.504061, 36.28138], [-86.504108, 36.281256], [-86.503629, 36.281116], [-86.503614, 36.281146], [-86.503022, 36.280945], [-86.503011, 36.280971], [-86.50294, 36.280952], [-86.50293, 36.280979], [-86.502685, 36.280911], [-86.502641, 36.281011], [-86.502539, 36.280904], [-86.50268, 36.280908], [-86.502698, 36.280403]]]}, "properties": {"OBJECTID": 798, "Category_of_Shoreline_Construction": "Wharf (Quay)", "Nature_of_Construction": "", "Object_Name": "Cedar Creek Club", "Status": "", "Water_Level": "Always Dry", "Information": "", "Condition": "", "Scale_Minimum": 22000, "Source_Date": "20050412", "Source_Indication": "US,U3,USACE,LRN_GIS", "Source_Dataset": "U37CR221.000", "Feature_ID": "U3 1392984711 00001"}}, {"type": "Feature", "id": 799, "geometry": {"type": "Polygon", "coordinates": [[[-86.477205, 36.347172], [-86.4773, 36.347202], [-86.477288, 36.34725], [-86.477324, 36.347207], [-86.477407, 36.347223], [-86.477413, 36.347278], [-86.477425, 36.347232], [-86.477488, 36.347242], [-86.477491, 36.34729], [-86.477506, 36.347245], [-86.47757, 36.347255], [-86.477573, 36.347305], [-86.477585, 36.347259], [-86.477635, 36.347265], [-86.477665, 36.347341], [-86.477703, 36.347345], [-86.477733, 36.347211], [-86.477637, 36.347237], [-86.477447, 36.347202], [-86.477434, 36.347149], [-86.477381, 36.347138], [-86.477362, 36.347201], [-86.477326, 36.347192], [-86.477338, 36.347145], [-86.477305, 36.347188], [-86.477205, 36.347172]]]}, "properties": {"OBJECTID": 799, "Category_of_Shoreline_Construction": "Wharf (Quay)", "Nature_of_Construction": "", "Object_Name": "Gallatin Marina", "Status": "", "Water_Level": "Always Dry", "Information": "", "Condition": "", "Scale_Minimum": 22000, "Source_Date": "20050412", "Source_Indication": "US,U3,USACE,LRN_GIS", "Source_Dataset": "U37CR221.000", "Feature_ID": "U3 1392984712 00001"}}, {"type": "Feature", "id": 800, "geometry": {"type": "Polygon", "coordinates": [[[-86.504949, 36.280466], [-86.505161, 36.280527], [-86.505403, 36.279973], [-86.505194, 36.279914], [-86.504949, 36.280466]]]}, "properties": {"OBJECTID": 800, "Category_of_Shoreline_Construction": "Wharf (Quay)", "Nature_of_Construction": "", "Object_Name": "Cedar Creek Club", "Status": "", "Water_Level": "Always Dry", "Information": "", "Condition": "", "Scale_Minimum": 22000, "Source_Date": "20050412", "Source_Indication": "US,U3,USACE,LRN_GIS", "Source_Dataset": "U37CR221.000", "Feature_ID": "U3 1392984713 00001"}}, {"type": "Feature", "id": 801, "geometry": {"type": "Polygon", "coordinates": [[[-86.422783, 36.336512], [-86.422844, 36.336435], [-86.422656, 36.336301], [-86.422527, 36.336407], [-86.422731, 36.336544], [-86.422783, 36.336512]]]}, "properties": {"OBJECTID": 801, "Category_of_Shoreline_Construction": "Wharf (Quay)", "Nature_of_Construction": "", "Object_Name": "Garrott Brothers Continuous Mix", "Status": "", "Water_Level": "Always Dry", "Information": "", "Condition": "", "Scale_Minimum": 22000, "Source_Date": "20050412", "Source_Indication": "US,U3,USACE,LRN_GIS", "Source_Dataset": "U37CR221.000", "Feature_ID": "U3 1392984714 00001"}}, {"type": "Feature", "id": 802, "geometry": {"type": "Polygon", "coordinates": [[[-86.476689, 36.347755], [-86.476746, 36.34781], [-86.476688, 36.347866], [-86.477033, 36.348095], [-86.477157, 36.347975], [-86.476811, 36.347747], [-86.476757, 36.3478], [-86.476689, 36.347755]]]}, "properties": {"OBJECTID": 802, "Category_of_Shoreline_Construction": "Wharf (Quay)", "Nature_of_Construction": "", "Object_Name": "Gallatin Marina", "Status": "", "Water_Level": "Always Dry", "Information": "", "Condition": "", "Scale_Minimum": 22000, "Source_Date": "20050412", "Source_Indication": "US,U3,USACE,LRN_GIS", "Source_Dataset": "U37CR221.000", "Feature_ID": "U3 1392984715 00001"}}, {"type": "Feature", "id": 803, "geometry": {"type": "Polygon", "coordinates": [[[-86.430538, 36.335708], [-86.430542, 36.335737], [-86.430775, 36.335725], [-86.430861, 36.33577], [-86.431064, 36.336252], [-86.431001, 36.336268], [-86.431088, 36.336477], [-86.431119, 36.33647], [-86.431191, 36.336714], [-86.431382, 36.336657], [-86.4313, 36.336419], [-86.431253, 36.336433], [-86.431169, 36.336225], [-86.431103, 36.336242], [-86.430828, 36.335614], [-86.430768, 36.335698], [-86.430538, 36.335708]]]}, "properties": {"OBJECTID": 803, "Category_of_Shoreline_Construction": "Wharf (Quay)", "Nature_of_Construction": "", "Object_Name": "Cherokee Boat Dock", "Status": "", "Water_Level": "Always Dry", "Information": "", "Condition": "", "Scale_Minimum": 22000, "Source_Date": "20050412", "Source_Indication": "US,U3,USACE,LRN_GIS", "Source_Dataset": "U37CR221.000", "Feature_ID": "U3 1392984716 00001"}}, {"type": "Feature", "id": 804, "geometry": {"type": "Polygon", "coordinates": [[[-86.432908, 36.34231], [-86.43306, 36.342186], [-86.433038, 36.342173], [-86.432887, 36.342293], [-86.432908, 36.34231]]]}, "properties": {"OBJECTID": 804, "Category_of_Shoreline_Construction": "Wharf (Quay)", "Nature_of_Construction": "", "Object_Name": "", "Status": "", "Water_Level": "Always Dry", "Information": "", "Condition": "", "Scale_Minimum": 22000, "Source_Date": "20050412", "Source_Indication": "US,U3,USACE,LRN_GIS", "Source_Dataset": "U37CR221.000", "Feature_ID": "U3 1392984717 00001"}}, {"type": "Feature", "id": 805, "geometry": {"type": "Polygon", "coordinates": [[[-86.457423, 36.325912], [-86.457413, 36.325875], [-86.457449, 36.325888], [-86.457508, 36.325784], [-86.457483, 36.325777], [-86.457509, 36.325721], [-86.45747, 36.325708], [-86.457409, 36.32587], [-86.457301, 36.325908], [-86.457423, 36.325912]]]}, "properties": {"OBJECTID": 805, "Category_of_Shoreline_Construction": "Wharf (Quay)", "Nature_of_Construction": "", "Object_Name": "", "Status": "", "Water_Level": "Always Dry", "Information": "", "Condition": "", "Scale_Minimum": 22000, "Source_Date": "20050412", "Source_Indication": "US,U3,USACE,LRN_GIS", "Source_Dataset": "U37CR221.000", "Feature_ID": "U3 1392984718 00001"}}, {"type": "Feature", "id": 806, "geometry": {"type": "Polygon", "coordinates": [[[-86.503094, 36.280731], [-86.503093, 36.280396], [-86.502871, 36.280389], [-86.502856, 36.280728], [-86.503094, 36.280731]]]}, "properties": {"OBJECTID": 806, "Category_of_Shoreline_Construction": "Wharf (Quay)", "Nature_of_Construction": "", "Object_Name": "Cedar Creek Club", "Status": "", "Water_Level": "Always Dry", "Information": "", "Condition": "", "Scale_Minimum": 22000, "Source_Date": "20050412", "Source_Indication": "US,U3,USACE,LRN_GIS", "Source_Dataset": "U37CR221.000", "Feature_ID": "U3 1392984719 00001"}}, {"type": "Feature", "id": 807, "geometry": {"type": "Polygon", "coordinates": [[[-86.338943, 36.377179], [-86.338996, 36.377174], [-86.339093, 36.377096], [-86.338958, 36.376967], [-86.338819, 36.377058], [-86.338943, 36.377179]]]}, "properties": {"OBJECTID": 807, "Category_of_Shoreline_Construction": "Wharf (Quay)", "Nature_of_Construction": "", "Object_Name": "Shady Cove Resort", "Status": "", "Water_Level": "Always Dry", "Information": "", "Condition": "", "Scale_Minimum": 22000, "Source_Date": "20050412", "Source_Indication": "US,U3,USACE,LRN_GIS", "Source_Dataset": "U37CR221.000", "Feature_ID": "U3 1392984720 00001"}}, {"type": "Feature", "id": 808, "geometry": {"type": "Polygon", "coordinates": [[[-86.47516, 36.349206], [-86.474811, 36.349415], [-86.474878, 36.349496], [-86.475229, 36.349272], [-86.47516, 36.349206]]]}, "properties": {"OBJECTID": 808, "Category_of_Shoreline_Construction": "Wharf (Quay)", "Nature_of_Construction": "", "Object_Name": "Gallatin Marina", "Status": "", "Water_Level": "Always Dry", "Information": "", "Condition": "", "Scale_Minimum": 22000, "Source_Date": "20050412", "Source_Indication": "US,U3,USACE,LRN_GIS", "Source_Dataset": "U37CR221.000", "Feature_ID": "U3 1392984721 00001"}}, {"type": "Feature", "id": 809, "geometry": {"type": "Polygon", "coordinates": [[[-86.418147, 36.333962], [-86.417762, 36.33418], [-86.41778, 36.334217], [-86.417892, 36.334197], [-86.417961, 36.334219], [-86.418134, 36.334106], [-86.418206, 36.334034], [-86.418147, 36.333962]]]}, "properties": {"OBJECTID": 809, "Category_of_Shoreline_Construction": "Wharf (Quay)", "Nature_of_Construction": "", "Object_Name": "Gallatin Steam Plant (TVA)", "Status": "", "Water_Level": "Always Dry", "Information": "", "Condition": "", "Scale_Minimum": 22000, "Source_Date": "20050412", "Source_Indication": "US,U3,USACE,LRN_GIS", "Source_Dataset": "U37CR221.000", "Feature_ID": "U3 1392984722 00001"}}, {"type": "Feature", "id": 810, "geometry": {"type": "Polygon", "coordinates": [[[-86.287174, 36.341698], [-86.28715, 36.341806], [-86.28733, 36.341829], [-86.287345, 36.341764], [-86.287307, 36.341758], [-86.287317, 36.341713], [-86.287174, 36.341698]]]}, "properties": {"OBJECTID": 810, "Category_of_Shoreline_Construction": "Wharf (Quay)", "Nature_of_Construction": "", "Object_Name": "", "Status": "", "Water_Level": "Always Dry", "Information": "", "Condition": "", "Scale_Minimum": 22000, "Source_Date": "20050412", "Source_Indication": "US,U3,USACE,LRN_GIS", "Source_Dataset": "U37CR221.000", "Feature_ID": "U3 1392984723 00001"}}, {"type": "Feature", "id": 811, "geometry": {"type": "Polygon", "coordinates": [[[-86.473103, 36.357261], [-86.473101, 36.357333], [-86.473208, 36.357335], [-86.473206, 36.357269], [-86.473103, 36.357261]]]}, "properties": {"OBJECTID": 811, "Category_of_Shoreline_Construction": "Wharf (Quay)", "Nature_of_Construction": "", "Object_Name": "", "Status": "", "Water_Level": "Always Dry", "Information": "", "Condition": "", "Scale_Minimum": 22000, "Source_Date": "20050412", "Source_Indication": "US,U3,USACE,LRN_GIS", "Source_Dataset": "U37CR221.000", "Feature_ID": "U3 1392984724 00001"}}, {"type": "Feature", "id": 812, "geometry": {"type": "Polygon", "coordinates": [[[-86.477052, 36.347437], [-86.477038, 36.347458], [-86.477122, 36.347464], [-86.477168, 36.347509], [-86.477058, 36.347578], [-86.477352, 36.347892], [-86.477322, 36.347909], [-86.477447, 36.348039], [-86.477748, 36.347853], [-86.477638, 36.347744], [-86.477693, 36.347708], [-86.477779, 36.3478], [-86.478095, 36.347603], [-86.478134, 36.34764], [-86.478261, 36.347561], [-86.478211, 36.347513], [-86.478359, 36.347451], [-86.47827, 36.347359], [-86.478322, 36.347328], [-86.478462, 36.34748], [-86.478745, 36.347316], [-86.478458, 36.347009], [-86.478179, 36.347181], [-86.478301, 36.347308], [-86.47762, 36.347723], [-86.477406, 36.347496], [-86.477382, 36.347512], [-86.4773, 36.347429], [-86.477191, 36.347496], [-86.477129, 36.347442], [-86.477153, 36.347402], [-86.477214, 36.347422], [-86.477227, 36.347395], [-86.477174, 36.347379], [-86.477232, 36.347351], [-86.477176, 36.347336], [-86.47718, 36.347313], [-86.47725, 36.347316], [-86.477172, 36.347293], [-86.477098, 36.347444], [-86.477052, 36.347437]]]}, "properties": {"OBJECTID": 812, "Category_of_Shoreline_Construction": "Wharf (Quay)", "Nature_of_Construction": "", "Object_Name": "Gallatin Marina", "Status": "", "Water_Level": "Always Dry", "Information": "", "Condition": "", "Scale_Minimum": 22000, "Source_Date": "20050412", "Source_Indication": "US,U3,USACE,LRN_GIS", "Source_Dataset": "U37CR221.000", "Feature_ID": "U3 1392984725 00001"}}, {"type": "Feature", "id": 813, "geometry": {"type": "Polygon", "coordinates": [[[-86.503376, 36.2806], [-86.503425, 36.280888], [-86.503498, 36.280876], [-86.503505, 36.280904], [-86.504606, 36.280809], [-86.504583, 36.28067], [-86.504673, 36.280658], [-86.504632, 36.280436], [-86.503376, 36.2806]]]}, "properties": {"OBJECTID": 813, "Category_of_Shoreline_Construction": "Wharf (Quay)", "Nature_of_Construction": "", "Object_Name": "Cedar Creek Club", "Status": "", "Water_Level": "Always Dry", "Information": "", "Condition": "", "Scale_Minimum": 22000, "Source_Date": "20050412", "Source_Indication": "US,U3,USACE,LRN_GIS", "Source_Dataset": "U37CR221.000", "Feature_ID": "U3 1392984726 00001"}}, {"type": "Feature", "id": 814, "geometry": {"type": "Polygon", "coordinates": [[[-86.356987, 36.374375], [-86.357147, 36.374242], [-86.357199, 36.374282], [-86.357225, 36.374263], [-86.357098, 36.374167], [-86.357078, 36.374186], [-86.357132, 36.374228], [-86.356987, 36.374375]]]}, "properties": {"OBJECTID": 814, "Category_of_Shoreline_Construction": "Wharf (Quay)", "Nature_of_Construction": "", "Object_Name": "", "Status": "", "Water_Level": "Always Dry", "Information": "", "Condition": "", "Scale_Minimum": 22000, "Source_Date": "20050412", "Source_Indication": "US,U3,USACE,LRN_GIS", "Source_Dataset": "U37CR221.000", "Feature_ID": "U3 1392984727 00001"}}, {"type": "Feature", "id": 815, "geometry": {"type": "Polygon", "coordinates": [[[-86.415051, 36.321187], [-86.415094, 36.321189], [-86.415191, 36.321616], [-86.415277, 36.321604], [-86.415042, 36.320597], [-86.414952, 36.32061], [-86.41506, 36.321041], [-86.415017, 36.321055], [-86.415051, 36.321187]]]}, "properties": {"OBJECTID": 815, "Category_of_Shoreline_Construction": "Wharf (Quay)", "Nature_of_Construction": "", "Object_Name": "", "Status": "", "Water_Level": "Always Dry", "Information": "", "Condition": "", "Scale_Minimum": 22000, "Source_Date": "20050412", "Source_Indication": "US,U3,USACE,LRN_GIS", "Source_Dataset": "U37CR221.000", "Feature_ID": "U3 1392984728 00001"}}, {"type": "Feature", "id": 816, "geometry": {"type": "Polygon", "coordinates": [[[-86.469441, 36.296516], [-86.46943, 36.296448], [-86.469496, 36.29644], [-86.469479, 36.296332], [-86.46931, 36.29635], [-86.469327, 36.296457], [-86.469406, 36.296449], [-86.469418, 36.296518], [-86.469441, 36.296516]]]}, "properties": {"OBJECTID": 816, "Category_of_Shoreline_Construction": "Wharf (Quay)", "Nature_of_Construction": "", "Object_Name": "", "Status": "", "Water_Level": "Always Dry", "Information": "", "Condition": "", "Scale_Minimum": 22000, "Source_Date": "20050412", "Source_Indication": "US,U3,USACE,LRN_GIS", "Source_Dataset": "U37CR221.000", "Feature_ID": "U3 1392984729 00001"}}, {"type": "Feature", "id": 817, "geometry": {"type": "Polygon", "coordinates": [[[-86.608169, 36.290025], [-86.60799, 36.290021], [-86.608025, 36.290082], [-86.608169, 36.290025]]]}, "properties": {"OBJECTID": 817, "Category_of_Shoreline_Construction": "Wharf (Quay)", "Nature_of_Construction": "", "Object_Name": "", "Status": "", "Water_Level": "Always Dry", "Information": "", "Condition": "", "Scale_Minimum": 22000, "Source_Date": "20050412", "Source_Indication": "US,U3,USACE,LRN_GIS", "Source_Dataset": "U37CR221.000", "Feature_ID": "U3 1392984730 00001"}}, {"type": "Feature", "id": 818, "geometry": {"type": "Polygon", "coordinates": [[[-86.583773, 36.247079], [-86.58374, 36.247235], [-86.583763, 36.247462], [-86.583612, 36.24748], [-86.583654, 36.247634], [-86.584564, 36.24758], [-86.584538, 36.24742], [-86.583843, 36.247455], [-86.583815, 36.247435], [-86.583813, 36.247352], [-86.584725, 36.247293], [-86.584702, 36.247166], [-86.583805, 36.247215], [-86.583835, 36.247118], [-86.583773, 36.247079]]]}, "properties": {"OBJECTID": 818, "Category_of_Shoreline_Construction": "Wharf (Quay)", "Nature_of_Construction": "", "Object_Name": "", "Status": "", "Water_Level": "Always Dry", "Information": "", "Condition": "", "Scale_Minimum": 22000, "Source_Date": "20050412", "Source_Indication": "US,U3,USACE,LRN_GIS", "Source_Dataset": "U37CR221.000", "Feature_ID": "U3 1392984731 00001"}}, {"type": "Feature", "id": 819, "geometry": {"type": "Polygon", "coordinates": [[[-86.602411, 36.252369], [-86.602238, 36.252325], [-86.602247, 36.252292], [-86.602205, 36.252282], [-86.602176, 36.252367], [-86.602219, 36.252377], [-86.60223, 36.252349], [-86.602398, 36.25239], [-86.602411, 36.252369]]]}, "properties": {"OBJECTID": 819, "Category_of_Shoreline_Construction": "Wharf (Quay)", "Nature_of_Construction": "", "Object_Name": "", "Status": "", "Water_Level": "Always Dry", "Information": "", "Condition": "", "Scale_Minimum": 22000, "Source_Date": "20050412", "Source_Indication": "US,U3,USACE,LRN_GIS", "Source_Dataset": "U37CR221.000", "Feature_ID": "U3 1392984732 00001"}}, {"type": "Feature", "id": 820, "geometry": {"type": "Polygon", "coordinates": [[[-86.575961, 36.314689], [-86.576014, 36.314683], [-86.576259, 36.315016], [-86.576466, 36.314913], [-86.576266, 36.314644], [-86.576433, 36.314564], [-86.576411, 36.314533], [-86.576126, 36.314671], [-86.576061, 36.314576], [-86.576137, 36.314614], [-86.57621, 36.314541], [-86.576699, 36.313837], [-86.576496, 36.313745], [-86.576, 36.31445], [-86.57602, 36.31446], [-86.575964, 36.314534], [-86.575988, 36.314549], [-86.575958, 36.3146], [-86.576004, 36.314669], [-86.575961, 36.314689]]]}, "properties": {"OBJECTID": 820, "Category_of_Shoreline_Construction": "Wharf (Quay)", "Nature_of_Construction": "", "Object_Name": "Bluegrass Country Club Dock", "Status": "", "Water_Level": "Always Dry", "Information": "", "Condition": "", "Scale_Minimum": 22000, "Source_Date": "20050412", "Source_Indication": "US,U3,USACE,LRN_GIS", "Source_Dataset": "U37CR221.000", "Feature_ID": "U3 1392984733 00001"}}, {"type": "Feature", "id": 821, "geometry": {"type": "Polygon", "coordinates": [[[-86.51118, 36.274166], [-86.511078, 36.274062], [-86.511069, 36.273914], [-86.511108, 36.273832], [-86.510981, 36.273788], [-86.510935, 36.273839], [-86.510844, 36.273814], [-86.510855, 36.273782], [-86.510921, 36.273807], [-86.511403, 36.272909], [-86.511246, 36.272849], [-86.510774, 36.273751], [-86.510835, 36.273776], [-86.510822, 36.273806], [-86.51055, 36.273708], [-86.511179, 36.272583], [-86.510934, 36.272487], [-86.510308, 36.273623], [-86.51001, 36.273513], [-86.510399, 36.27273], [-86.510367, 36.27272], [-86.510486, 36.272491], [-86.510273, 36.272422], [-86.510157, 36.272649], [-86.51011, 36.27263], [-86.509734, 36.273414], [-86.509637, 36.27355], [-86.510602, 36.273901], [-86.510677, 36.27378], [-86.510965, 36.273871], [-86.511039, 36.273903], [-86.511042, 36.273938], [-86.510793, 36.273956], [-86.510796, 36.273993], [-86.511045, 36.273978], [-86.511051, 36.274068], [-86.511159, 36.274178], [-86.51118, 36.274166]]]}, "properties": {"OBJECTID": 821, "Category_of_Shoreline_Construction": "Wharf (Quay)", "Nature_of_Construction": "", "Object_Name": "Cedar Creek Boat Dock", "Status": "", "Water_Level": "Always Dry", "Information": "", "Condition": "", "Scale_Minimum": 22000, "Source_Date": "20050412", "Source_Indication": "US,U3,USACE,LRN_GIS", "Source_Dataset": "U37CR221.000", "Feature_ID": "U3 1392984734 00001"}}, {"type": "Feature", "id": 822, "geometry": {"type": "Polygon", "coordinates": [[[-86.510881, 36.27435], [-86.510914, 36.27444], [-86.510835, 36.274396], [-86.510876, 36.274345], [-86.510744, 36.274271], [-86.510704, 36.274318], [-86.510563, 36.274247], [-86.509992, 36.274233], [-86.509988, 36.274275], [-86.510019, 36.274277], [-86.510021, 36.274255], [-86.510552, 36.274268], [-86.510932, 36.274497], [-86.511208, 36.274433], [-86.511162, 36.274288], [-86.510881, 36.27435]]]}, "properties": {"OBJECTID": 822, "Category_of_Shoreline_Construction": "Wharf (Quay)", "Nature_of_Construction": "", "Object_Name": "Cedar Creek Boat Dock", "Status": "", "Water_Level": "Always Dry", "Information": "", "Condition": "", "Scale_Minimum": 22000, "Source_Date": "20050412", "Source_Indication": "US,U3,USACE,LRN_GIS", "Source_Dataset": "U37CR221.000", "Feature_ID": "U3 1392984735 00001"}}, {"type": "Feature", "id": 823, "geometry": {"type": "Polygon", "coordinates": [[[-86.565716, 36.254658], [-86.565698, 36.254631], [-86.56554, 36.254685], [-86.565557, 36.254731], [-86.565689, 36.254701], [-86.565716, 36.254658]]]}, "properties": {"OBJECTID": 823, "Category_of_Shoreline_Construction": "Wharf (Quay)", "Nature_of_Construction": "", "Object_Name": "", "Status": "", "Water_Level": "Always Dry", "Information": "", "Condition": "", "Scale_Minimum": 22000, "Source_Date": "20050412", "Source_Indication": "US,U3,USACE,LRN_GIS", "Source_Dataset": "U37CR221.000", "Feature_ID": "U3 1392984736 00001"}}, {"type": "Feature", "id": 824, "geometry": {"type": "Polygon", "coordinates": [[[-86.608804, 36.260011], [-86.608656, 36.259853], [-86.608623, 36.259882], [-86.608788, 36.260028], [-86.608804, 36.260011]]]}, "properties": {"OBJECTID": 824, "Category_of_Shoreline_Construction": "Wharf (Quay)", "Nature_of_Construction": "", "Object_Name": "Drake's Creek Marina", "Status": "", "Water_Level": "Always Dry", "Information": "", "Condition": "", "Scale_Minimum": 22000, "Source_Date": "20050412", "Source_Indication": "US,U3,USACE,LRN_GIS", "Source_Dataset": "U37CR221.000", "Feature_ID": "U3 1392984737 00001"}}, {"type": "Feature", "id": 825, "geometry": {"type": "Polygon", "coordinates": [[[-86.56582, 36.254493], [-86.565518, 36.25449], [-86.56552, 36.254518], [-86.565817, 36.254519], [-86.56582, 36.254493]]]}, "properties": {"OBJECTID": 825, "Category_of_Shoreline_Construction": "Wharf (Quay)", "Nature_of_Construction": "", "Object_Name": "", "Status": "", "Water_Level": "Always Dry", "Information": "", "Condition": "", "Scale_Minimum": 22000, "Source_Date": "20050412", "Source_Indication": "US,U3,USACE,LRN_GIS", "Source_Dataset": "U37CR221.000", "Feature_ID": "U3 1392984738 00001"}}, {"type": "Feature", "id": 826, "geometry": {"type": "Polygon", "coordinates": [[[-86.565798, 36.254726], [-86.565701, 36.254732], [-86.565731, 36.254867], [-86.565777, 36.25493], [-86.565809, 36.25492], [-86.565773, 36.254847], [-86.565816, 36.25484], [-86.565768, 36.25483], [-86.565751, 36.254755], [-86.565798, 36.254726]]]}, "properties": {"OBJECTID": 826, "Category_of_Shoreline_Construction": "Wharf (Quay)", "Nature_of_Construction": "", "Object_Name": "", "Status": "", "Water_Level": "Always Dry", "Information": "", "Condition": "", "Scale_Minimum": 22000, "Source_Date": "20050412", "Source_Indication": "US,U3,USACE,LRN_GIS", "Source_Dataset": "U37CR221.000", "Feature_ID": "U3 1392984739 00001"}}, {"type": "Feature", "id": 827, "geometry": {"type": "Polygon", "coordinates": [[[-86.511327, 36.273365], [-86.511568, 36.27339], [-86.51158, 36.273335], [-86.51165, 36.273342], [-86.511677, 36.273217], [-86.511609, 36.27321], [-86.511602, 36.273241], [-86.511357, 36.273215], [-86.511327, 36.273365]]]}, "properties": {"OBJECTID": 827, "Category_of_Shoreline_Construction": "Wharf (Quay)", "Nature_of_Construction": "", "Object_Name": "Cedar Creek Boat Dock", "Status": "", "Water_Level": "Always Dry", "Information": "", "Condition": "", "Scale_Minimum": 22000, "Source_Date": "20050412", "Source_Indication": "US,U3,USACE,LRN_GIS", "Source_Dataset": "U37CR221.000", "Feature_ID": "U3 1392984740 00001"}}, {"type": "Feature", "id": 828, "geometry": {"type": "Polygon", "coordinates": [[[-86.476418, 36.347922], [-86.476445, 36.347966], [-86.476237, 36.348041], [-86.476217, 36.347984], [-86.476153, 36.347978], [-86.476156, 36.347952], [-86.476135, 36.347977], [-86.475838, 36.347948], [-86.475805, 36.348124], [-86.476191, 36.348178], [-86.476204, 36.348079], [-86.476258, 36.348137], [-86.476488, 36.348059], [-86.476567, 36.348204], [-86.476346, 36.348274], [-86.476452, 36.348479], [-86.477041, 36.348299], [-86.476975, 36.348172], [-86.476794, 36.348229], [-86.476775, 36.348193], [-86.476714, 36.348213], [-86.476559, 36.347924], [-86.476462, 36.347961], [-86.476418, 36.347922]]]}, "properties": {"OBJECTID": 828, "Category_of_Shoreline_Construction": "Wharf (Quay)", "Nature_of_Construction": "", "Object_Name": "Gallatin Marina", "Status": "", "Water_Level": "Always Dry", "Information": "", "Condition": "", "Scale_Minimum": 22000, "Source_Date": "20050412", "Source_Indication": "US,U3,USACE,LRN_GIS", "Source_Dataset": "U37CR221.000", "Feature_ID": "U3 1392984741 00001"}}, {"type": "Feature", "id": 829, "geometry": {"type": "Polygon", "coordinates": [[[-86.501915, 36.28228], [-86.501882, 36.282296], [-86.501925, 36.282422], [-86.502557, 36.282616], [-86.502573, 36.282587], [-86.501936, 36.282392], [-86.501915, 36.28228]]]}, "properties": {"OBJECTID": 829, "Category_of_Shoreline_Construction": "Wharf (Quay)", "Nature_of_Construction": "", "Object_Name": "", "Status": "", "Water_Level": "Always Dry", "Information": "", "Condition": "", "Scale_Minimum": 22000, "Source_Date": "20050412", "Source_Indication": "US,U3,USACE,LRN_GIS", "Source_Dataset": "U37CR221.000", "Feature_ID": "U3 1392984742 00001"}}, {"type": "Feature", "id": 830, "geometry": {"type": "Polygon", "coordinates": [[[-86.476755, 36.329395], [-86.476736, 36.3294], [-86.476777, 36.329484], [-86.476659, 36.329521], [-86.476591, 36.329423], [-86.47664, 36.329524], [-86.476605, 36.329535], [-86.476619, 36.32956], [-86.476842, 36.329494], [-86.476796, 36.329478], [-86.476755, 36.329395]]]}, "properties": {"OBJECTID": 830, "Category_of_Shoreline_Construction": "Wharf (Quay)", "Nature_of_Construction": "", "Object_Name": "", "Status": "", "Water_Level": "Always Dry", "Information": "", "Condition": "", "Scale_Minimum": 22000, "Source_Date": "20050412", "Source_Indication": "US,U3,USACE,LRN_GIS", "Source_Dataset": "U37CR221.000", "Feature_ID": "U3 1392984743 00001"}}, {"type": "Feature", "id": 831, "geometry": {"type": "Polygon", "coordinates": [[[-86.608527, 36.260954], [-86.608536, 36.260896], [-86.608676, 36.26088], [-86.608675, 36.260846], [-86.607881, 36.260949], [-86.607951, 36.260962], [-86.607961, 36.261024], [-86.608127, 36.261003], [-86.608117, 36.260941], [-86.608178, 36.260935], [-86.608194, 36.261009], [-86.608197, 36.260933], [-86.60852, 36.260898], [-86.608527, 36.260954]]]}, "properties": {"OBJECTID": 831, "Category_of_Shoreline_Construction": "Wharf (Quay)", "Nature_of_Construction": "", "Object_Name": "Drake's Creek Marina", "Status": "", "Water_Level": "Always Dry", "Information": "", "Condition": "", "Scale_Minimum": 22000, "Source_Date": "20050412", "Source_Indication": "US,U3,USACE,LRN_GIS", "Source_Dataset": "U37CR221.000", "Feature_ID": "U3 1392984744 00001"}}, {"type": "Feature", "id": 832, "geometry": {"type": "Polygon", "coordinates": [[[-86.33914, 36.376749], [-86.33949, 36.3763], [-86.339551, 36.376327], [-86.339731, 36.376062], [-86.339504, 36.375946], [-86.339151, 36.376385], [-86.339208, 36.376416], [-86.339062, 36.376603], [-86.339039, 36.376593], [-86.339076, 36.376545], [-86.338662, 36.376306], [-86.338565, 36.376413], [-86.33914, 36.376749]]]}, "properties": {"OBJECTID": 832, "Category_of_Shoreline_Construction": "Wharf (Quay)", "Nature_of_Construction": "", "Object_Name": "Shady Cove Resort", "Status": "", "Water_Level": "Always Dry", "Information": "", "Condition": "", "Scale_Minimum": 22000, "Source_Date": "20050412", "Source_Indication": "US,U3,USACE,LRN_GIS", "Source_Dataset": "U37CR221.000", "Feature_ID": "U3 1392984745 00001"}}, {"type": "Feature", "id": 833, "geometry": {"type": "Polygon", "coordinates": [[[-86.475603, 36.3479], [-86.475579, 36.347931], [-86.475498, 36.347924], [-86.475481, 36.348083], [-86.475681, 36.348095], [-86.475687, 36.347938], [-86.475601, 36.347932], [-86.475603, 36.3479]]]}, "properties": {"OBJECTID": 833, "Category_of_Shoreline_Construction": "Wharf (Quay)", "Nature_of_Construction": "", "Object_Name": "Gallatin Marina", "Status": "", "Water_Level": "Always Dry", "Information": "", "Condition": "", "Scale_Minimum": 22000, "Source_Date": "20050412", "Source_Indication": "US,U3,USACE,LRN_GIS", "Source_Dataset": "U37CR221.000", "Feature_ID": "U3 1392984746 00001"}}, {"type": "Feature", "id": 834, "geometry": {"type": "Polygon", "coordinates": [[[-86.504682, 36.279913], [-86.504716, 36.279927], [-86.504662, 36.280013], [-86.50426, 36.280192], [-86.504271, 36.280209], [-86.504518, 36.280112], [-86.504608, 36.280227], [-86.504631, 36.280215], [-86.504542, 36.2801], [-86.504655, 36.280043], [-86.504745, 36.280156], [-86.504768, 36.280145], [-86.504677, 36.280029], [-86.504738, 36.279937], [-86.504876, 36.279993], [-86.504886, 36.279973], [-86.504748, 36.279919], [-86.504811, 36.279819], [-86.504964, 36.279881], [-86.504975, 36.279861], [-86.504822, 36.279799], [-86.504884, 36.279702], [-86.505038, 36.279762], [-86.505052, 36.279738], [-86.504876, 36.279668], [-86.504726, 36.279908], [-86.504682, 36.279913]]]}, "properties": {"OBJECTID": 834, "Category_of_Shoreline_Construction": "Wharf (Quay)", "Nature_of_Construction": "", "Object_Name": "Cedar Creek Club Dock", "Status": "", "Water_Level": "Always Dry", "Information": "", "Condition": "", "Scale_Minimum": 22000, "Source_Date": "20050412", "Source_Indication": "US,U3,USACE,LRN_GIS", "Source_Dataset": "U37CR221.000", "Feature_ID": "U3 1392984747 00001"}}, {"type": "Feature", "id": 835, "geometry": {"type": "Polygon", "coordinates": [[[-86.475371, 36.349342], [-86.475909, 36.348982], [-86.475778, 36.348861], [-86.475576, 36.348993], [-86.475596, 36.349015], [-86.475263, 36.349237], [-86.475371, 36.349342]]]}, "properties": {"OBJECTID": 835, "Category_of_Shoreline_Construction": "Wharf (Quay)", "Nature_of_Construction": "", "Object_Name": "Gallatin Marina", "Status": "", "Water_Level": "Always Dry", "Information": "", "Condition": "", "Scale_Minimum": 22000, "Source_Date": "20050412", "Source_Indication": "US,U3,USACE,LRN_GIS", "Source_Dataset": "U37CR221.000", "Feature_ID": "U3 1392984748 00001"}}, {"type": "Feature", "id": 836, "geometry": {"type": "Polygon", "coordinates": [[[-86.575136, 36.303146], [-86.57511, 36.303143], [-86.575054, 36.303297], [-86.57527, 36.303348], [-86.575328, 36.303181], [-86.575248, 36.303322], [-86.575088, 36.303281], [-86.575136, 36.303146]]]}, "properties": {"OBJECTID": 836, "Category_of_Shoreline_Construction": "Wharf (Quay)", "Nature_of_Construction": "", "Object_Name": "", "Status": "", "Water_Level": "Always Dry", "Information": "", "Condition": "", "Scale_Minimum": 22000, "Source_Date": "20050412", "Source_Indication": "US,U3,USACE,LRN_GIS", "Source_Dataset": "U37CR221.000", "Feature_ID": "U3 1392984749 00001"}}, {"type": "Feature", "id": 837, "geometry": {"type": "Polygon", "coordinates": [[[-86.473908, 36.31566], [-86.473934, 36.315689], [-86.473915, 36.315715], [-86.473973, 36.315751], [-86.474021, 36.31574], [-86.474001, 36.315768], [-86.474035, 36.315787], [-86.474011, 36.315816], [-86.474045, 36.315836], [-86.474186, 36.315673], [-86.474018, 36.315573], [-86.473954, 36.31562], [-86.474062, 36.315686], [-86.474038, 36.315719], [-86.473908, 36.31566]]]}, "properties": {"OBJECTID": 837, "Category_of_Shoreline_Construction": "Wharf (Quay)", "Nature_of_Construction": "", "Object_Name": "", "Status": "", "Water_Level": "Always Dry", "Information": "", "Condition": "", "Scale_Minimum": 22000, "Source_Date": "20050412", "Source_Indication": "US,U3,USACE,LRN_GIS", "Source_Dataset": "U37CR221.000", "Feature_ID": "U3 1392984750 00001"}}, {"type": "Feature", "id": 838, "geometry": {"type": "Polygon", "coordinates": [[[-86.430384, 36.334232], [-86.430389, 36.333889], [-86.430259, 36.333888], [-86.430249, 36.334224], [-86.430384, 36.334232]]]}, "properties": {"OBJECTID": 838, "Category_of_Shoreline_Construction": "Wharf (Quay)", "Nature_of_Construction": "", "Object_Name": "Cherokee Boat Dock", "Status": "", "Water_Level": "Always Dry", "Information": "", "Condition": "", "Scale_Minimum": 22000, "Source_Date": "20050412", "Source_Indication": "US,U3,USACE,LRN_GIS", "Source_Dataset": "U37CR221.000", "Feature_ID": "U3 1392984751 00001"}}, {"type": "Feature", "id": 839, "geometry": {"type": "Polygon", "coordinates": [[[-86.53112, 36.308763], [-86.531062, 36.308922], [-86.531264, 36.30897], [-86.531323, 36.30881], [-86.53112, 36.308763]]]}, "properties": {"OBJECTID": 839, "Category_of_Shoreline_Construction": "Wharf (Quay)", "Nature_of_Construction": "", "Object_Name": "", "Status": "", "Water_Level": "Always Dry", "Information": "", "Condition": "", "Scale_Minimum": 22000, "Source_Date": "20050412", "Source_Indication": "US,U3,USACE,LRN_GIS", "Source_Dataset": "U37CR221.000", "Feature_ID": "U3 1392984752 00001"}}, {"type": "Feature", "id": 840, "geometry": {"type": "Polygon", "coordinates": [[[-86.430293, 36.334276], [-86.43022, 36.334644], [-86.430271, 36.335063], [-86.430367, 36.335058], [-86.430467, 36.335485], [-86.430583, 36.335467], [-86.430467, 36.334999], [-86.430392, 36.335011], [-86.430359, 36.334722], [-86.430363, 36.334689], [-86.430431, 36.334682], [-86.430427, 36.334623], [-86.430345, 36.334632], [-86.43035, 36.334601], [-86.430408, 36.334602], [-86.430392, 36.334481], [-86.43049, 36.334488], [-86.430513, 36.334289], [-86.430293, 36.334276]]]}, "properties": {"OBJECTID": 840, "Category_of_Shoreline_Construction": "Wharf (Quay)", "Nature_of_Construction": "", "Object_Name": "Cherokee Boat Dock", "Status": "", "Water_Level": "Always Dry", "Information": "", "Condition": "", "Scale_Minimum": 22000, "Source_Date": "20050412", "Source_Indication": "US,U3,USACE,LRN_GIS", "Source_Dataset": "U37CR221.000", "Feature_ID": "U3 1392984753 00001"}}, {"type": "Feature", "id": 841, "geometry": {"type": "Polygon", "coordinates": [[[-86.470214, 36.30844], [-86.470267, 36.308393], [-86.47034, 36.308232], [-86.470151, 36.308182], [-86.470094, 36.308404], [-86.470169, 36.308218], [-86.470294, 36.308248], [-86.470214, 36.30844]]]}, "properties": {"OBJECTID": 841, "Category_of_Shoreline_Construction": "Wharf (Quay)", "Nature_of_Construction": "", "Object_Name": "", "Status": "", "Water_Level": "Always Dry", "Information": "", "Condition": "", "Scale_Minimum": 22000, "Source_Date": "20050412", "Source_Indication": "US,U3,USACE,LRN_GIS", "Source_Dataset": "U37CR221.000", "Feature_ID": "U3 1392984754 00001"}}, {"type": "Feature", "id": 842, "geometry": {"type": "Polygon", "coordinates": [[[-86.531835, 36.307035], [-86.532045, 36.307041], [-86.532051, 36.306876], [-86.531842, 36.306871], [-86.531835, 36.307035]]]}, "properties": {"OBJECTID": 842, "Category_of_Shoreline_Construction": "Wharf (Quay)", "Nature_of_Construction": "", "Object_Name": "", "Status": "", "Water_Level": "Always Dry", "Information": "", "Condition": "", "Scale_Minimum": 22000, "Source_Date": "20050412", "Source_Indication": "US,U3,USACE,LRN_GIS", "Source_Dataset": "U37CR221.000", "Feature_ID": "U3 1392984755 00001"}}, {"type": "Feature", "id": 843, "geometry": {"type": "Polygon", "coordinates": [[[-86.430954, 36.335102], [-86.430848, 36.334897], [-86.430756, 36.334928], [-86.430833, 36.335151], [-86.430954, 36.335102]]]}, "properties": {"OBJECTID": 843, "Category_of_Shoreline_Construction": "Wharf (Quay)", "Nature_of_Construction": "", "Object_Name": "Cherokee Boat Dock", "Status": "", "Water_Level": "Always Dry", "Information": "", "Condition": "", "Scale_Minimum": 22000, "Source_Date": "20050412", "Source_Indication": "US,U3,USACE,LRN_GIS", "Source_Dataset": "U37CR221.000", "Feature_ID": "U3 1392984756 00001"}}, {"type": "Feature", "id": 844, "geometry": {"type": "Polygon", "coordinates": [[[-86.390264, 36.316077], [-86.39017, 36.316076], [-86.39017, 36.316028], [-86.390091, 36.316028], [-86.390093, 36.316078], [-86.389951, 36.316072], [-86.389946, 36.316154], [-86.390004, 36.316155], [-86.390017, 36.316108], [-86.390256, 36.316106], [-86.390264, 36.316077]]]}, "properties": {"OBJECTID": 844, "Category_of_Shoreline_Construction": "Wharf (Quay)", "Nature_of_Construction": "", "Object_Name": "Gallatin Steam Plant (TVA)", "Status": "", "Water_Level": "Always Dry", "Information": "", "Condition": "", "Scale_Minimum": 22000, "Source_Date": "20050412", "Source_Indication": "US,U3,USACE,LRN_GIS", "Source_Dataset": "U37CR221.000", "Feature_ID": "U3 1392984757 00001"}}, {"type": "Feature", "id": 845, "geometry": {"type": "Polygon", "coordinates": [[[-86.607325, 36.285701], [-86.607272, 36.285518], [-86.605408, 36.285828], [-86.605493, 36.286118], [-86.607325, 36.285701]]]}, "properties": {"OBJECTID": 845, "Category_of_Shoreline_Construction": "Wharf (Quay)", "Nature_of_Construction": "", "Object_Name": "Creekwood Marina", "Status": "", "Water_Level": "Always Dry", "Information": "", "Condition": "", "Scale_Minimum": 22000, "Source_Date": "20050412", "Source_Indication": "US,U3,USACE,LRN_GIS", "Source_Dataset": "U37CR221.000", "Feature_ID": "U3 1392984758 00001"}}, {"type": "Feature", "id": 846, "geometry": {"type": "Polygon", "coordinates": [[[-86.464438, 36.303171], [-86.464336, 36.303338], [-86.464474, 36.303372], [-86.464554, 36.303205], [-86.464438, 36.303171]]]}, "properties": {"OBJECTID": 846, "Category_of_Shoreline_Construction": "Wharf (Quay)", "Nature_of_Construction": "", "Object_Name": "", "Status": "", "Water_Level": "Always Dry", "Information": "", "Condition": "", "Scale_Minimum": 22000, "Source_Date": "20050412", "Source_Indication": "US,U3,USACE,LRN_GIS", "Source_Dataset": "U37CR221.000", "Feature_ID": "U3 1392984759 00001"}}, {"type": "Feature", "id": 847, "geometry": {"type": "Polygon", "coordinates": [[[-86.431059, 36.337056], [-86.428825, 36.335822], [-86.428226, 36.335407], [-86.428296, 36.335354], [-86.427862, 36.334966], [-86.427704, 36.334782], [-86.427758, 36.334746], [-86.427651, 36.334631], [-86.42768, 36.334612], [-86.427627, 36.334552], [-86.427595, 36.334567], [-86.427555, 36.334523], [-86.427517, 36.334543], [-86.427421, 36.334419], [-86.427185, 36.333951], [-86.427121, 36.333971], [-86.427092, 36.333915], [-86.427184, 36.33388], [-86.427125, 36.333768], [-86.427055, 36.33379], [-86.426942, 36.333572], [-86.427049, 36.333572], [-86.427026, 36.333529], [-86.4268, 36.333613], [-86.42693, 36.333845], [-86.426906, 36.333903], [-86.426971, 36.334024], [-86.427016, 36.334011], [-86.427055, 36.334059], [-86.427274, 36.334497], [-86.427519, 36.3348], [-86.427498, 36.334808], [-86.427617, 36.334937], [-86.42764, 36.334925], [-86.427673, 36.335013], [-86.427893, 36.33526], [-86.427987, 36.335335], [-86.42804, 36.335301], [-86.428198, 36.335438], [-86.42815, 36.335487], [-86.42849, 36.335701], [-86.428473, 36.335719], [-86.428577, 36.335789], [-86.428657, 36.33572], [-86.428693, 36.335752], [-86.428632, 36.335814], [-86.428813, 36.335919], [-86.428785, 36.335954], [-86.429109, 36.336117], [-86.429073, 36.336158], [-86.430416, 36.336923], [-86.430374, 36.336967], [-86.430535, 36.337055], [-86.430616, 36.336967], [-86.430713, 36.337022], [-86.430608, 36.337148], [-86.430852, 36.337289], [-86.431059, 36.337056]]]}, "properties": {"OBJECTID": 847, "Category_of_Shoreline_Construction": "Wharf (Quay)", "Nature_of_Construction": "", "Object_Name": "Cherokee Boat Dock", "Status": "", "Water_Level": "Always Dry", "Information": "", "Condition": "", "Scale_Minimum": 22000, "Source_Date": "20050412", "Source_Indication": "US,U3,USACE,LRN_GIS", "Source_Dataset": "U37CR221.000", "Feature_ID": "U3 1392984760 00001"}}, {"type": "Feature", "id": 848, "geometry": {"type": "Polygon", "coordinates": [[[-86.265447, 36.29939], [-86.265404, 36.299418], [-86.265477, 36.299491], [-86.265524, 36.299462], [-86.265447, 36.29939]]]}, "properties": {"OBJECTID": 848, "Category_of_Shoreline_Construction": "Wharf (Quay)", "Nature_of_Construction": "", "Object_Name": "", "Status": "", "Water_Level": "Always Dry", "Information": "", "Condition": "", "Scale_Minimum": 22000, "Source_Date": "20050412", "Source_Indication": "US,U3,USACE,LRN_GIS", "Source_Dataset": "U37CR221.000", "Feature_ID": "U3 1392984761 00001"}}, {"type": "Feature", "id": 849, "geometry": {"type": "Polygon", "coordinates": [[[-86.607498, 36.285834], [-86.607306, 36.285869], [-86.607355, 36.286047], [-86.607547, 36.286015], [-86.607498, 36.285834]]]}, "properties": {"OBJECTID": 849, "Category_of_Shoreline_Construction": "Wharf (Quay)", "Nature_of_Construction": "", "Object_Name": "Creekwood Marina", "Status": "", "Water_Level": "Always Dry", "Information": "", "Condition": "", "Scale_Minimum": 22000, "Source_Date": "20050412", "Source_Indication": "US,U3,USACE,LRN_GIS", "Source_Dataset": "U37CR221.000", "Feature_ID": "U3 1392984762 00001"}}, {"type": "Feature", "id": 850, "geometry": {"type": "Polygon", "coordinates": [[[-86.471601, 36.311321], [-86.471598, 36.311368], [-86.471761, 36.311312], [-86.471739, 36.31128], [-86.471638, 36.311336], [-86.471601, 36.311321]]]}, "properties": {"OBJECTID": 850, "Category_of_Shoreline_Construction": "Wharf (Quay)", "Nature_of_Construction": "", "Object_Name": "", "Status": "", "Water_Level": "Always Dry", "Information": "", "Condition": "", "Scale_Minimum": 22000, "Source_Date": "20050412", "Source_Indication": "US,U3,USACE,LRN_GIS", "Source_Dataset": "U37CR221.000", "Feature_ID": "U3 1392984763 00001"}}, {"type": "Feature", "id": 851, "geometry": {"type": "Polygon", "coordinates": [[[-86.4758, 36.348731], [-86.475843, 36.348814], [-86.475792, 36.348866], [-86.47584, 36.348841], [-86.475889, 36.348875], [-86.475854, 36.348833], [-86.47596, 36.348771], [-86.475935, 36.348838], [-86.476215, 36.348955], [-86.47629, 36.348831], [-86.476344, 36.348871], [-86.476504, 36.348728], [-86.476101, 36.348433], [-86.476078, 36.34845], [-86.475947, 36.348354], [-86.475792, 36.348514], [-86.475862, 36.348479], [-86.476023, 36.348592], [-86.475983, 36.348724], [-86.475859, 36.348804], [-86.4758, 36.348731]], [[-86.476004, 36.348724], [-86.476039, 36.348609], [-86.476251, 36.348761], [-86.476215, 36.348799], [-86.476067, 36.348722], [-86.476052, 36.348744], [-86.476004, 36.348724]]]}, "properties": {"OBJECTID": 851, "Category_of_Shoreline_Construction": "Wharf (Quay)", "Nature_of_Construction": "", "Object_Name": "Gallatin Marina", "Status": "", "Water_Level": "Always Dry", "Information": "", "Condition": "", "Scale_Minimum": 22000, "Source_Date": "20050412", "Source_Indication": "US,U3,USACE,LRN_GIS", "Source_Dataset": "U37CR221.000", "Feature_ID": "U3 1392984764 00001"}}, {"type": "Feature", "id": 852, "geometry": {"type": "Polygon", "coordinates": [[[-86.471512, 36.311353], [-86.471526, 36.311561], [-86.471571, 36.311555], [-86.471542, 36.311375], [-86.471512, 36.311353]]]}, "properties": {"OBJECTID": 852, "Category_of_Shoreline_Construction": "Wharf (Quay)", "Nature_of_Construction": "", "Object_Name": "", "Status": "", "Water_Level": "Always Dry", "Information": "", "Condition": "", "Scale_Minimum": 22000, "Source_Date": "20050412", "Source_Indication": "US,U3,USACE,LRN_GIS", "Source_Dataset": "U37CR221.000", "Feature_ID": "U3 1392984765 00001"}}, {"type": "Feature", "id": 853, "geometry": {"type": "Polygon", "coordinates": [[[-86.605673, 36.286821], [-86.606875, 36.286512], [-86.606867, 36.286494], [-86.607086, 36.286436], [-86.607078, 36.286416], [-86.607584, 36.286306], [-86.607782, 36.286686], [-86.607888, 36.286651], [-86.607671, 36.286163], [-86.607461, 36.286215], [-86.607439, 36.286136], [-86.606294, 36.286383], [-86.60628, 36.286359], [-86.605571, 36.286533], [-86.605673, 36.286821]]]}, "properties": {"OBJECTID": 853, "Category_of_Shoreline_Construction": "Wharf (Quay)", "Nature_of_Construction": "", "Object_Name": "Creekwood Marina", "Status": "", "Water_Level": "Always Dry", "Information": "", "Condition": "", "Scale_Minimum": 22000, "Source_Date": "20050412", "Source_Indication": "US,U3,USACE,LRN_GIS", "Source_Dataset": "U37CR221.000", "Feature_ID": "U3 1392984767 00001"}}, {"type": "Feature", "id": 854, "geometry": {"type": "Polygon", "coordinates": [[[-86.607722, 36.261146], [-86.607224, 36.261277], [-86.607121, 36.261264], [-86.606495, 36.261435], [-86.606635, 36.261774], [-86.607265, 36.261605], [-86.607339, 36.261546], [-86.60783, 36.261414], [-86.607722, 36.261146]]]}, "properties": {"OBJECTID": 854, "Category_of_Shoreline_Construction": "Wharf (Quay)", "Nature_of_Construction": "", "Object_Name": "Drake's Creek Marina", "Status": "", "Water_Level": "Always Dry", "Information": "", "Condition": "", "Scale_Minimum": 22000, "Source_Date": "20050412", "Source_Indication": "US,U3,USACE,LRN_GIS", "Source_Dataset": "U37CR221.000", "Feature_ID": "U3 1392984768 00001"}}, {"type": "Feature", "id": 855, "geometry": {"type": "Polygon", "coordinates": [[[-86.565831, 36.254162], [-86.565863, 36.25409], [-86.565157, 36.253663], [-86.565024, 36.253825], [-86.565363, 36.254012], [-86.565424, 36.253941], [-86.565831, 36.254162]]]}, "properties": {"OBJECTID": 855, "Category_of_Shoreline_Construction": "Wharf (Quay)", "Nature_of_Construction": "", "Object_Name": "Marina", "Status": "", "Water_Level": "Always Dry", "Information": "", "Condition": "", "Scale_Minimum": 22000, "Source_Date": "20050412", "Source_Indication": "US,U3,USACE,LRN_GIS", "Source_Dataset": "U37CR221.000", "Feature_ID": "U3 1392984769 00001"}}, {"type": "Feature", "id": 856, "geometry": {"type": "Polygon", "coordinates": [[[-86.474965, 36.348025], [-86.474987, 36.34804], [-86.475018, 36.348005], [-86.475286, 36.348179], [-86.475243, 36.34822], [-86.475259, 36.348236], [-86.4753, 36.348187], [-86.475414, 36.348251], [-86.475427, 36.348235], [-86.475224, 36.348107], [-86.475283, 36.34805], [-86.475143, 36.347955], [-86.475073, 36.348018], [-86.475029, 36.347988], [-86.47516, 36.347839], [-86.475047, 36.34782], [-86.474997, 36.347879], [-86.475071, 36.347921], [-86.474965, 36.348025]]]}, "properties": {"OBJECTID": 856, "Category_of_Shoreline_Construction": "Wharf (Quay)", "Nature_of_Construction": "", "Object_Name": "Gallatin Marina", "Status": "", "Water_Level": "Always Dry", "Information": "", "Condition": "", "Scale_Minimum": 22000, "Source_Date": "20050412", "Source_Indication": "US,U3,USACE,LRN_GIS", "Source_Dataset": "U37CR221.000", "Feature_ID": "U3 1392984771 00001"}}, {"type": "Feature", "id": 857, "geometry": {"type": "Polygon", "coordinates": [[[-86.607985, 36.286776], [-86.607965, 36.286744], [-86.607864, 36.28678], [-86.607834, 36.286725], [-86.606347, 36.287149], [-86.606524, 36.287473], [-86.607423, 36.287063], [-86.607767, 36.286939], [-86.607729, 36.286869], [-86.607985, 36.286776]]]}, "properties": {"OBJECTID": 857, "Category_of_Shoreline_Construction": "Wharf (Quay)", "Nature_of_Construction": "", "Object_Name": "Creekwood Marina", "Status": "", "Water_Level": "Always Dry", "Information": "", "Condition": "", "Scale_Minimum": 22000, "Source_Date": "20050412", "Source_Indication": "US,U3,USACE,LRN_GIS", "Source_Dataset": "U37CR221.000", "Feature_ID": "U3 1392984773 00001"}}, {"type": "Feature", "id": 858, "geometry": {"type": "Polygon", "coordinates": [[[-86.607935, 36.261641], [-86.606667, 36.262202], [-86.60682, 36.262416], [-86.608066, 36.26182], [-86.607935, 36.261641]]]}, "properties": {"OBJECTID": 858, "Category_of_Shoreline_Construction": "Wharf (Quay)", "Nature_of_Construction": "", "Object_Name": "Drake's Creek Marina", "Status": "", "Water_Level": "Always Dry", "Information": "", "Condition": "", "Scale_Minimum": 22000, "Source_Date": "20050412", "Source_Indication": "US,U3,USACE,LRN_GIS", "Source_Dataset": "U37CR221.000", "Feature_ID": "U3 1392984776 00001"}}, {"type": "Feature", "id": 859, "geometry": {"type": "Polygon", "coordinates": [[[-86.60821, 36.286961], [-86.608174, 36.286946], [-86.608096, 36.287051], [-86.607958, 36.286998], [-86.607718, 36.287313], [-86.607739, 36.287323], [-86.607676, 36.287423], [-86.607517, 36.287354], [-86.607395, 36.287527], [-86.60775, 36.287685], [-86.607873, 36.287505], [-86.607872, 36.287446], [-86.60821, 36.286961]]]}, "properties": {"OBJECTID": 859, "Category_of_Shoreline_Construction": "Wharf (Quay)", "Nature_of_Construction": "", "Object_Name": "Creekwood Marina", "Status": "", "Water_Level": "Always Dry", "Information": "", "Condition": "", "Scale_Minimum": 22000, "Source_Date": "20050412", "Source_Indication": "US,U3,USACE,LRN_GIS", "Source_Dataset": "U37CR221.000", "Feature_ID": "U3 1392984777 00001"}}, {"type": "Feature", "id": 860, "geometry": {"type": "Polygon", "coordinates": [[[-86.576333, 36.313838], [-86.576508, 36.313575], [-86.576037, 36.313366], [-86.57586, 36.313634], [-86.576333, 36.313838]]]}, "properties": {"OBJECTID": 860, "Category_of_Shoreline_Construction": "Wharf (Quay)", "Nature_of_Construction": "", "Object_Name": "Bluegrass Country Club Dock", "Status": "", "Water_Level": "Always Dry", "Information": "", "Condition": "", "Scale_Minimum": 22000, "Source_Date": "20050412", "Source_Indication": "US,U3,USACE,LRN_GIS", "Source_Dataset": "U37CR221.000", "Feature_ID": "U3 1392984778 00001"}}, {"type": "Feature", "id": 861, "geometry": {"type": "Polygon", "coordinates": [[[-86.607162, 36.284916], [-86.607036, 36.284934], [-86.607074, 36.285077], [-86.606651, 36.285141], [-86.606674, 36.285236], [-86.60593, 36.28534], [-86.605946, 36.285412], [-86.606175, 36.285382], [-86.606163, 36.285331], [-86.606674, 36.285258], [-86.606702, 36.285338], [-86.607167, 36.285272], [-86.607199, 36.285399], [-86.607333, 36.285376], [-86.607269, 36.285149], [-86.607139, 36.28517], [-86.607113, 36.28506], [-86.607194, 36.285047], [-86.607162, 36.284916]]]}, "properties": {"OBJECTID": 861, "Category_of_Shoreline_Construction": "Wharf (Quay)", "Nature_of_Construction": "", "Object_Name": "Creekwood Marina", "Status": "", "Water_Level": "Always Dry", "Information": "", "Condition": "", "Scale_Minimum": 22000, "Source_Date": "20050412", "Source_Indication": "US,U3,USACE,LRN_GIS", "Source_Dataset": "U37CR221.000", "Feature_ID": "U3 1392984779 00001"}}, {"type": "Feature", "id": 862, "geometry": {"type": "Polygon", "coordinates": [[[-86.566021, 36.255798], [-86.566186, 36.255942], [-86.56638, 36.255795], [-86.566305, 36.255733], [-86.566382, 36.25569], [-86.566347, 36.255658], [-86.566286, 36.255718], [-86.566214, 36.255654], [-86.566021, 36.255798]]]}, "properties": {"OBJECTID": 862, "Category_of_Shoreline_Construction": "Wharf (Quay)", "Nature_of_Construction": "", "Object_Name": "Marina", "Status": "", "Water_Level": "Always Dry", "Information": "", "Condition": "", "Scale_Minimum": 22000, "Source_Date": "20050412", "Source_Indication": "US,U3,USACE,LRN_GIS", "Source_Dataset": "U37CR221.000", "Feature_ID": "U3 1392984780 00001"}}, {"type": "Feature", "id": 863, "geometry": {"type": "Polygon", "coordinates": [[[-86.566012, 36.255322], [-86.565989, 36.255338], [-86.565925, 36.255264], [-86.565497, 36.255501], [-86.565648, 36.255667], [-86.566065, 36.255424], [-86.566003, 36.255354], [-86.566012, 36.255322]]]}, "properties": {"OBJECTID": 863, "Category_of_Shoreline_Construction": "Wharf (Quay)", "Nature_of_Construction": "", "Object_Name": "Marina", "Status": "", "Water_Level": "Always Dry", "Information": "", "Condition": "", "Scale_Minimum": 22000, "Source_Date": "20050412", "Source_Indication": "US,U3,USACE,LRN_GIS", "Source_Dataset": "U37CR221.000", "Feature_ID": "U3 1392984781 00001"}}, {"type": "Feature", "id": 864, "geometry": {"type": "Polygon", "coordinates": [[[-86.565827, 36.254989], [-86.565821, 36.25497], [-86.565738, 36.254997], [-86.565713, 36.254948], [-86.565451, 36.255014], [-86.565512, 36.255158], [-86.565773, 36.255062], [-86.565749, 36.255013], [-86.565827, 36.254989]]]}, "properties": {"OBJECTID": 864, "Category_of_Shoreline_Construction": "Wharf (Quay)", "Nature_of_Construction": "", "Object_Name": "Marina", "Status": "", "Water_Level": "Always Dry", "Information": "", "Condition": "", "Scale_Minimum": 22000, "Source_Date": "20050412", "Source_Indication": "US,U3,USACE,LRN_GIS", "Source_Dataset": "U37CR221.000", "Feature_ID": "U3 1392984782 00001"}}, {"type": "Feature", "id": 865, "geometry": {"type": "Polygon", "coordinates": [[[-86.608338, 36.2604], [-86.608424, 36.260246], [-86.60857, 36.260128], [-86.60852, 36.26009], [-86.608595, 36.260029], [-86.608524, 36.259957], [-86.608295, 36.260147], [-86.608416, 36.260241], [-86.608262, 36.260192], [-86.608179, 36.260343], [-86.608338, 36.2604]]]}, "properties": {"OBJECTID": 865, "Category_of_Shoreline_Construction": "Wharf (Quay)", "Nature_of_Construction": "", "Object_Name": "Drake's Creek Marina", "Status": "", "Water_Level": "Always Dry", "Information": "", "Condition": "", "Scale_Minimum": 22000, "Source_Date": "20050412", "Source_Indication": "US,U3,USACE,LRN_GIS", "Source_Dataset": "U37CR221.000", "Feature_ID": "U3 1392984783 00001"}}, {"type": "Feature", "id": 866, "geometry": {"type": "Polygon", "coordinates": [[[-86.608299, 36.260456], [-86.607742, 36.260595], [-86.607723, 36.260559], [-86.606416, 36.260926], [-86.606507, 36.261139], [-86.607826, 36.26079], [-86.607812, 36.26075], [-86.608356, 36.260609], [-86.608299, 36.260456]]]}, "properties": {"OBJECTID": 866, "Category_of_Shoreline_Construction": "Wharf (Quay)", "Nature_of_Construction": "", "Object_Name": "Drake's Creek Marina", "Status": "", "Water_Level": "Always Dry", "Information": "", "Condition": "", "Scale_Minimum": 22000, "Source_Date": "20050412", "Source_Indication": "US,U3,USACE,LRN_GIS", "Source_Dataset": "U37CR221.000", "Feature_ID": "U3 1392984784 00001"}}, {"type": "Feature", "id": 867, "geometry": {"type": "Polygon", "coordinates": [[[-85.941492, 36.289652], [-85.941467, 36.289674], [-85.941515, 36.289721], [-85.941552, 36.289696], [-85.941642, 36.289727], [-85.941769, 36.289848], [-85.941696, 36.289898], [-85.94198, 36.290168], [-85.942083, 36.290177], [-85.942586, 36.290656], [-85.942583, 36.290741], [-85.942732, 36.290883], [-85.942902, 36.290998], [-85.942981, 36.291001], [-85.943189, 36.291201], [-85.943254, 36.291489], [-85.943217, 36.291503], [-85.943231, 36.291561], [-85.943264, 36.291566], [-85.943287, 36.291508], [-85.943204, 36.29118], [-85.94193, 36.289995], [-85.941658, 36.289709], [-85.941492, 36.289652]]]}, "properties": {"OBJECTID": 867, "Category_of_Shoreline_Construction": "Lock/Guidewall", "Nature_of_Construction": "Concreted/Metal", "Object_Name": "Cordell Hull Lock Wall", "Status": "", "Water_Level": "Always Dry", "Information": "", "Condition": "", "Scale_Minimum": 45000, "Source_Date": "20140604", "Source_Indication": "US,U3,SURVY,2014_SEAS_LIDAR_Mapping_Survey", "Source_Dataset": "U37CR307.000", "Feature_ID": "U3 1392990218 00001"}}, {"type": "Feature", "id": 868, "geometry": {"type": "Polygon", "coordinates": [[[-85.947176, 36.244393], [-85.947208, 36.24443], [-85.947251, 36.244383], [-85.947208, 36.244357], [-85.947176, 36.244393]]]}, "properties": {"OBJECTID": 868, "Category_of_Shoreline_Construction": "Water Intake Structure", "Nature_of_Construction": "", "Object_Name": "", "Status": "", "Water_Level": "Always Dry", "Information": "", "Condition": "", "Scale_Minimum": 45000, "Source_Date": "20040930", "Source_Indication": "US,U3,USACE,LRN_GIS", "Source_Dataset": "U37CR307.000", "Feature_ID": "U3 1392990243 00001"}}, {"type": "Feature", "id": 869, "geometry": {"type": "Polygon", "coordinates": [[[-85.944311, 36.291781], [-85.944278, 36.291731], [-85.944194, 36.29173], [-85.943253, 36.290836], [-85.943263, 36.29074], [-85.943197, 36.290676], [-85.943234, 36.290651], [-85.942451, 36.289919], [-85.942457, 36.289864], [-85.942129, 36.289552], [-85.942013, 36.289632], [-85.941223, 36.288855], [-85.941191, 36.288856], [-85.941204, 36.288921], [-85.943075, 36.290674], [-85.944176, 36.29175], [-85.944311, 36.291781]]]}, "properties": {"OBJECTID": 869, "Category_of_Shoreline_Construction": "Lock/Guidewall", "Nature_of_Construction": "Concreted/Metal", "Object_Name": "Cordell Hull Lock Wall", "Status": "", "Water_Level": "Always Dry", "Information": "", "Condition": "", "Scale_Minimum": 45000, "Source_Date": "20140604", "Source_Indication": "US,U3,SURVY,2014_SEAS_LIDAR_Mapping_Survey", "Source_Dataset": "U37CR307.000", "Feature_ID": "U3 1392990531 00001"}}, {"type": "Feature", "id": 877, "geometry": {"type": "Polygon", "coordinates": [[[-85.943474, 36.294405], [-85.943309, 36.294131], [-85.943238, 36.294138], [-85.943238, 36.294184], [-85.943187, 36.29421], [-85.94334, 36.294444], [-85.943474, 36.294405]]]}, "properties": {"OBJECTID": 877, "Category_of_Shoreline_Construction": "Wharf (Quay)", "Nature_of_Construction": "", "Object_Name": "", "Status": "", "Water_Level": "Always Dry", "Information": "", "Condition": "", "Scale_Minimum": 22000, "Source_Date": "20050414", "Source_Indication": "US,U3,USACE,LRN_GIS", "Source_Dataset": "U37CR307.000", "Feature_ID": "U3 1392991069 00001"}}]}