{"type": "FeatureCollection", "features": [{"type": "Feature", "id": 376, "geometry": {"type": "LineString", "coordinates": [[-86.466793, 36.33158], [-86.464418, 36.329065]]}, "properties": {"OBJECTID": 376, "Category_of_Pipeline": "Sewer", "Product": "", "Object_Name": "", "Status": "", "Information": "Sewer Outfall Pipe", "Scale_Minimum": 60000, "Source_Date": "20050412", "Source_Indication": "US,U3,USACE,LRN_GIS", "Source_Dataset": "U37CR221.000", "Feature_ID": "U3 1392979903 00001"}}, {"type": "Feature", "id": 377, "geometry": {"type": "LineString", "coordinates": [[-86.610681, 36.293288], [-86.606893, 36.293886]]}, "properties": {"OBJECTID": 377, "Category_of_Pipeline": "Supply Pipe", "Product": "", "Object_Name": "", "Status": "", "Information": "", "Scale_Minimum": 60000, "Source_Date": "20050412", "Source_Indication": "US,U3,USACE,LRN_GIS", "Source_Dataset": "U37CR221.000", "Feature_ID": "U3 1392979905 00001"}}]}