{"type": "FeatureCollection", "features": [{"type": "Feature", "id": 109, "geometry": {"type": "Point", "coordinates": [-86.17376459999997, 36.380480600000055]}, "properties": {"OBJECTID": 109, "Category_of_Built_Up_Area": "", "Object_Name": "Hartsville, TN", "Information": "", "Scale_Minimum": 75000, "Source_Date": "20050412", "Source_Indication": "US,U3,USACE,LRN_GIS", "Source_Dataset": "U37CR221.000", "Feature_ID": "U3 1392979989 00001"}}, {"type": "Feature", "id": 110, "geometry": {"type": "Point", "coordinates": [-86.36547059999998, 36.364167500000065]}, "properties": {"OBJECTID": 110, "Category_of_Built_Up_Area": "", "Object_Name": "Cairo, TN", "Information": "", "Scale_Minimum": 75000, "Source_Date": "20050412", "Source_Indication": "US,U3,USACE,LRN_GIS", "Source_Dataset": "U37CR221.000", "Feature_ID": "U3 1392980037 00001"}}, {"type": "Feature", "id": 111, "geometry": {"type": "Point", "coordinates": [-86.07344789999996, 36.27328070000004]}, "properties": {"OBJECTID": 111, "Category_of_Built_Up_Area": "", "Object_Name": "Rome, TN", "Information": "", "Scale_Minimum": 75000, "Source_Date": "20050412", "Source_Indication": "US,U3,USACE,LRN_GIS", "Source_Dataset": "U37CR221.000", "Feature_ID": "U3 1392980858 00001"}}, {"type": "Feature", "id": 112, "geometry": {"type": "Point", "coordinates": [-85.96073719999998, 36.25230140000008]}, "properties": {"OBJECTID": 112, "Category_of_Built_Up_Area": "", "Object_Name": "South Carthage, TN", "Information": "", "Scale_Minimum": 75000, "Source_Date": "20050414", "Source_Indication": "US,U3,USACE,LRN_GIS", "Source_Dataset": "U37CR307.000", "Feature_ID": "U3 1392989240 00001"}}, {"type": "Feature", "id": 114, "geometry": {"type": "Point", "coordinates": [-85.95678839999994, 36.268736700000034]}, "properties": {"OBJECTID": 114, "Category_of_Built_Up_Area": "", "Object_Name": "Carthage, TN", "Information": "", "Scale_Minimum": 75000, "Source_Date": "20050414", "Source_Indication": "US,U3,USACE,LRN_GIS", "Source_Dataset": "U37CR307.000", "Feature_ID": "U3 1392989335 00001"}}]}