{"type": "FeatureCollection", "features": [{"type": "Feature", "id": 186, "geometry": {"type": "Point", "coordinates": [-86.66617379999997, 36.29981870000006]}, "properties": {"OBJECTID": 186, "Category_of_Sea_Area": "", "Object_Name": "Federal Mooring Cells", "Information": "", "Scale_Minimum": 60000, "Source_Date": "20050408", "Source_Indication": "US,U3,USACE,LRN_GIS_Data", "Source_Dataset": "U37CR149.000", "Feature_ID": "U3 1392978500 00001"}}, {"type": "Feature", "id": 187, "geometry": {"type": "Point", "coordinates": [-86.65420189999998, 36.291601300000025]}, "properties": {"OBJECTID": 187, "Category_of_Sea_Area": "", "Object_Name": "Old Hickory Lock Arrival Point", "Information": "", "Scale_Minimum": 60000, "Source_Date": "20050408", "Source_Indication": "US,U3,USACE,LRN_GIS_Data", "Source_Dataset": "U37CR149.000", "Feature_ID": "U3 1392978534 00001"}}, {"type": "Feature", "id": 188, "geometry": {"type": "Point", "coordinates": [-86.65437899999995, 36.291950400000076]}, "properties": {"OBJECTID": 188, "Category_of_Sea_Area": "", "Object_Name": "Federal Mooring Cells", "Information": "", "Scale_Minimum": 60000, "Source_Date": "20050408", "Source_Indication": "US,U3,USACE,LRN_GIS_Data", "Source_Dataset": "U37CR149.000", "Feature_ID": "U3 1392978713 00001"}}, {"type": "Feature", "id": 192, "geometry": {"type": "Point", "coordinates": [-86.47923519999995, 36.328936200000044]}, "properties": {"OBJECTID": 192, "Category_of_Sea_Area": "River", "Object_Name": "Station Camp Creek", "Information": "", "Scale_Minimum": 60000, "Source_Date": "20050412", "Source_Indication": "US,U3,USACE,LRN_GIS", "Source_Dataset": "U37CR221.000", "Feature_ID": "U3 1392979974 00001"}}, {"type": "Feature", "id": 193, "geometry": {"type": "Point", "coordinates": [-86.26500559999994, 36.325715400000036]}, "properties": {"OBJECTID": 193, "Category_of_Sea_Area": "River", "Object_Name": "Rocky Creek", "Information": "", "Scale_Minimum": 60000, "Source_Date": "20050412", "Source_Indication": "US,U3,USACE,LRN_GIS", "Source_Dataset": "U37CR221.000", "Feature_ID": "U3 1392979981 00001"}}, {"type": "Feature", "id": 194, "geometry": {"type": "Point", "coordinates": [-86.57353859999995, 36.25078460000003]}, "properties": {"OBJECTID": 194, "Category_of_Sea_Area": "River", "Object_Name": "Shutes Branch", "Information": "", "Scale_Minimum": 60000, "Source_Date": "20050412", "Source_Indication": "US,U3,USACE,LRN_GIS", "Source_Dataset": "U37CR221.000", "Feature_ID": "U3 1392979986 00001"}}, {"type": "Feature", "id": 195, "geometry": {"type": "Point", "coordinates": [-86.30730879999999, 36.314801300000056]}, "properties": {"OBJECTID": 195, "Category_of_Sea_Area": "River", "Object_Name": "Saunders Branch", "Information": "", "Scale_Minimum": 60000, "Source_Date": "20050412", "Source_Indication": "US,U3,USACE,LRN_GIS", "Source_Dataset": "U37CR221.000", "Feature_ID": "U3 1392980011 00001"}}, {"type": "Feature", "id": 196, "geometry": {"type": "Point", "coordinates": [-86.59837609999994, 36.25189340000003]}, "properties": {"OBJECTID": 196, "Category_of_Sea_Area": "River", "Object_Name": "Drakes Creek", "Information": "", "Scale_Minimum": 60000, "Source_Date": "20050412", "Source_Indication": "US,U3,USACE,LRN_GIS", "Source_Dataset": "U37CR221.000", "Feature_ID": "U3 1392980016 00001"}}, {"type": "Feature", "id": 197, "geometry": {"type": "Point", "coordinates": [-86.00186719999994, 36.28700760000004]}, "properties": {"OBJECTID": 197, "Category_of_Sea_Area": "", "Object_Name": "Rowlands Towhead (Inundated)", "Information": "", "Scale_Minimum": 60000, "Source_Date": "20050412", "Source_Indication": "US,U3,USACE,LRN_GIS", "Source_Dataset": "U37CR221.000", "Feature_ID": "U3 1392980041 00001"}}, {"type": "Feature", "id": 198, "geometry": {"type": "Point", "coordinates": [-86.47715719999997, 36.312978000000044]}, "properties": {"OBJECTID": 198, "Category_of_Sea_Area": "River", "Object_Name": "Spencer Creek", "Information": "", "Scale_Minimum": 60000, "Source_Date": "20050412", "Source_Indication": "US,U3,USACE,LRN_GIS", "Source_Dataset": "U37CR221.000", "Feature_ID": "U3 1392980043 00001"}}, {"type": "Feature", "id": 199, "geometry": {"type": "Point", "coordinates": [-86.34432119999997, 36.313068000000044]}, "properties": {"OBJECTID": 199, "Category_of_Sea_Area": "River", "Object_Name": "Spring Creek", "Information": "", "Scale_Minimum": 60000, "Source_Date": "20050412", "Source_Indication": "US,U3,USACE,LRN_GIS", "Source_Dataset": "U37CR221.000", "Feature_ID": "U3 1392980801 00001"}}, {"type": "Feature", "id": 200, "geometry": {"type": "Point", "coordinates": [-86.15963139999997, 36.35892460000008]}, "properties": {"OBJECTID": 200, "Category_of_Sea_Area": "River", "Object_Name": "Goose Creek", "Information": "", "Scale_Minimum": 60000, "Source_Date": "20190201", "Source_Indication": "US,U3,OTHER,USGS_GNIS_Database", "Source_Dataset": "U37CR221.000", "Feature_ID": "U3 1392980807 00001"}}, {"type": "Feature", "id": 201, "geometry": {"type": "Point", "coordinates": [-86.50696759999994, 36.27977340000007]}, "properties": {"OBJECTID": 201, "Category_of_Sea_Area": "River", "Object_Name": "Cedar Creek", "Information": "", "Scale_Minimum": 60000, "Source_Date": "20050412", "Source_Indication": "US,U3,USACE,LRN_GIS", "Source_Dataset": "U37CR221.000", "Feature_ID": "U3 1392980814 00001"}}, {"type": "Feature", "id": 202, "geometry": {"type": "Point", "coordinates": [-86.34858859999997, 36.35390810000007]}, "properties": {"OBJECTID": 202, "Category_of_Sea_Area": "River", "Object_Name": "Bledsoe Creek", "Information": "", "Scale_Minimum": 60000, "Source_Date": "20050412", "Source_Indication": "US,U3,USACE,LRN_GIS", "Source_Dataset": "U37CR221.000", "Feature_ID": "U3 1392980844 00001"}}, {"type": "Feature", "id": 203, "geometry": {"type": "Point", "coordinates": [-86.56799969999997, 36.25865470000008]}, "properties": {"OBJECTID": 203, "Category_of_Sea_Area": "River", "Object_Name": "Nokes Branch", "Information": "", "Scale_Minimum": 60000, "Source_Date": "20050412", "Source_Indication": "US,U3,USACE,LRN_GIS", "Source_Dataset": "U37CR221.000", "Feature_ID": "U3 1392980860 00001"}}, {"type": "Feature", "id": 204, "geometry": {"type": "Point", "coordinates": [-86.24807229999999, 36.305288200000064]}, "properties": {"OBJECTID": 204, "Category_of_Sea_Area": "River", "Object_Name": "Cedar Creek", "Information": "", "Scale_Minimum": 60000, "Source_Date": "20050412", "Source_Indication": "US,U3,USACE,LRN_GIS", "Source_Dataset": "U37CR221.000", "Feature_ID": "U3 1392980862 00001"}}, {"type": "Feature", "id": 205, "geometry": {"type": "Point", "coordinates": [-86.47935779999995, 36.32413340000005]}, "properties": {"OBJECTID": 205, "Category_of_Sea_Area": "", "Object_Name": "Old Lock & Dam No. 4 (237.0) - Inundated", "Information": "", "Scale_Minimum": 60000, "Source_Date": "20050412", "Source_Indication": "US,U3,USACE,LRN_GIS", "Source_Dataset": "U37CR221.000", "Feature_ID": "U3 1392980863 00001"}}, {"type": "Feature", "id": 206, "geometry": {"type": "Point", "coordinates": [-86.29985899999997, 36.31233800000007]}, "properties": {"OBJECTID": 206, "Category_of_Sea_Area": "Unknown", "Object_Name": "Spring Creek RP (255.6)", "Information": "Historic Reference Point", "Scale_Minimum": 60000, "Source_Date": "20250113", "Source_Indication": "US,U3,LIGHT,USCG_Light_List_No_3525_LNM_34/10", "Source_Dataset": "U37CR221.000", "Feature_ID": "U3 1617891058 00001"}}, {"type": "Feature", "id": 207, "geometry": {"type": "Point", "coordinates": [-85.99732499999999, 36.291930000000036]}, "properties": {"OBJECTID": 207, "Category_of_Sea_Area": "Unknown", "Object_Name": "Taylors Branch RP (302.4)", "Information": "Historic Reference Point", "Scale_Minimum": 60000, "Source_Date": "20250113", "Source_Indication": "US,U3,LIGHT,USCG_Light_List_No_3470_LNM_34/10", "Source_Dataset": "U37CR221.000", "Feature_ID": "U3 1617891056 00001"}}, {"type": "Feature", "id": 208, "geometry": {"type": "Point", "coordinates": [-86.33355799999998, 36.31989600000003]}, "properties": {"OBJECTID": 208, "Category_of_Sea_Area": "Unknown", "Object_Name": "Wilson County RP (253.8)", "Information": "Historic Reference Point", "Scale_Minimum": 60000, "Source_Date": "20250113", "Source_Indication": "US,U3,LIGHT,USCG_Light_List_No_3530_LNM_34/10", "Source_Dataset": "U37CR221.000", "Feature_ID": "U3 1617891059 00001"}}, {"type": "Feature", "id": 209, "geometry": {"type": "Point", "coordinates": [-86.36163399999998, 36.30954800000006]}, "properties": {"OBJECTID": 209, "Category_of_Sea_Area": "Unknown", "Object_Name": "Barton Creek RP (252.0)", "Information": "Historic Reference Point", "Scale_Minimum": 60000, "Source_Date": "20250113", "Source_Indication": "US,U3,LIGHT,USCG_Light_List_No_3535_LNM_34/10", "Source_Dataset": "U37CR221.000", "Feature_ID": "U3 1617891060 00001"}}, {"type": "Feature", "id": 210, "geometry": {"type": "Point", "coordinates": [-86.38875299999995, 36.31133300000005]}, "properties": {"OBJECTID": 210, "Category_of_Sea_Area": "Unknown", "Object_Name": "Steam Plant RP (243.8)", "Information": "Historic Reference Point", "Scale_Minimum": 60000, "Source_Date": "20250113", "Source_Indication": "US,U3,LIGHT,USCG_Light_List_No_3575_LNM_34/10", "Source_Dataset": "U37CR221.000", "Feature_ID": "U3 1617891061 00001"}}, {"type": "Feature", "id": 214, "geometry": {"type": "Point", "coordinates": [-85.94263439999997, 36.29045490000004]}, "properties": {"OBJECTID": 214, "Category_of_Sea_Area": "", "Object_Name": "Cordell Hull Lock and Dam", "Information": "", "Scale_Minimum": 60000, "Source_Date": "20050414", "Source_Indication": "US,U3,USACE,LRN_GIS", "Source_Dataset": "U37CR307.000", "Feature_ID": "U3 1392989252 00001"}}, {"type": "Feature", "id": 238, "geometry": {"type": "Point", "coordinates": [-85.94102709999999, 36.238846300000034]}, "properties": {"OBJECTID": 238, "Category_of_Sea_Area": "River", "Object_Name": "Caney River", "Information": "", "Scale_Minimum": 45000, "Source_Date": "20050414", "Source_Indication": "US,U3,USACE,LRN_GIS", "Source_Dataset": "U37CR307.000", "Feature_ID": "U3 1392989537 00001"}}]}