{"type": "FeatureCollection", "features": [{"type": "Feature", "id": 14, "geometry": {"type": "Polygon", "coordinates": [[[-86.657583, 36.296587], [-86.657633, 36.296455], [-86.657768, 36.29637], [-86.656526, 36.295665], [-86.656391, 36.295744], [-86.656344, 36.295871], [-86.657583, 36.296587]]]}, "properties": {"OBJECTID": 14, "Category_of_Sea_Area": "", "Object_Name": "Old Hickory Lock and Dam", "Information": "", "Scale_Minimum": 60000, "Source_Date": "20131113", "Source_Indication": "US,U3,SURVY,2013_SEAS_LIDAR_Mapping_Survey", "Source_Dataset": "U37CR149.000", "Feature_ID": "U3 1392977283 00001"}}]}